id_annonce,site,prix,surface,prix_m2,type,description,code_postal,ville,url,latitude,longitude
1,Century 21,800.0,34.5,23.19,Appartement,"1 pièce - F1 34,50 m2, Ref : 1010",69007,Lyon,https://www.century21.fr/trouver_logement/detail/15276162979/,45.74571924974035,4.838307230628189
2,Century 21,580.0,16.67,34.79,Appartement,"1 pièce - F1 16,67 m2, Ref : 20439",69008,Lyon,https://www.century21.fr/trouver_logement/detail/15274002009/,45.73950203705008,4.8639169846981165
3,Century 21,812.0,45.36,17.9,Appartement,"T2 - 45,36 m2, 2 pièces Ref : 1011",69007,Lyon,https://www.century21.fr/trouver_logement/detail/15292339323/,45.7448096090519,4.840534176543623
4,Century 21,720.0,21.62,33.3,Appartement,"T1 - 21,62 m2, 1 pièce Ref : 20441",69008,Lyon,https://www.century21.fr/trouver_logement/detail/15285242312/,45.73934194371166,4.862433490165402
5,Century 21,1800.0,101.5,17.73,Appartement,"4 pièce - F4 101,50 m2, s Ref : 1852",69008,Lyon,https://www.century21.fr/trouver_logement/detail/14523630496/,45.73905527720003,4.8602362762870355
6,Century 21,1070.0,57.14,18.73,Appartement,"2 pièce - F2 57,14 m2, s Ref : 1965",69008,Lyon,https://www.century21.fr/trouver_logement/detail/15064206354/,45.7419194791043,4.8634761140455405
7,Century 21,1800.0,100.65,17.88,Appartement,"3 pièce - 100,65 m2, s Ref : 39048",69001,Lyon,https://www.century21.fr/trouver_logement/detail/15274160940/,45.75756405649542,4.837024182203543
9,Century 21,565.0,19.41,29.11,Studio,"1 pièce - Studio 19,41 m2, Ref : 59566",69009,Lyon,https://www.century21.fr/trouver_logement/detail/15255209297/,45.7673433168923,4.801396949448664
10,Century 21,895.0,55.52,16.12,Appartement,"2 pièce - F2 55,52 m2, s Ref : 987",69007,Lyon,https://www.century21.fr/trouver_logement/detail/15064856154/,45.7452919562506,4.83942865619664
12,Century 21,1091.0,42.25,25.82,Appartement,"2 pièce - F2 42,25 m2, s Ref : 4029",69001,Lyon,https://www.century21.fr/trouver_logement/detail/15185134901/,45.75991611372569,4.8344923768881864
13,Century 21,2000.0,105.06,19.04,Appartement,"3 pièce - F3 105,06 m2, s Ref : 774",69001,Lyon,https://www.century21.fr/trouver_logement/detail/15178276307/,45.75705907972556,4.833334468182957
14,Century 21,981.0,52.5,18.69,Appartement,"2 pièce - F2 Bis 52,50 m2, s Ref : 990",69007,Lyon,https://www.century21.fr/trouver_logement/detail/15185253004/,45.74583754155532,4.840450143753514
15,Century 21,1500.0,52.9,28.36,Appartement,"3 pièce - F3 52,90 m2, s Ref : 20372",69001,Lyon,https://www.century21.fr/trouver_logement/detail/14764436270/,45.75812754093226,4.834920632230511
16,Century 21,2500.0,170.0,14.71,Appartement,"T3 - 170 m2, 4 pièces Ref : 907",69007,Lyon,https://www.century21.fr/trouver_logement/detail/13910822966/,45.747216006949344,4.83976435585809
17,Orpi,1250.0,49.0,25.51,Studio,2 pièce - 1 chambre - Vous souhaitez vendre un bien prochainement ?Estimez - le en ligne en 5 minutes chronoEstimer mon loye rExclusivitépar mois s 49 m2 6 - Les BrotteauxMessageBon étatMeubléAscenseurEtage : 5FavorisExclusivité1 049 €par mois 1 pièce 40 m2 3 - VilletteMessageStudioBalconBon étatMeubléAscenseurEtage : 3FavorisExclusivitéVisite virtuelle916 €par mois 3 pièces 68 m2 8 - Grand TrouMessage2 chambresTerrasseBon étatNon meubléAscenseurEtage : 3FavorisExclusivité2 500 €par mois 4 pièces 135 m2 6 - Les BrotteauxMessage3 chambresBalconBon étatNon meubléAscenseurEtage : 3Favoris915 €par mois s 44 m2 3 - Place GuichardMessageBon étatMeubléEtage : 2FavorisExclusivité845 €par mois s 42 m2 3 - FérrandièreMessageCaveBon étatMeubléEtage : 2FavorisExclusivité1 409 €par mois 3 pièces 73 m2 5 - DebrousseMessage2 chambresTerrasseBon étatNon meubléAscenseurRez - de - chausséeFavorisExclusivité600 €par mois 1 pièce 77 m2 2 - ConfluenceMessageBon étatMeubléEtage : 3FavorisExclusivité600 €par moisprix en baisse 1 pièce 20 m2 2 - ConfluenceMessageBon étatMeubléEtage : 3FavorisExclusivité780 €par mois s 54 m2 5 - Saint - IrénéeMessageBon étatNon meubléEtage : 1FavorisExclusivité1 350 €par mois 4 pièces 85 m2 8 - BachutMessage3 chambresBalconCaveBon étatNon meubléAscenseurFavorisExclusivité935 €par mois s 49 m2 8 - BachutMessageBon étatNon meubléAscenseurRez - de - chausséeFavorisExclusivité1 299 €par mois 3 pièces 42 m2 5 - Saint - GeorgesMessage2 chambresBon étatMeubléAscenseurEtage : 2FavorisExclusivité677 €par mois 1 pièce 36 m2 5 - DebrousseMessageStudioBon étatMeubléAscenseurEtage : 1Favoris,69006,Lyon,https://www.orpi.com/estimer/estimation-valeur-locative/,45.76319266725934,4.8706211840475255
18,Orpi,1250.0,49.0,25.51,Appartement,2 pièce - 1 chambre - Exclusivitépar mois s 49 m2 6 - Les BrotteauxMessageB on étatMeubléAscenseurEtage : 5Favoris,69006,Lyon,https://www.orpi.com/annonce-location-appartement-t2-lyon-6-69006-0a084b58-56e3-4892-8af6-91fb853ce744/,45.76584340307617,4.868913312007141
19,Orpi,1049.0,40.0,26.23,Studio,1 pièce - Exclusivitépar mois 40 m2 3 - VilletteMessageStudioBalconBon étatMeubléAscenseurEtage : 3Favoris,69003,Lyon,https://www.orpi.com/annonce-location-appartement-t1-lyon-3-69003-0c919280-bd31-4fc6-924e-1b6682a898ee/,45.759883353064986,4.868133794394665
20,Orpi,916.0,68.0,13.47,Appartement,3 pièce - 2 chambre - ExclusivitéVisite virtuellepar mois s 68 m2 8 - Grand TrouMess agesTerrasseBon étatNon meubléAscenseurEtage : 3Favoris,69008,Lyon,https://www.orpi.com/annonce-location-appartement-t3-lyon-8-69008-0337d89b-7304-4672-9f2e-d62d850bd98f/,45.73977991346233,4.864732509652403
21,Orpi,2500.0,135.0,18.52,Appartement,4 pièce - 3 chambre - Exclusivitépar mois s 135 m2 6 - Les BrotteauxMessage sBalconBon étatNon meubléAscenseurEtage : 3Favoris,69006,Lyon,https://www.orpi.com/annonce-location-appartement-t4-lyon-6-69006-48aa2103-f503-46c2-9d73-cff332424989/,45.76705075564081,4.868474965185822
22,Orpi,915.0,44.0,20.8,Appartement,2 pièce - 1 chambre - par mois s 44 m2 3 - Place GuichardMessageBon étatMeu bléEtage : 2Favoris,69003,Lyon,https://www.orpi.com/annonce-location-appartement-t2-lyon-3-69003-a4a22b97-4025-4663-aeac-2f588f994c7b/,45.759874988298066,4.868412441357425
23,Orpi,845.0,42.0,20.12,Appartement,2 pièce - 1 chambre - Exclusivitépar mois s 42 m2 3 - FérrandièreMessageCav eBon étatMeubléEtage : 2Favoris,69003,Lyon,https://www.orpi.com/annonce-location-appartement-t2-lyon-3-69003-43e87b43-2ce9-44ec-bd89-32f06a5c0148/,45.759976515183695,4.870645741494133
24,Orpi,1409.0,73.0,19.3,Appartement,3 pièce - 2 chambre - Exclusivitépar mois s 73 m2 5 - DebrousseMessagesTerr asseBon étatNon meubléAscenseurRez - de - chausséeFavoris,69005,Lyon,https://www.orpi.com/annonce-location-appartement-t3-lyon-5-69005-f7babd63-a621-46de-9c1f-c0bd1c4978b8/,45.75389580117282,4.793986614233803
26,Orpi,600.0,20.0,30.0,Appartement,1 pièce - 1 chambre - Exclusivitépar moisprix en baisse 20 m2 2 - ConfluenceMessage Bon étatMeubléEtage : 3Favoris,69002,Lyon,https://www.orpi.com/annonce-location-appartement-t1-lyon-2-69002-12f04355-f11b-4962-b7f1-4a3dc3f41f66/,45.751554336641014,4.8303629296480715
27,Orpi,780.0,54.0,14.44,Appartement,2 pièce - 1 chambre - Exclusivitépar mois s 54 m2 5 - Saint - IrénéeMessageBo n étatNon meubléEtage : 1Favoris,69005,Lyon,https://www.orpi.com/annonce-location-appartement-t2-lyon-5-69005-a2a0c3e1-fd7a-4d60-b849-5583df45e496/,45.75461672932945,4.793140913736432
28,Orpi,1350.0,85.0,15.88,Appartement,4 pièce - 3 chambre - Exclusivitépar mois s 85 m2 8 - BachutMessagesBalconC aveBon étatNon meubléAscenseurFavoris,69008,Lyon,https://www.orpi.com/annonce-location-appartement-t4-lyon-8-69008-239-028098-909/,45.73789594263975,4.861606158112368
29,Orpi,935.0,49.0,19.08,Appartement,2 pièce - 1 chambre - Exclusivitépar mois s 49 m2 8 - BachutMessageBon état Non meubléAscenseurRez - de - chausséeFavoris,69008,Lyon,https://www.orpi.com/annonce-location-appartement-t2-lyon-8-69008-121e932d-6bb8-4d70-b28e-bafcb0d632c1/,45.738639138378495,4.862201727477531
30,Orpi,1299.0,42.0,30.93,Appartement,3 pièce - 2 chambre - Exclusivitépar mois s 42 m2 5 - Saint - GeorgesMessages Bon étatMeubléAscenseurEtage : 2Favoris,69005,Lyon,https://www.orpi.com/annonce-location-appartement-t3-lyon-5-69005-430c1733-385b-4fab-9e09-baaf560809a6/,45.75462642289862,4.795760954776381
31,Orpi,677.0,36.0,18.81,Studio,1 pièce - Exclusivitépar mois 36 m2 5 - DebrousseMessageStudioBon étatM eubléAscenseurEtage : 1Favoris,69005,Lyon,https://www.orpi.com/annonce-location-appartement-t1-lyon-5-69005-cb2739d7-b96b-4522-ba7b-ab540d355696/,45.7518768313663,4.792883207623565
32,Orpi,990.0,67.0,14.78,Appartement,3 pièce - 2 chambre - Exclusivitépar mois s 67 m2 8 - SantyMessagesBalconCa veBon étatNon meubléAscenseurFavoris,69008,Lyon,https://www.orpi.com/annonce-location-appartement-t3-lyon-8-69008-d344dd1f-1b40-4af2-8c76-d4a485d1324e/,45.742511516841844,4.861770289220638
33,Orpi,1090.0,67.0,16.27,Appartement,3 pièce - 2 chambre - Exclusivitépar mois s 67 m2 8 - SantyMessagesBalconCa veBon étatMeubléAscenseurFavoris,69008,Lyon,https://www.orpi.com/annonce-location-appartement-t3-lyon-8-69008-a7df1c71-0f1a-47ef-80de-49ba5e3d7b5e/,45.74240222936405,4.86350549522091
34,Orpi,1793.0,89.0,20.15,Appartement,3 pièce - 2 chambre - Exclusivitépar mois s 89 m2 6 - MassénaMessagesBalcon Bon étatNon meubléAscenseurEtage : 3Favoris,69006,Lyon,https://www.orpi.com/annonce-location-appartement-t3-lyon-6-69006-696f5db3-44a9-4e33-9431-12c45945b418/,45.76334108384882,4.869929387628891
35,Orpi,473.0,28.0,16.89,Studio,1 pièce - Exclusivitépar mois 28 m2 7 - GuillotièreMessageStudioCaveBon étatNon meubléEtage : 3Favoris,69007,Lyon,https://www.orpi.com/annonce-location-appartement-t1-lyon-7-69007-986f45ed-37b3-4eba-b86b-a463156f40bf/,45.74563408328435,4.841837828750854
36,Orpi,2380.0,109.0,21.83,Appartement,4 pièce - Exclusivitépar mois s 109 m2 1 - Jardin des PlantesMessage3 ch ambresParfait étatMeubléAscenseurEtage : 5Favoris,69001,Lyon,https://www.orpi.com/annonce-location-appartement-t4-lyon-1-69001-85f1d774-8099-44d3-bb80-0c008b07c64e/,45.75958362332567,4.833076034822639
37,Orpi,1100.0,50.0,22.0,Appartement,2 pièce - 1 chambre - Exclusivitépar mois s 50 m2 8 - Monplaisir - Frères LumièreMes sageBalconCaveBon étatMeubléAscenseurFavoris,69008,Lyon,https://www.orpi.com/annonce-location-appartement-t2-lyon-8-69008-2234d22a-dca7-408c-87c0-a164a8e07986/,45.73830440268478,4.864233382167081
38,Orpi,2500.0,157.0,15.92,Appartement,4 pièce - 3 chambre - Exclusivitépar mois s 157 m2 5 - Saint - GeorgesMessage sCaveParfait étatNon meubléAscenseurEtage : 1Favoris,69005,Lyon,https://www.orpi.com/annonce-location-appartement-t4-lyon-5-69005-7f8cd1f4-d3c1-4699-aa1d-62bd7689b7cf/,45.75091512719744,4.795273566477267
39,Orpi,638.0,37.0,17.24,Appartement,2 pièce - 1 chambre - Exclusivitépar mois s 37 m2 3 - FérrandièreMessageBon étatNon meubléEtage : 1Favoris,69003,Lyon,https://www.orpi.com/annonce-location-appartement-t2-lyon-3-69003-121e5f2a-8ee3-4bf9-a4a1-a64060e10d33/,45.75663586749336,4.8686254249022305
40,Orpi,1283.0,68.0,18.87,Appartement,3 pièce - 2 chambre - Exclusivitépar mois s 68 m2 3 - FérrandièreMessagesBa lconCaveBon étatNon meubléEtage : 4Favoris,69003,Lyon,https://www.orpi.com/annonce-location-appartement-t3-lyon-3-69003-b9553abc-f4d8-4a65-a49c-e9c5b8bf8d0a/,45.75744527511728,4.870062207362352
41,Orpi,915.0,48.0,19.06,Appartement,2 pièce - Visite virtuellepar mois s 48 m2 9 - Gorge de LoupMessage1 cha mbreBalconBon étatNon meubléAscenseurEtage : 4Favoris,69009,Lyon,https://www.orpi.com/annonce-location-appartement-t2-lyon-9-69009-19e3b5ff-3b57-4419-be3e-fef70c123ac2/,45.76936051738805,4.8026998183642755
42,Orpi,2371.0,163.0,14.55,Appartement,5 pièce - 4 chambre - ExclusivitéVisite virtuellepar mois s 163 m2 6 - Les Brotteaux MessagesBon étatNon meubléAscenseurEtage : 1Favoris,69006,Lyon,https://www.orpi.com/annonce-location-appartement-t5-lyon-6-69006-08b67683-96b2-47aa-acf9-c97e3284d75d/,45.765783094439676,4.866518115425011
43,Orpi,535.0,18.0,29.72,Studio,1 pièce - Visite virtuellepar mois 18 m2 9 - Gare de VaiseMessageStudio Bon étatMeubléEtage : 1Favoris,69009,Lyon,https://www.orpi.com/annonce-location-appartement-t1-lyon-9-69009-341935b8-6545-476b-99bf-c3516ef981ff/,45.76521792181071,4.802126443785474
44,Orpi,1170.0,66.0,17.73,Appartement,3 pièce - 2 chambre - ExclusivitéVisite virtuellepar mois s 66 m2 9 - Gare de VaiseM essagesBalconCaveBon étatNon meubléAscenseurFavoris,69009,Lyon,https://www.orpi.com/annonce-location-appartement-t3-lyon-9-69009-093f2850-d925-4c45-a0d8-576771a590c5/,45.76753514039209,4.798903569963667
45,Orpi,1090.0,71.0,15.35,Appartement,3 pièce - 2 chambre - Exclusivitépar mois s 71 m2 8 - Monplaisir - Frères LumièreMes sagesTerrasseBon étatNon meubléRez - de - chausséeFavoris,69008,Lyon,https://www.orpi.com/annonce-location-appartement-t3-lyon-8-69008-f5536bf6-e179-4317-8076-3fe83848fc34/,45.740377154312895,4.86339673008153
46,Orpi,1406.0,55.0,25.56,Appartement,4 pièce - Exclusivitépar mois s 55 m2 4 - Place des TapisMessage3 chambr esBon étatNon meubléEtage : 1Favoris,69004,Lyon,https://www.orpi.com/annonce-location-appartement-t4-lyon-4-69004-12398bce-de08-40f9-a1b2-48bb3c310890/,45.777495357777795,4.832069225066585
47,Orpi,745.0,47.0,15.85,Appartement,2 pièce - 1 chambre - Exclusivitépar mois s 47 m2 3 - Grange BlancheMessage CaveBon étatNon meubléAscenseurEtage : 3Favoris,69003,Lyon,https://www.orpi.com/annonce-location-appartement-t2-lyon-3-69003-d7a420fc-8ae5-42ef-be30-b745cf06c961/,45.75835575929496,4.866213048886997
48,Orpi,2580.0,147.0,17.55,Maison,6 pièce - 5 chambre - Visite virtuellepar mois Maison s 147 m2 9 - ChampvertMessagesBal conTerrasseBon étatGarageNon meubléFavoris,69009,Lyon,https://www.orpi.com/annonce-location-maison-t6-lyon-9-69009-f4364878-b5b6-4471-abd4-097d70722d8f/,45.76845331867057,4.8027816411626585
49,Orpi,1173.0,66.0,17.77,Appartement,2 pièce - 1 chambre - Exclusivitépar mois s 66 m2 5 - Vieux MessageÀ ra fraîchirMeubléAscenseurEtage : 6Favoris,69005,Lyon,https://www.orpi.com/annonce-location-appartement-t2-lyon-5-69005-a9a0ccde-70e6-4319-a5c9-371b5a365fbe/,45.75429872064539,4.795122245548138
50,Orpi,1185.0,54.0,21.94,Appartement,2 pièce - 1 chambre - Exclusivitépar mois s 54 m2 2 - ConfluenceMessageBalc onTerrasseBon étatNon meubléAscenseurFavoris,69002,Lyon,https://www.orpi.com/annonce-location-appartement-t2-lyon-2-69002-f0bbc7de-b457-49aa-a57d-d34d9cbb4068/,45.75488763472638,4.830668875262728
51,Orpi,1694.0,108.0,15.69,Appartement,4 pièce - 3 chambre - par mois s 108 m2 2 - CordeliersMessagesBon étatNon m eubléEtage : 1Favoris,69002,Lyon,https://www.orpi.com/annonce-location-appartement-t4-lyon-2-69002-7a90a665-2f12-44cc-a08a-dcc93f612bc9/,45.7515536421413,4.827127124258664
52,Orpi,515.0,20.0,25.75,Studio,1 pièce - par mois 20 m2 3 - GaribaldiMessageStudioBon étatMeubléAscens eurEtage : 2Favoris,69003,Lyon,https://www.orpi.com/annonce-location-appartement-t1-lyon-3-69003-db179331-37fe-4c61-b3be-d69a91342018/,45.759098795189544,4.869946078120791
53,Orpi,1055.0,57.0,18.51,Appartement,3 pièce - 2 chambre - Visite virtuellepar mois s 57 m2 9 - ValmyMessagesPar fait étatMeubléEtage : 4Favoris,69009,Lyon,https://www.orpi.com/annonce-location-appartement-t3-lyon-9-69009-553daa07-1067-49bf-bcb4-49d0eea028fa/,45.76576822592035,4.800352971550885
54,Orpi,1920.0,95.0,20.21,Appartement,3 pièce - 2 chambre - ExclusivitéVisite virtuellepar mois s 95 m2 6 - Tête d'OrMessa gesCaveBon étatMeubléRez - de - chausséeFavoris,69006,Lyon,https://www.orpi.com/annonce-location-appartement-t3-lyon-6-69006-24bcac90-5b51-4f72-bc6e-06184629c69b/,45.763195983986144,4.869713368216318
55,Orpi,800.0,57.0,14.04,Appartement,3 pièce - 2 chambre - ExclusivitéVisite virtuellepar moisprix en baisse s 57 m2 8 - Moulin à VentMessagesBon étatMeubléEtage : 1Favoris,69008,Lyon,https://www.orpi.com/annonce-location-appartement-t3-lyon-8-69008-48d4d4ac-6437-405d-8cdd-047504c4f73d/,45.74037438533016,4.863020741611718
56,Orpi,950.0,48.0,19.79,Appartement,2 pièce - Visite virtuellepar mois s 48 m2 9 - Gare de VaiseMessage1 cha mbreBalconBon étatMeubléAscenseurEtage : 2Favoris,69009,Lyon,https://www.orpi.com/annonce-location-appartement-t2-lyon-9-69009-881b831d-67b0-4584-836b-3b46189d06ab/,45.76935472371851,4.800145922213804
57,Orpi,949.0,65.0,14.6,Appartement,4 pièce - 3 chambre - Exclusivitépar mois s 65 m2 5 - ChampvertMessagesBalc onBon étatNon meubléRez - de - chausséeFavoris,69005,Lyon,https://www.orpi.com/annonce-location-appartement-t4-lyon-5-69005-8358f9d5-277f-4bee-9c84-022d33b9dd4b/,45.75297231929998,4.793654176310378
58,Orpi,1980.0,126.0,15.71,Appartement,3 pièce - 2 chambre - Exclusivitépar mois s 126 m2 2 - AmpèreMessagesBon ét atMeubléEtage : 2Favoris,69002,Lyon,https://www.orpi.com/annonce-location-appartement-t3-lyon-2-69002-5680f655-8e13-44c9-9c5c-317d25670e6a/,45.7526269331399,4.828996181916221
59,Orpi,1461.0,97.0,15.06,Appartement,3 pièce - 2 chambre - Exclusivitépar mois s 97 m2 2 - PerracheMessagesParfa it étatNon meubléAscenseurEtage : 2Favoris,69002,Lyon,https://www.orpi.com/annonce-location-appartement-t3-lyon-2-69002-424-028062-214/,45.75401361037336,4.82928878695802
60,Orpi,1630.0,86.0,18.95,Appartement,4 pièce - ExclusivitéVisite virtuellepar mois s 86 m2 6 - FochMessage3 c hambresCaveBon étatNon meubléAscenseurEtage : 5Favoris,69006,Lyon,https://www.orpi.com/annonce-location-appartement-t4-lyon-6-69006-e4daecc4-97ce-472f-9f9a-237869aa8e47/,45.764417150327986,4.871150868550997
61,Orpi,1065.0,67.0,15.9,Appartement,3 pièce - 2 chambre - Exclusivitépar mois s 67 m2 7 - DebourgMessagesBalcon Bon étatMeubléAscenseurEtage : 6Favoris,69007,Lyon,https://www.orpi.com/annonce-location-appartement-t3-lyon-7-69007-eea24185-f670-4ea3-9ecf-bc1d7363dbe5/,45.74937738551751,4.841028120709141
62,Orpi,1840.0,77.0,23.9,Appartement,4 pièce - 3 chambre - Exclusivitépar mois s 77 m2 7 - DebourgMessagesBalcon Bon étatMeubléAscenseurEtage : 3Favoris,69007,Lyon,https://www.orpi.com/annonce-location-appartement-t4-lyon-7-69007-1eeaead5-8b91-471d-b1d4-c2afcb5ef9fe/,45.747048125822964,4.837574282152329
63,Orpi,1100.0,47.0,23.4,Appartement,3 pièce - 2 chambre - Exclusivitépar mois s 47 m2 1 - Croix RousseMessagesC aveParfait étatMeubléRez - de - chausséeFavoris,69001,Lyon,https://www.orpi.com/annonce-location-appartement-t3-lyon-1-69001-f597bf58-63e3-48e1-a070-28aa1676aac6/,45.76052025223085,4.836913942700284
64,Orpi,1590.0,64.0,24.84,Appartement,3 pièce - 2 chambre - par moisprix en baisse s 64 m2 2 - ConfluenceMessages BalconCaveParfait étatNon meubléAscenseurFavoris,69002,Lyon,https://www.orpi.com/annonce-location-appartement-t3-lyon-2-69002-f0623f90-f4e9-4e49-a518-8803820ab09c/,45.754646796212235,4.83090360376394
65,Orpi,1080.0,54.0,20.0,Appartement,2 pièce - 1 chambre - Exclusivitépar mois s 54 m2 5 - Vieux MessageParf ait étatMeubléEtage : 3Favoris,69005,Lyon,https://www.orpi.com/annonce-location-appartement-t2-lyon-5-69005-4d542d10-e2d8-4c73-81e3-352e10d942ae/,45.75171037187545,4.7931468644371
66,Orpi,1400.0,92.0,15.22,Appartement,4 pièce - 3 chambre - ExclusivitéVisite virtuellepar moisprix en baisse s 92 m2 7 - GaribaldiMessagesBon étatNon meubléAscenseurEtage : 7Favoris,69007,Lyon,https://www.orpi.com/annonce-location-appartement-t4-lyon-7-69007-da09702a-d0a6-46f1-9348-bdad51411c3a/,45.74450871473622,4.838154187783729
67,Orpi,809.0,53.0,15.26,Appartement,2 pièce - 1 chambre - Exclusivitépar mois s 53 m2 7 - DebourgMessageBon éta tMeubléEtage : 1Favoris,69007,Lyon,https://www.orpi.com/annonce-location-appartement-t2-lyon-7-69007-eb34fdb8-33a2-44b5-a728-5ac849da3f17/,45.74848728744009,4.837725789401918
68,Orpi,1387.0,66.0,21.02,Appartement,3 pièce - 2 chambre - Exclusivitépar mois s 66 m2 7 - DebourgMessagesBalcon Bon étatMeubléAscenseurRez - de - chausséeFavoris,69007,Lyon,https://www.orpi.com/annonce-location-appartement-t3-lyon-7-69007-37a91129-243d-4614-bd3a-d4ce37c11615/,45.74634734055375,4.839150991923471
69,Orpi,1178.0,77.0,15.3,Appartement,3 pièce - 2 chambre - ExclusivitéVisite virtuellepar mois s 77 m2 7 - GerlandMessage sBon étatNon meubléEtage : 3Favoris,69007,Lyon,https://www.orpi.com/annonce-location-appartement-t3-lyon-7-69007-d65c9020-7096-4abb-a985-9399a4deba55/,45.746361933180985,4.838679527684599
71,Orpi,1433.0,86.0,16.66,Appartement,3 pièce - 3 chambre - Exclusivitépar mois s 86 m2 7 - DebourgMessagesBalcon TerrasseÀ rafraîchirNon meubléAscenseurFavoris,69007,Lyon,https://www.orpi.com/annonce-location-appartement-t3-lyon-7-69007-0079ca6a-5085-467e-a7dd-045187c95a7e/,45.74610564562883,4.837418272507936
72,Orpi,1350.0,81.0,16.67,Appartement,4 pièce - 2 chambre - ExclusivitéVisite virtuellepar mois s 81 m2 9 - La DuchèreMess agesBalconCaveBon étatExposition : SudNon meubléFavoris,69009,Lyon,https://www.orpi.com/annonce-location-appartement-t4-lyon-9-69009-87559fae-fd4d-4333-9603-01331ca974e8/,45.76529897196121,4.803267519488384
73,Orpi,750.0,35.0,21.43,Studio,1 pièce - Exclusivitépar mois 35 m2 3 - Sans SouciMessageStudioCaveBon étatMeubléAscenseurRez - de - chausséeFavoris,69003,Lyon,https://www.orpi.com/annonce-location-appartement-t1-lyon-3-69003-11ed4cbc-bc8d-4caf-ad5a-a0a41ef9c44e/,45.75729204282492,4.869376626805734
74,Orpi,1950.0,50.0,39.0,Appartement,2 pièce - ExclusivitéVisite virtuellepar mois s 50 m2 6 - FochMessage1 c hambreBalconCaveBon étatNon meubléAscenseurFavoris,69006,Lyon,https://www.orpi.com/annonce-location-appartement-t2-lyon-6-69006-e919fdb0-5de5-4f7f-b755-7fe86f29b72f/,45.76579414872907,4.866523658199605
75,Orpi,1750.0,109.0,16.06,Maison,4 pièce - 3 chambre - ExclusivitéVisite virtuellepar mois Maison s 109 m2 3 - Grange BlancheMess agesTerrasseBon étatNon meubléJardinFavoris,69003,Lyon,https://www.orpi.com/annonce-location-maison-t4-lyon-3-69003-212c3e42-8aa5-4d49-98f8-aad7670ba064/,45.75929644815811,4.869676697042871
76,Orpi,2250.0,99.0,22.73,Appartement,3 pièce - 2 chambre - ExclusivitéVisite virtuellepar mois s 99 m2 6 - MassénaMessage sBalconCaveBon étatMeubléAscenseurFavoris,69006,Lyon,https://www.orpi.com/annonce-location-appartement-t3-lyon-6-69006-cc1179ab-a48b-492a-a78f-f5ed9691060a/,45.76684466489274,4.866676609905078
77,Orpi,759.0,59.0,12.86,Appartement,2 pièce - Visite virtuellepar mois s 59 m2 8 - Grand TrouMessage1 chambr eTerrasseBon étatNon meubléRez - de - chausséeFavoris,69008,Lyon,https://www.orpi.com/annonce-location-appartement-t2-lyon-8-69008-1ef58b00-935b-4b6b-af34-ea7ffeaab53a/,45.74271564935766,4.861087563427901
78,Orpi,2250.0,180.0,12.5,Appartement,4 pièce - 3 chambre - ExclusivitéVisite virtuellepar mois s 180 m2 5 - Vieux Mes sagesCaveBon étatNon meubléEtage : 1Favoris,69005,Lyon,https://www.orpi.com/annonce-location-appartement-t4-lyon-5-69005-83f755c7-66f2-420b-a513-05b2db60b833/,45.755272005268694,4.797687002410133
79,Orpi,3000.0,166.0,18.07,Maison,7 pièce - 5 chambre - par mois Maison s 166 m2 3 - MontchatMessagesTerrasseCaveBon état GarageNon meubléFavoris,69003,Lyon,https://www.orpi.com/annonce-location-maison-t7-lyon-3-69003-3118b33b-ac49-4db9-bc02-ddfca34ac8cf/,45.76086786340342,4.8705765887677765
80,PAP,960.0,55.0,17.45,Appartement,2 pièce - 1 chambre - s 55 m²,69003,Lyon,https://www.pap.fr/annonces/appartement-lyon-3e-r448201583,45.75866246939994,4.867963832766741
81,PAP,1310.0,70.0,18.71,Appartement,2 pièce - 1 chambre - s 70 m²,69002,Lyon,https://www.pap.fr/annonces/appartement-lyon-2e-presqu-ile-r460901650,45.751556588360124,4.826835429005494
82,PAP,2575.0,140.0,18.39,Appartement,5 pièce - 4 chambre - s s 140 m²,69006,Lyon,https://www.pap.fr/annonces/appartement-lyon-6e-69006-r445001535,45.764931121982244,4.867661358779734
83,PAP,990.0,65.0,15.23,Appartement,3 pièce - 2 chambre - s s 65 m²,69008,Lyon,https://www.pap.fr/annonces/appartement-lyon-8e-69008-r461501098,45.739466524098766,4.8638525973801885
84,PAP,1650.0,46.04,35.84,Appartement,"2 pièce - 1 chambre - s 46,04 m²",69004,Lyon,https://www.pap.fr/annonces/appartement-lyon-4e-69004-r451800921,45.77778919859618,4.834316854926483
85,PAP,995.0,45.0,22.11,Appartement,2 pièce - 1 chambre - s 45 m²,69001,Lyon,https://www.pap.fr/annonces/appartement-lyon-1er-69001-r461700392,45.75551379879526,4.837520045790021
86,PAP,980.0,48.0,20.42,Appartement,2 pièce - 1 chambre - s 48 m²,69004,Lyon,https://www.pap.fr/annonces/appartement-lyon-4e-69004-r461602277,45.78243345395056,4.835472382868928
87,PAP,1250.0,53.13,23.53,Appartement,"3 pièce - 2 chambre - s s 53,13 m²",69004,Lyon,https://www.pap.fr/annonces/appartement-lyon-4e-69004-r461602385,45.78202055251354,4.834687377453927
88,PAP,1130.0,72.0,15.69,Appartement,2 pièce - 1 chambre - s 72 m²,69005,Lyon,https://www.pap.fr/annonces/appartement-lyon-5e-69005-r461601762,45.75223451208659,4.7967220570008084
89,PAP,1160.0,59.0,19.66,Appartement,2 pièce - 1 chambre - s 59 m²,69006,Lyon,https://www.pap.fr/annonces/appartement-lyon-6e-69006-r455301328,45.76434982531084,4.8691762134529295
90,PAP,900.0,43.0,20.93,Appartement,2 pièce - 1 chambre - s 43 m²,69008,Lyon,https://www.pap.fr/annonces/appartement-lyon-8e-69008-r461601181,45.7406703427092,4.860682507797545
91,PAP,1050.0,41.0,25.61,Appartement,2 pièce - 1 chambre - s 41 m²,69002,Lyon,https://www.pap.fr/annonces/appartement-lyon-2e-69002-r460901818,45.75029865069231,4.831481230577324
92,PAP,1090.0,57.0,19.12,Appartement,2 pièce - 1 chambre - s 57 m²,69008,Lyon,https://www.pap.fr/annonces/appartement-lyon-8e-r406501698,45.73724994104906,4.865702336655812
93,PAP,1488.0,73.0,20.38,Appartement,3 pièce - 1 chambre - s 73 m²,69003,Lyon,https://www.pap.fr/annonces/appartement-lyon-3e-69003-r461600961,45.7560619739883,4.870699685261167
94,PAP,1147.0,47.14,24.33,Appartement,"2 pièce - 1 chambre - s 47,14 m²",69004,Lyon,https://www.pap.fr/annonces/appartement-lyon-4e-69004-r443502324,45.778594448710955,4.834671280659106
95,PAP,710.0,53.0,13.4,Appartement,2 pièce - 2 chambre - s s 53 m²,69007,Lyon,https://www.pap.fr/annonces/appartement-lyon-7e-69007-r461600979,45.745168385941014,4.839969840921523
96,PAP,1460.0,78.0,18.72,Appartement,4 pièce - 3 chambre - s s 78 m²,69008,Lyon,https://www.pap.fr/annonces/appartement-lyon-8e-69008-r461601172,45.73824519798384,4.8659724327154645
97,PAP,1180.0,45.0,26.22,Appartement,2 pièce - 1 chambre - s 45 m²,69008,Lyon,https://www.pap.fr/annonces/appartement-lyon-8e-69008-r461601214,45.742663269401724,4.864678546038854
98,PAP,1470.0,89.0,16.52,Appartement,4 pièce - 2 chambre - s s 89 m²,69003,Lyon,https://www.pap.fr/annonces/appartement-lyon-3e-69003-r461501086,45.755989020613974,4.870241807460384
99,PAP,1762.0,88.0,20.02,Appartement,3 pièce - 2 chambre - s s 88 m²,69006,Lyon,https://www.pap.fr/annonces/appartement-lyon-6e-r449801648,45.76583158907982,4.870047799554313
100,PAP,2100.0,120.0,17.5,Appartement,4 pièce - 3 chambre - s s 120 m²,69006,Lyon,https://www.pap.fr/annonces/appartement-lyon-6e-69006-r461401010,45.764584748707584,4.870173849321229
101,PAP,2050.0,80.0,25.62,Appartement,3 pièce - 2 chambre - s s 80 m²,69002,Lyon,https://www.pap.fr/annonces/appartement-lyon-2e-69002-r461400053,45.75123825072858,4.830317184148342
102,PAP,995.0,53.0,18.77,Appartement,2 pièce - 1 chambre - s 53 m²,69003,Lyon,https://www.pap.fr/annonces/appartement-lyon-3e-69003-r461302345,45.757299787959575,4.867861901945946
103,PAP,1300.0,73.0,17.81,Appartement,3 pièce - 2 chambre - s s 73 m²,69004,Lyon,https://www.pap.fr/annonces/appartement-lyon-4e-69004-r454500080,45.77806417160504,4.834526191609299
104,PAP,1500.0,95.0,15.79,Appartement,3 pièce - 2 chambre - s s 95 m²,69003,Lyon,https://www.pap.fr/annonces/appartement-lyon-3e-69003-r461202469,45.757785482119836,4.865849940638181
105,PAP,1090.0,56.0,19.46,Appartement,2 pièce - 1 chambre - s 56 m²,69007,Lyon,https://www.pap.fr/annonces/appartement-lyon-7e-69007-r461300552,45.7501154382161,4.842159753454028
106,PAP,1210.0,75.0,16.13,Appartement,3 pièce - 2 chambre - s s 75 m²,69003,Lyon,https://www.pap.fr/annonces/appartement-lyon-3e-69003-r461102040,45.7613953848127,4.8652603766812526
107,PAP,1033.0,47.0,21.98,Appartement,2 pièce - 1 chambre - s 47 m²,69004,Lyon,https://www.pap.fr/annonces/appartement-lyon-4e-69004-r439501724,45.77759241604546,4.8321607314623725
108,PAP,750.0,55.0,13.64,Appartement,2 pièce - 1 chambre - s 55 m²,69008,Lyon,https://www.pap.fr/annonces/appartement-lyon-8e-69008-r461001532,45.738421267816626,4.862259722478839
109,ParuVendu,980.0,55.0,17.82,Appartement,55 m2 9,69009,Lyon,https://www.paruvendu.fr/immobilier/location/appartement/1287729891A1KILHAP000,45.766563939116075,4.803659361869636
110,ParuVendu,855.0,50.0,17.1,Appartement,50 m2 9,69009,Lyon,https://www.paruvendu.fr/immobilier/location/appartement/1287099967A1KILHAP000,45.76767696026657,4.802039604154417
111,ParuVendu,680.0,19.0,35.79,Appartement,19 m2 9,69009,Lyon,https://www.paruvendu.fr/immobilier/location/appartement/1286954596A1KILHAP000,45.76429325468387,4.8032553458227065
112,ParuVendu,1550.0,63.0,24.6,Appartement,63 m2 4,69004,Lyon,https://www.paruvendu.fr/immobilier/location/appartement/1287729534A1KILHAP000,45.780116387125695,4.83618580893579
113,ParuVendu,550.0,18.0,30.56,Appartement,18 m2 8,69008,Lyon,https://www.paruvendu.fr/immobilier/location/appartement/1287089582A1KILHAP000,45.74049196703155,4.860585078367954
114,ParuVendu,1448.0,102.0,14.2,Appartement,102 m2 2,69002,Lyon,https://www.paruvendu.fr/immobilier/location/appartement/1286862341A1KILHAP000,45.753387119152414,4.829090192868688
115,ParuVendu,1020.0,61.0,16.72,Appartement,61 m2 1,69001,Lyon,https://www.paruvendu.fr/immobilier/location/appartement/1286143744A1KILHAP000,45.758291370046685,4.836918898711827
116,ParuVendu,519.0,25.0,20.76,Appartement,25 m2 5,69005,Lyon,https://www.paruvendu.fr/immobilier/location/appartement/1287715579A1KILHAP000,45.755173670019666,4.795396168817445
117,ParuVendu,1100.0,56.0,19.64,Appartement,56 m2 2,69002,Lyon,https://www.paruvendu.fr/immobilier/location/appartement/1287713597A1KILHAP000,45.75161905812667,4.825800229338669
118,ParuVendu,1460.0,47.0,31.06,Appartement,47 m2 3,69003,Lyon,https://www.paruvendu.fr/immobilier/location/appartement/1287711072A1KILHAP000,45.758439185536666,4.869391458871078
119,ParuVendu,1105.0,79.0,13.99,Appartement,79 m2 7,69007,Lyon,https://www.paruvendu.fr/immobilier/location/appartement/1287271939A1KILHAP000,45.749168104570096,4.840912233310011
120,ParuVendu,628.0,29.0,21.66,Appartement,29 m2 1,69001,Lyon,https://www.paruvendu.fr/immobilier/location/appartement/1287706862A1KILHAP000,45.75816328144978,4.83266390897909
121,ParuVendu,900.0,45.0,20.0,Appartement,45 m2 7,69007,Lyon,https://www.paruvendu.fr/immobilier/location/appartement/1287706831A1KILHAP000,45.745197786529204,4.839377204865767
122,ParuVendu,1103.0,71.0,15.54,Appartement,71 m2 2,69002,Lyon,https://www.paruvendu.fr/immobilier/location/appartement/1287706193A1KILHAP000,45.75148021628702,4.829875760061509
123,ParuVendu,955.0,58.0,16.47,Appartement,58 m2 8,69008,Lyon,https://www.paruvendu.fr/immobilier/location/appartement/1287706182A1KILHAP000,45.73751057123206,4.860671706632974
124,ParuVendu,874.0,53.0,16.49,Appartement,53 m2 8,69008,Lyon,https://www.paruvendu.fr/immobilier/location/appartement/1287706181A1KILHAP000,45.73973604564259,4.860983733520692
125,ParuVendu,583.0,29.0,20.1,Appartement,29 m2 9,69009,Lyon,https://www.paruvendu.fr/immobilier/location/appartement/1287706180A1KILHAP000,45.76921780289997,4.800656796425024
126,ParuVendu,781.0,46.0,16.98,Appartement,46 m2 3,69003,Lyon,https://www.paruvendu.fr/immobilier/location/appartement/1287338480A1KILHAP000,45.756371277665934,4.865700877162688
127,ParuVendu,541.0,28.0,19.32,Appartement,28 m2 8,69008,Lyon,https://www.paruvendu.fr/immobilier/location/appartement/1287705954A1KILHAP000,45.74255633579354,4.860925231874255
128,ParuVendu,1350.0,79.0,17.09,Appartement,79 m2 8,69008,Lyon,https://www.paruvendu.fr/immobilier/location/appartement/1287705786A1KILHAP000,45.742393433855874,4.861598527771109
129,ParuVendu,900.0,63.0,14.29,Appartement,63 m2 3,69003,Lyon,https://www.paruvendu.fr/immobilier/location/appartement/1286403113A1KILHAP000,45.75618444000537,4.866092458966172
130,ParuVendu,880.0,30.0,29.33,Appartement,30 m2 6,69006,Lyon,https://www.paruvendu.fr/immobilier/location/appartement/1287704241A1KILHAP000,45.7631679837847,4.870808078421816
131,ParuVendu,2525.0,130.0,19.42,Appartement,130 m2 1,69001,Lyon,https://www.paruvendu.fr/immobilier/location/appartement/1287704242A1KILHAP000,45.75596121435179,4.83678439155602
132,ParuVendu,1860.0,88.0,21.14,Appartement,88 m2 6,69006,Lyon,https://www.paruvendu.fr/immobilier/location/appartement/1287704243A1KILHAP000,45.76733291836848,4.87124062934822
136,ParuVendu,1190.0,51.0,23.33,Appartement,51 m2 9,69009,Lyon,https://www.paruvendu.fr/immobilier/location/appartement/1286864605A1KILHAP000,45.76624431929541,4.7996195713691305
137,ParuVendu,1087.0,54.0,20.13,Appartement,54 m2 1,69001,Lyon,https://www.paruvendu.fr/immobilier/location/appartement/1287702987A1KILHAP000,45.75607299559605,4.834006120191549
138,ParuVendu,841.0,67.0,12.55,Appartement,67 m2 7,69007,Lyon,https://www.paruvendu.fr/immobilier/location/appartement/1287089588A1KILHAP000,45.747033679475244,4.841909573712509
139,ParuVendu,1710.0,62.0,27.58,Appartement,62 m2 6,69006,Lyon,https://www.paruvendu.fr/immobilier/location/appartement/1287130069A1KILHAP000,45.76199888483284,4.86968351932756
140,ParuVendu,2760.0,159.0,17.36,Appartement,159 m2 1,69001,Lyon,https://www.paruvendu.fr/immobilier/location/appartement/1286898819A1KILHAP000,45.75527665575153,4.834949225313526
141,ParuVendu,1151.0,73.0,15.77,Appartement,73 m2 3,69003,Lyon,https://www.paruvendu.fr/immobilier/location/appartement/1286274592A1KILHAP000,45.758703100816376,4.8686769130352445
142,ParuVendu,858.0,53.0,16.19,Appartement,53 m2 9,69009,Lyon,https://www.paruvendu.fr/immobilier/location/appartement/1286297389A1KILHAP000,45.7678509965983,4.800358834293635
143,ParuVendu,1350.0,46.0,29.35,Appartement,46 m2 9,69009,Lyon,https://www.paruvendu.fr/immobilier/location/appartement/1287690924A1KILHAP000,45.7648003327156,4.801677109874959
144,ParuVendu,1270.0,52.0,24.42,Appartement,52 m2 2,69002,Lyon,https://www.paruvendu.fr/immobilier/location/appartement/1287690793A1KILHAP000,45.75118006862207,4.830797883236627
145,ParuVendu,1008.0,47.0,21.45,Appartement,47 m2 6,69006,Lyon,https://www.paruvendu.fr/immobilier/location/appartement/1287688862A1KILHAP000,45.761898103069115,4.867584814881012
146,ParuVendu,835.0,63.0,13.25,Appartement,63 m2 5,69005,Lyon,https://www.paruvendu.fr/immobilier/location/appartement/1287683163A1KILHAP000,45.75210509863442,4.795959336052592
147,ParuVendu,1490.0,83.0,17.95,Appartement,83 m2 3,69003,Lyon,https://www.paruvendu.fr/immobilier/location/appartement/1287682689A1KILHAP000,45.76047124813884,4.865924218230911
148,ParuVendu,1270.0,52.0,24.42,Appartement,52 m2 2,69002,Lyon,https://www.paruvendu.fr/immobilier/location/appartement/1266862801A1KILHAP000,45.751500799951025,4.82857072265896
150,ParuVendu,946.0,66.0,14.33,Appartement,66 m2 4,69004,Lyon,https://www.paruvendu.fr/immobilier/location/appartement/1287229448A1KILHAP000,45.78263335524885,4.832078321106873
151,ParuVendu,1250.0,66.0,18.94,Appartement,66 m2 5,69005,Lyon,https://www.paruvendu.fr/immobilier/location/appartement/1287680187A1KILHAP000,45.749438915659645,4.794305396779249
152,ParuVendu,1297.0,54.0,24.02,Appartement,54 m2 2,69002,Lyon,https://www.paruvendu.fr/immobilier/location/appartement/1286320216A1KILHAP000,45.75357090283246,4.831202712377368
153,ParuVendu,1077.0,70.0,15.39,Appartement,70 m2 8,69008,Lyon,https://www.paruvendu.fr/immobilier/location/appartement/1287512326A1KILHAP000,45.740056318709165,4.8604709455621045
154,ParuVendu,849.0,48.0,17.69,Appartement,48 m2 7,69007,Lyon,https://www.paruvendu.fr/immobilier/location/appartement/1286814102A1KILHAP000,45.749754694171706,4.837626544560484
155,ParuVendu,1639.0,108.0,15.18,Appartement,108 m2 6,69006,Lyon,https://www.paruvendu.fr/immobilier/location/appartement/1287112194A1KILHAP000,45.764484790162435,4.869685721549531
156,ParuVendu,630.0,18.0,35.0,Appartement,18 m2 7,69007,Lyon,https://www.paruvendu.fr/immobilier/location/appartement/1287488096A1KILHAP000,45.746107042165555,4.837272703346558
157,ParuVendu,1930.0,96.0,20.1,Appartement,96 m2 4,69004,Lyon,https://www.paruvendu.fr/immobilier/location/appartement/1287112196A1KILHAP000,45.781596598409955,4.835207416977162
158,ParuVendu,570.0,21.0,27.14,Appartement,21 m2 6,69006,Lyon,https://www.paruvendu.fr/immobilier/location/appartement/1287672243A1KILHAP000,45.764996813944514,4.866121613933788
159,ParuVendu,543.0,44.0,12.34,Appartement,44 m2 3,69003,Lyon,https://www.paruvendu.fr/immobilier/location/appartement/1287672144A1KILHAP000,45.756959852725856,4.866961703692442
160,ParuVendu,1150.0,61.0,18.85,Appartement,61 m2 1,69001,Lyon,https://www.paruvendu.fr/immobilier/location/appartement/1287670722A1KILHAP000,45.757230111862924,4.83667990553758
161,ParuVendu,710.0,28.0,25.36,Appartement,28 m2 5,69005,Lyon,https://www.paruvendu.fr/immobilier/location/appartement/1286209569A1KILHAP000,45.753638630042055,4.797527479399252
162,ParuVendu,710.0,49.0,14.49,Appartement,49 m2 8,69008,Lyon,https://www.paruvendu.fr/immobilier/location/appartement/1287272136A1KILHAP000,45.7430068738882,4.8614646130505506
163,ParuVendu,1143.0,65.0,17.58,Appartement,65 m2 3,69003,Lyon,https://www.paruvendu.fr/immobilier/location/appartement/1287488099A1KILHAP000,45.76076441369582,4.869597330686829
164,ParuVendu,710.0,27.0,26.3,Appartement,27 m2 5,69005,Lyon,https://www.paruvendu.fr/immobilier/location/appartement/1287473630A1KILHAP000,45.75526096974481,4.792958950107698
165,ParuVendu,435.0,24.0,18.12,Appartement,24 m2 3,69003,Lyon,https://www.paruvendu.fr/immobilier/location/appartement/1286514283A1KILHAP000,45.75594912693348,4.8693094481967085
166,ParuVendu,1147.0,47.0,24.4,Appartement,47 m2 4,69004,Lyon,https://www.paruvendu.fr/immobilier/location/appartement/1287664573A1KILHAP000,45.77792737361499,4.831778072501697
167,ParuVendu,690.0,40.0,17.25,Appartement,40 m2 6,69006,Lyon,https://www.paruvendu.fr/immobilier/location/appartement/1287664566A1KILHAP000,45.76322310598063,4.866731479466793
168,ParuVendu,1130.0,72.0,15.69,Appartement,72 m2 5,69005,Lyon,https://www.paruvendu.fr/immobilier/location/appartement/1287651103A1KILHAP000,45.75068576989039,4.7964870562937625
170,ParuVendu,1690.0,87.0,19.43,Appartement,87 m2 2,69002,Lyon,https://www.paruvendu.fr/immobilier/location/appartement/1287488112A1KILHAP000,45.751078641085236,4.828385964184425
171,ParuVendu,712.0,21.0,33.9,Appartement,21 m2 2,69002,Lyon,https://www.paruvendu.fr/immobilier/location/appartement/1287650548A1KILHAP000,45.749546856405495,4.83001813834821
172,ParuVendu,1479.0,95.0,15.57,Appartement,95 m2 3,69003,Lyon,https://www.paruvendu.fr/immobilier/location/appartement/1287089581A1KILHAP000,45.759793388947756,4.867281315949655
173,ParuVendu,810.0,26.0,31.15,Appartement,26 m2 4,69004,Lyon,https://www.paruvendu.fr/immobilier/location/appartement/1287488102A1KILHAP000,45.777700483100816,4.836194484033657
174,ParuVendu,724.0,29.0,24.97,Appartement,29 m2 3,69003,Lyon,https://www.paruvendu.fr/immobilier/location/appartement/1286729461A1KILHAP000,45.75720891692952,4.8667934817573695
175,ParuVendu,1211.0,50.0,24.22,Appartement,50 m2 1,69001,Lyon,https://www.paruvendu.fr/immobilier/location/appartement/1287512346A1KILHAP000,45.75947164547423,4.835750657090046
176,ParuVendu,910.0,54.0,16.85,Appartement,54 m2 2,69002,Lyon,https://www.paruvendu.fr/immobilier/location/appartement/1286626386A1KILHAP000,45.751937449985924,4.827538307011167
177,ParuVendu,2516.0,170.0,14.8,Appartement,170 m2 3,69003,Lyon,https://www.paruvendu.fr/immobilier/location/appartement/1287089185A1KILHAP000,45.759271740426584,4.866990613641105
178,ParuVendu,610.0,19.0,32.11,Appartement,19 m2 2,69002,Lyon,https://www.paruvendu.fr/immobilier/location/appartement/1286813536A1KILHAP000,45.75273450704831,4.829404896974878
179,ParuVendu,453.0,19.0,23.84,Appartement,19 m2 9,69009,Lyon,https://www.paruvendu.fr/immobilier/location/appartement/1287473618A1KILHAP000,45.766963889264346,4.804260207594734
180,ParuVendu,1131.0,65.0,17.4,Appartement,65 m2 3,69003,Lyon,https://www.paruvendu.fr/immobilier/location/appartement/1287253357A1KILHAP000,45.75931241932301,4.866280484812172
181,ParuVendu,1694.0,108.0,15.69,Appartement,108 m2 2,69002,Lyon,https://www.paruvendu.fr/immobilier/location/appartement/1286209605A1KILHAP000,45.75108695604618,4.830897633127929
182,ParuVendu,1246.0,77.0,16.18,Appartement,77 m2 6,69006,Lyon,https://www.paruvendu.fr/immobilier/location/appartement/1287473617A1KILHAP000,45.7648734761121,4.866690228912126
183,ParuVendu,1476.0,66.0,22.36,Appartement,66 m2 6,69006,Lyon,https://www.paruvendu.fr/immobilier/location/appartement/1287253355A1KILHAP000,45.76708666263999,4.868259026710089
184,ParuVendu,1308.0,127.0,10.3,Appartement,127 m2 4,69004,Lyon,https://www.paruvendu.fr/immobilier/location/appartement/1286995187A1KILHAP000,45.782425874521955,4.8311532756114675
185,ParuVendu,843.0,48.0,17.56,Appartement,48 m2 7,69007,Lyon,https://www.paruvendu.fr/immobilier/location/appartement/1287253353A1KILHAP000,45.749937365338745,4.836437607198979
187,ParuVendu,736.0,36.0,20.44,Appartement,36 m2 2,69002,Lyon,https://www.paruvendu.fr/immobilier/location/appartement/1287253354A1KILHAP000,45.74975188869495,4.831518156229424
188,ParuVendu,900.0,43.0,20.93,Appartement,43 m2 8,69008,Lyon,https://www.paruvendu.fr/immobilier/location/appartement/1287641844A1KILHAP000,45.740312957052275,4.865729649402048
189,ParuVendu,453.0,14.0,32.36,Appartement,14 m2 8,69008,Lyon,https://www.paruvendu.fr/immobilier/location/appartement/1287641820A1KILHAP000,45.737171459704115,4.862112885506464
190,ParuVendu,1250.0,76.0,16.45,Appartement,76 m2 8,69008,Lyon,https://www.paruvendu.fr/immobilier/location/appartement/1287465380A1KILHAP000,45.74273413254734,4.865570460857371
191,ParuVendu,1250.0,75.0,16.67,Appartement,75 m2 6,69006,Lyon,https://www.paruvendu.fr/immobilier/location/appartement/1287636201A1KILHAP000,45.76240270292198,4.867382828282803
192,ParuVendu,1095.0,45.0,24.33,Appartement,45 m2 1,69001,Lyon,https://www.paruvendu.fr/immobilier/location/appartement/1287636199A1KILHAP000,45.76051744252213,4.8356024150227
193,ParuVendu,1494.0,54.0,27.67,Appartement,54 m2 6,69006,Lyon,https://www.paruvendu.fr/immobilier/location/appartement/1287635302A1KILHAP000,45.7620135660633,4.86626327486842
194,ParuVendu,1022.0,84.0,12.17,Appartement,84 m2 9,69009,Lyon,https://www.paruvendu.fr/immobilier/location/appartement/1286813535A1KILHAP000,45.7683535000327,4.802571519583305
195,ParuVendu,1035.0,57.0,18.16,Appartement,57 m2 7,69007,Lyon,https://www.paruvendu.fr/immobilier/location/appartement/1287253360A1KILHAP000,45.74725168435591,4.840414412964326
196,ParuVendu,768.0,33.0,23.27,Appartement,33 m2 8,69008,Lyon,https://www.paruvendu.fr/immobilier/location/appartement/1286814101A1KILHAP000,45.7400006331682,4.86350459906663
197,ParuVendu,2014.0,128.0,15.73,Appartement,128 m2 1,69001,Lyon,https://www.paruvendu.fr/immobilier/location/appartement/1286003942A1KILHAP000,45.75935631121512,4.837247095766477
198,ParuVendu,1980.0,71.0,27.89,Appartement,71 m2 3,69003,Lyon,https://www.paruvendu.fr/immobilier/location/appartement/1287620638A1KILHAP000,45.75864298592006,4.869373181256147
199,ParuVendu,960.0,75.0,12.8,Appartement,75 m2 8,69008,Lyon,https://www.paruvendu.fr/immobilier/location/appartement/1286225325A1KILHAP000,45.73713828947969,4.865378916373274
200,ParuVendu,992.0,68.0,14.59,Appartement,68 m2 8,69008,Lyon,https://www.paruvendu.fr/immobilier/location/appartement/1287619919A1KILHAP000,45.739023637189874,4.8641386788399075
201,ParuVendu,748.0,50.0,14.96,Appartement,50 m2 3,69003,Lyon,https://www.paruvendu.fr/immobilier/location/appartement/1287619918A1KILHAP000,45.75713429832299,4.868926596056908
202,ParuVendu,892.0,59.0,15.12,Appartement,59 m2 1,69001,Lyon,https://www.paruvendu.fr/immobilier/location/appartement/1287619916A1KILHAP000,45.75611662474663,4.833345413888362
203,ParuVendu,850.0,55.0,15.45,Appartement,55 m2 7,69007,Lyon,https://www.paruvendu.fr/immobilier/location/appartement/1286995199A1KILHAP000,45.75012764818138,4.839945914863824
204,ParuVendu,681.0,29.0,23.48,Appartement,29 m2 1,69001,Lyon,https://www.paruvendu.fr/immobilier/location/appartement/1286411637A1KILHAP000,45.75968089931125,4.833387696714817
205,ParuVendu,620.0,28.0,22.14,Appartement,28 m2 3,69003,Lyon,https://www.paruvendu.fr/immobilier/location/appartement/1282739554A1KILHAP000,45.75807232352431,4.867338212043735
206,ParuVendu,1450.0,65.0,22.31,Appartement,65 m2 6,69006,Lyon,https://www.paruvendu.fr/immobilier/location/appartement/1287605889A1KILHAP000,45.76226925993941,4.868462076307163
207,ParuVendu,1147.0,64.0,17.92,Appartement,64 m2 8,69008,Lyon,https://www.paruvendu.fr/immobilier/location/appartement/1287601625A1KILHAP000,45.74230523066762,4.863028830184663
208,ParuVendu,807.0,30.0,26.9,Appartement,30 m2 8,69008,Lyon,https://www.paruvendu.fr/immobilier/location/appartement/1287600571A1KILHAP000,45.740247142608176,4.8633470735534
209,ParuVendu,834.0,49.0,17.02,Appartement,49 m2 8,69008,Lyon,https://www.paruvendu.fr/immobilier/location/appartement/1287600569A1KILHAP000,45.74134992214575,4.862449687068962
210,ParuVendu,873.0,55.0,15.87,Appartement,55 m2 4,69004,Lyon,https://www.paruvendu.fr/immobilier/location/appartement/1287600229A1KILHAP000,45.78179186668785,4.835965036022313
211,ParuVendu,1555.0,101.0,15.4,Appartement,101 m2 8,69008,Lyon,https://www.paruvendu.fr/immobilier/location/appartement/1287600228A1KILHAP000,45.73743218002712,4.862030657803048
212,ParuVendu,750.0,30.0,25.0,Appartement,30 m2 3,69003,Lyon,https://www.paruvendu.fr/immobilier/location/appartement/1286994787A1KILHAP000,45.75681820107895,4.868980630863587
213,ParuVendu,1074.0,63.0,17.05,Appartement,63 m2 8,69008,Lyon,https://www.paruvendu.fr/immobilier/location/appartement/1286995190A1KILHAP000,45.73852189355579,4.86026915785584
214,ParuVendu,1700.0,89.0,19.1,Appartement,89 m2 1,69001,Lyon,https://www.paruvendu.fr/immobilier/location/appartement/1287203248A1KILHAP000,45.75546144188121,4.83255062544334
215,ParuVendu,1100.0,54.0,20.37,Appartement,54 m2 8,69008,Lyon,https://www.paruvendu.fr/immobilier/location/appartement/1286971093A1KILHAP000,45.74123957456857,4.863208409636567
216,ParuVendu,1696.0,69.0,24.58,Appartement,69 m2 3,69003,Lyon,https://www.paruvendu.fr/immobilier/location/appartement/1286004057A1KILHAP000,45.7574754964113,4.867035593474936
217,ParuVendu,1631.0,92.0,17.73,Appartement,92 m2 1,69001,Lyon,https://www.paruvendu.fr/immobilier/location/appartement/1287585991A1KILHAP000,45.76090086635642,4.837790185912458
218,ParuVendu,1100.0,50.0,22.0,Appartement,50 m2 8,69008,Lyon,https://www.paruvendu.fr/immobilier/location/appartement/1287585973A1KILHAP000,45.74102372725005,4.8655599052770055
219,ParuVendu,935.0,60.0,15.58,Appartement,60 m2 5,69005,Lyon,https://www.paruvendu.fr/immobilier/location/appartement/1287584567A1KILHAP000,45.75142986123113,4.797848802016485
220,ParuVendu,649.0,20.0,32.45,Appartement,20 m2 2,69002,Lyon,https://www.paruvendu.fr/immobilier/location/appartement/1287257770A1KILHAP000,45.750061615587335,4.829141460794457
221,ParuVendu,600.0,24.0,25.0,Appartement,24 m2 1,69001,Lyon,https://www.paruvendu.fr/immobilier/location/appartement/1287577539A1KILHAP000,45.75878228955231,4.83211989871823
222,ParuVendu,664.0,31.0,21.42,Appartement,31 m2 7,69007,Lyon,https://www.paruvendu.fr/immobilier/location/appartement/1287577409A1KILHAP000,45.74863182659281,4.839987975441714
223,ParuVendu,1898.0,107.0,17.74,Appartement,107 m2 4,69004,Lyon,https://www.paruvendu.fr/immobilier/location/appartement/1287574829A1KILHAP000,45.78217242567574,4.835292875399558
225,ParuVendu,2100.0,92.0,22.83,Appartement,92 m2 1,69001,Lyon,https://www.paruvendu.fr/immobilier/location/appartement/1287399659A1KILHAP000,45.758535354983,4.835842885658659
226,ParuVendu,580.0,31.0,18.71,Appartement,31 m2 8,69008,Lyon,https://www.paruvendu.fr/immobilier/location/appartement/1287399674A1KILHAP000,45.73706379789156,4.8624942892809475
227,ParuVendu,820.0,37.0,22.16,Appartement,37 m2 1,69001,Lyon,https://www.paruvendu.fr/immobilier/location/appartement/1287262740A1KILHAP000,45.75920452134564,4.836612669176745
228,ParuVendu,1005.0,57.0,17.63,Appartement,57 m2 7,69007,Lyon,https://www.paruvendu.fr/immobilier/location/appartement/1287112016A1KILHAP000,45.74804160613912,4.837135798499214
229,ParuVendu,955.0,58.0,16.47,Appartement,58 m2 8,69008,Lyon,https://www.paruvendu.fr/immobilier/location/appartement/1287556200A1KILHAP000,45.738470765504744,4.862451221487418
230,ParuVendu,610.0,25.0,24.4,Appartement,25 m2 6,69006,Lyon,https://www.paruvendu.fr/immobilier/location/appartement/1287556199A1KILHAP000,45.763911527179964,4.8660496472411605
231,ParuVendu,830.0,49.0,16.94,Appartement,49 m2 3,69003,Lyon,https://www.paruvendu.fr/immobilier/location/appartement/1287552976A1KILHAP000,45.75886625900115,4.869943114117535
232,ParuVendu,788.0,30.0,26.27,Appartement,30 m2 7,69007,Lyon,https://www.paruvendu.fr/immobilier/location/appartement/1286932949A1KILHAP000,45.75046548758414,4.8418448639471325
233,ParuVendu,1029.0,64.0,16.08,Appartement,64 m2 8,69008,Lyon,https://www.paruvendu.fr/immobilier/location/appartement/1286971095A1KILHAP000,45.73887208080953,4.860567031227103
234,ParuVendu,1433.0,125.0,11.46,Appartement,125 m2 2,69002,Lyon,https://www.paruvendu.fr/immobilier/location/appartement/1287154349A1KILHAP000,45.752201354994284,4.830495747432978
235,ParuVendu,749.0,48.0,15.6,Appartement,48 m2 7,69007,Lyon,https://www.paruvendu.fr/immobilier/location/appartement/1287381608A1KILHAP000,45.7473584670926,4.838893523618873
236,ParuVendu,420.0,21.0,20.0,Appartement,21 m2 3,69003,Lyon,https://www.paruvendu.fr/immobilier/location/appartement/1287154348A1KILHAP000,45.758417279836344,4.865481583434758
237,ParuVendu,818.0,52.0,15.73,Appartement,52 m2 7,69007,Lyon,https://www.paruvendu.fr/immobilier/location/appartement/1287154347A1KILHAP000,45.749413629978264,4.837782068057164
238,ParuVendu,782.0,40.0,19.55,Appartement,40 m2 8,69008,Lyon,https://www.paruvendu.fr/immobilier/location/appartement/1287381603A1KILHAP000,45.74054057584434,4.865618939847882
239,ParuVendu,795.0,32.0,24.84,Appartement,32 m2 7,69007,Lyon,https://www.paruvendu.fr/immobilier/location/appartement/1287547679A1KILHAP000,45.7463599937961,4.838333632451827
240,ParuVendu,1005.0,56.0,17.95,Appartement,56 m2 3,69003,Lyon,https://www.paruvendu.fr/immobilier/location/appartement/1286954523A1KILHAP000,45.76128386791449,4.869310614441579
241,ParuVendu,995.0,57.0,17.46,Appartement,57 m2 7,69007,Lyon,https://www.paruvendu.fr/immobilier/location/appartement/1287360897A1KILHAP000,45.750339292019945,4.841691637795217
242,ParuVendu,1332.0,74.0,18.0,Appartement,74 m2 6,69006,Lyon,https://www.paruvendu.fr/immobilier/location/appartement/1287396648A1KILHAP000,45.76509228658745,4.870046874695331
243,ParuVendu,1285.0,61.0,21.07,Appartement,61 m2 8,69008,Lyon,https://www.paruvendu.fr/immobilier/location/appartement/1287535014A1KILHAP000,45.741816251477445,4.8648291782459285
244,ParuVendu,1871.0,100.0,18.71,Appartement,100 m2 6,69006,Lyon,https://www.paruvendu.fr/immobilier/location/appartement/1287298721A1KILHAP000,45.765644562603626,4.86889500838448
245,ParuVendu,850.0,50.0,17.0,Appartement,50 m2 8,69008,Lyon,https://www.paruvendu.fr/immobilier/location/appartement/1287532582A1KILHAP000,45.74219318867334,4.864074436295552
246,ParuVendu,662.0,46.0,14.39,Appartement,46 m2 3,69003,Lyon,https://www.paruvendu.fr/immobilier/location/appartement/1287338478A1KILHAP000,45.758432728302814,4.868054187073984
247,ParuVendu,987.0,51.0,19.35,Appartement,51 m2 3,69003,Lyon,https://www.paruvendu.fr/immobilier/location/appartement/1287338479A1KILHAP000,45.75853371168636,4.8652403884837625
248,ParuVendu,1090.0,57.0,19.12,Appartement,57 m2 8,69008,Lyon,https://www.paruvendu.fr/immobilier/location/appartement/1287526570A1KILHAP000,45.74228915066826,4.863109214996369
249,ParuVendu,2995.0,214.0,14.0,Appartement,214 m2 9,69009,Lyon,https://www.paruvendu.fr/immobilier/location/appartement/1287526181A1KILHAP000,45.7651587683358,4.8012903283597135
250,ParuVendu,1070.0,70.0,15.29,Appartement,70 m2 2,69002,Lyon,https://www.paruvendu.fr/immobilier/location/appartement/1287525640A1KILHAP000,45.75313648135685,4.827967378539604
251,ParuVendu,1175.0,48.0,24.48,Appartement,48 m2 3,69003,Lyon,https://www.paruvendu.fr/immobilier/location/appartement/1287121956A1KILHAP000,45.75972563705257,4.870711689678659
252,ParuVendu,1250.0,53.0,23.58,Appartement,53 m2 2,69002,Lyon,https://www.paruvendu.fr/immobilier/location/appartement/1287169499A1KILHAP000,45.75431104472265,4.827348725255884
253,ParuVendu,724.0,29.0,24.97,Appartement,29 m2 3,69003,Lyon,https://www.paruvendu.fr/immobilier/location/appartement/1287282016A1KILHAP000,45.760688357899774,4.869483079546615
254,ParuVendu,830.0,49.0,16.94,Appartement,49 m2 3,69003,Lyon,https://www.paruvendu.fr/immobilier/location/appartement/1286277675A1KILHAP000,45.75632293988051,4.869430578590975
255,ParuVendu,802.0,34.0,23.59,Appartement,34 m2 1,69001,Lyon,https://www.paruvendu.fr/immobilier/location/appartement/1287486772A1KILHAP000,45.75702988292579,4.83747163534806
256,ParuVendu,1600.0,50.0,32.0,Appartement,50 m2 4,69004,Lyon,https://www.paruvendu.fr/immobilier/location/appartement/1287209479A1KILHAP000,45.77844168321064,4.835467663538913
257,ParuVendu,1298.0,76.0,17.08,Appartement,76 m2 2,69002,Lyon,https://www.paruvendu.fr/immobilier/location/appartement/1286217856A1KILHAP000,45.754647919793506,4.831477697994137
258,ParuVendu,880.0,45.0,19.56,Appartement,45 m2 3,69003,Lyon,https://www.paruvendu.fr/immobilier/location/appartement/1287400516A1KILHAP000,45.7607445165331,4.866390078733091
259,ParuVendu,1950.0,115.0,16.96,Appartement,115 m2 9,69009,Lyon,https://www.paruvendu.fr/immobilier/location/appartement/1287364085A1KILHAP000,45.76528558977215,4.804206248986778
260,ParuVendu,2250.0,61.0,36.89,Appartement,61 m2 6,69006,Lyon,https://www.paruvendu.fr/immobilier/location/appartement/1286107719A1KILHAP000,45.76500762319215,4.867855805052759
261,ParuVendu,1646.0,92.0,17.89,Appartement,92 m2 1,69001,Lyon,https://www.paruvendu.fr/immobilier/location/appartement/1287346107A1KILHAP000,45.75884038830478,4.836197747663563
262,ParuVendu,930.0,49.0,18.98,Appartement,49 m2 7,69007,Lyon,https://www.paruvendu.fr/immobilier/location/appartement/1287345924A1KILHAP000,45.74576722265095,4.836761824915166
263,ParuVendu,1200.0,64.0,18.75,Appartement,64 m2 7,69007,Lyon,https://www.paruvendu.fr/immobilier/location/appartement/1287342302A1KILHAP000,45.746778552745575,4.837383966815823
265,ParuVendu,530.0,17.0,31.18,Appartement,17 m2 2,69002,Lyon,https://www.paruvendu.fr/immobilier/location/appartement/1287280505A1KILHAP000,45.75339517491731,4.830732969421764
266,ParuVendu,1200.0,67.0,17.91,Appartement,67 m2 1,69001,Lyon,https://www.paruvendu.fr/immobilier/location/appartement/1287262972A1KILHAP000,45.75731551608865,4.835303750877225
267,ParuVendu,850.0,29.0,29.31,Appartement,29 m2 8,69008,Lyon,https://www.paruvendu.fr/immobilier/location/appartement/1287262880A1KILHAP000,45.738695921752274,4.8618241238839595
268,ParuVendu,1190.0,48.0,24.79,Appartement,48 m2 6,69006,Lyon,https://www.paruvendu.fr/immobilier/location/appartement/1287262751A1KILHAP000,45.76671537941543,4.870751249163554
269,ParuVendu,1100.0,42.0,26.19,Appartement,42 m2 1,69001,Lyon,https://www.paruvendu.fr/immobilier/location/appartement/1287262655A1KILHAP000,45.75993199035079,4.832870806396835
270,ParuVendu,1060.0,50.0,21.2,Appartement,50 m2 3,69003,Lyon,https://www.paruvendu.fr/immobilier/location/appartement/1287262607A1KILHAP000,45.75837509420421,4.8684528009652075
271,ParuVendu,1290.0,115.0,11.22,Appartement,115 m2 9,69009,Lyon,https://www.paruvendu.fr/immobilier/location/appartement/1287262383A1KILHAP000,45.76914266938455,4.803932642197266
272,ParuVendu,1321.0,75.0,17.61,Appartement,75 m2 2,69002,Lyon,https://www.paruvendu.fr/immobilier/location/appartement/1284703428A1KILHAP000,45.7509568365962,4.827736347715719
273,ParuVendu,822.0,41.0,20.05,Appartement,41 m2 4,69004,Lyon,https://www.paruvendu.fr/immobilier/location/appartement/1287237957A1KILHAP000,45.77722100916467,4.835878585366274
274,ParuVendu,920.0,26.0,35.38,Appartement,26 m2 9,69009,Lyon,https://www.paruvendu.fr/immobilier/location/appartement/1287189245A1KILHAP000,45.76735205246808,4.801867569571874
275,ParuVendu,950.0,27.0,35.19,Appartement,27 m2 6,69006,Lyon,https://www.paruvendu.fr/immobilier/location/appartement/1287262680A1KILHAP000,45.7639716882804,4.869609335655816
276,ParuVendu,905.0,65.0,13.92,Appartement,65 m2 7,69007,Lyon,https://www.paruvendu.fr/immobilier/location/appartement/1287181345A1KILHAP000,45.74619532856594,4.83923587169419
277,ParuVendu,1200.0,19.0,63.16,Appartement,19 m2 8,69008,Lyon,https://www.paruvendu.fr/immobilier/location/appartement/1287262705A1KILHAP000,45.73910934937402,4.862122723846575
278,ParuVendu,1300.0,55.0,23.64,Appartement,Loft 55 m2 9,69009,Lyon,https://www.paruvendu.fr/immobilier/location/loft/1287254385A1KILHLT000,45.76670203532718,4.8025873124946905
279,ParuVendu,1165.0,55.0,21.18,Appartement,55 m2 8,69008,Lyon,https://www.paruvendu.fr/immobilier/location/appartement/1287262727A1KILHAP000,45.73791440104195,4.8608962333270975
280,ParuVendu,1065.0,38.0,28.03,Appartement,38 m2 3,69003,Lyon,https://www.paruvendu.fr/immobilier/location/appartement/1287262950A1KILHAP000,45.75903569405705,4.865752463167882
282,ParuVendu,1000.0,74.0,13.51,Appartement,74 m2 9,69009,Lyon,https://www.paruvendu.fr/immobilier/location/appartement/1287124066A1KILHAP000,45.76740291662426,4.800320219272326
283,ParuVendu,1120.0,60.0,18.67,Appartement,60 m2 3,69003,Lyon,https://www.paruvendu.fr/immobilier/location/appartement/1287112329A1KILHAP000,45.761464955053086,4.869062474768962
284,ParuVendu,1515.0,61.0,24.84,Appartement,61 m2 4,69004,Lyon,https://www.paruvendu.fr/immobilier/location/appartement/1287098680A1KILHAP000,45.78199426353317,4.83247221478619
285,ParuVendu,950.0,30.0,31.67,Appartement,30 m2 5,69005,Lyon,https://www.paruvendu.fr/immobilier/location/appartement/1287262917A1KILHAP000,45.75425119534313,4.7943180658237585
287,ParuVendu,820.0,46.0,17.83,Appartement,46 m2 7,69007,Lyon,https://www.paruvendu.fr/immobilier/location/appartement/1287262961A1KILHAP000,45.74829527686496,4.839944927786556
288,ParuVendu,925.0,43.0,21.51,Appartement,43 m2 7,69007,Lyon,https://www.paruvendu.fr/immobilier/location/appartement/1286980012A1KILHAP000,45.74760143989582,4.841498458864302
289,ParuVendu,1070.0,68.0,15.74,Appartement,68 m2 7,69007,Lyon,https://www.paruvendu.fr/immobilier/location/appartement/1286723074A1KILHAP000,45.746995348397675,4.836639909657918
290,ParuVendu,1090.0,70.0,15.57,Appartement,70 m2 8,69008,Lyon,https://www.paruvendu.fr/immobilier/location/appartement/1286933651A1KILHAP000,45.73752948304269,4.865626364515165
291,ParuVendu,790.0,44.0,17.95,Appartement,44 m2 9,69009,Lyon,https://www.paruvendu.fr/immobilier/location/appartement/1287262707A1KILHAP000,45.7667898061748,4.80184162577202
292,ParuVendu,1100.0,60.0,18.33,Appartement,60 m2 3,69003,Lyon,https://www.paruvendu.fr/immobilier/location/appartement/1287262519A1KILHAP000,45.76060492221375,4.867312128714432
293,ParuVendu,1061.0,56.0,18.95,Appartement,56 m2 8,69008,Lyon,https://www.paruvendu.fr/immobilier/location/appartement/1287262830A1KILHAP000,45.73908906760945,4.865291829904814
294,ParuVendu,1350.0,85.0,15.88,Appartement,85 m2 8,69008,Lyon,https://www.paruvendu.fr/immobilier/location/appartement/1286876735A1KILHAP000,45.73889282123399,4.864942385379201
295,ParuVendu,1295.0,71.0,18.24,Appartement,71 m2 3,69003,Lyon,https://www.paruvendu.fr/immobilier/location/appartement/1287183745A1KILHAP000,45.75951507030008,4.866999446316999
296,ParuVendu,1675.0,103.0,16.26,Appartement,103 m2 5,69005,Lyon,https://www.paruvendu.fr/immobilier/location/appartement/1285616590A1KILHAP000,45.75064247278242,4.796942769355066
297,ParuVendu,1110.0,69.0,16.09,Appartement,69 m2 8,69008,Lyon,https://www.paruvendu.fr/immobilier/location/appartement/1287262643A1KILHAP000,45.74128759499392,4.864225438037585
298,ParuVendu,3000.0,166.0,18.07,Maison,Maison 166 m2 3,69003,Lyon,https://www.paruvendu.fr/immobilier/location/maison/1286817547A1KILHMN000,45.756308540614356,4.867844614097529
299,ParuVendu,845.0,35.0,24.14,Appartement,35 m2 7,69007,Lyon,https://www.paruvendu.fr/immobilier/location/appartement/1287262757A1KILHAP000,45.7457017532288,4.8380685953184335
300,ParuVendu,1675.0,48.0,34.9,Appartement,48 m2 4,69004,Lyon,https://www.paruvendu.fr/immobilier/location/appartement/1286802896A1KILHAP000,45.77788613624592,4.831968323206498
301,ParuVendu,2150.0,111.0,19.37,Appartement,111 m2 4,69004,Lyon,https://www.paruvendu.fr/immobilier/location/appartement/1286796139A1KILHAP000,45.78013103563975,4.834737826270388
302,ParuVendu,1775.0,77.0,23.05,Appartement,77 m2 4,69004,Lyon,https://www.paruvendu.fr/immobilier/location/appartement/1286802898A1KILHAP000,45.777608295589715,4.833599953804055
303,ParuVendu,1390.0,71.0,19.58,Appartement,71 m2 7,69007,Lyon,https://www.paruvendu.fr/immobilier/location/appartement/1286643582A1KILHAP000,45.74835912881473,4.837822222777163
305,ParuVendu,1290.0,67.0,19.25,Appartement,67 m2 9,69009,Lyon,https://www.paruvendu.fr/immobilier/location/appartement/1286616489A1KILHAP000,45.76426996278791,4.799280534701783
306,ParuVendu,1300.0,77.0,16.88,Appartement,77 m2 8,69008,Lyon,https://www.paruvendu.fr/immobilier/location/appartement/1286376501A1KILHAP000,45.737167543307045,4.865613291174559
307,ParuVendu,1650.0,95.0,17.37,Appartement,95 m2 7,69007,Lyon,https://www.paruvendu.fr/immobilier/location/appartement/1286361381A1KILHAP000,45.749005681569464,4.8367650631958305
308,ParuVendu,850.0,43.0,19.77,Appartement,43 m2 4,69004,Lyon,https://www.paruvendu.fr/immobilier/location/appartement/1286248772A1KILHAP000,45.77917397362894,4.83520703350693
309,ParuVendu,1417.0,80.0,17.71,Appartement,80 m2 5,69005,Lyon,https://www.paruvendu.fr/immobilier/location/appartement/1286071779A1KILHAP000,45.75087194807697,4.793625183538493
310,ParuVendu,1999.0,149.0,13.42,Appartement,149 m2 1,69001,Lyon,https://www.paruvendu.fr/immobilier/location/appartement/1285973345A1KILHAP000,45.75504652455823,4.836045815864339
311,ParuVendu,1995.0,130.0,15.35,Appartement,Duplex/triplex 130 m2 1,69001,Lyon,https://www.paruvendu.fr/immobilier/location/duplex-triplex/1285787551A1KILHDU000,45.755909581753706,4.833198917108771
312,ParuVendu,1060.0,60.0,17.67,Appartement,60 m2 3,69003,Lyon,https://www.paruvendu.fr/immobilier/location/appartement/1285558598A1KILHAP000,45.75659049152404,4.866306136785702
313,ParuVendu,1190.0,58.0,20.52,Appartement,58 m2 4,69004,Lyon,https://www.paruvendu.fr/immobilier/location/appartement/1283559625A1KILHAP000,45.78309456151746,4.834315428995187
314,ParuVendu,1070.0,55.0,19.45,Appartement,55 m2 8,69008,Lyon,https://www.paruvendu.fr/immobilier/location/appartement/1281957200A1KILHAP000,45.740422128808426,4.861805081297687
315,ParuVendu,1730.0,83.0,20.84,Appartement,83 m2 3,69003,Lyon,https://www.paruvendu.fr/immobilier/location/appartement/1281074897A1KILHAP000,45.75780758873357,4.869971408670989
316,ParuVendu,1170.0,50.0,23.4,Appartement,50 m2 6,69006,Lyon,https://www.paruvendu.fr/immobilier/location/appartement/1274674751A1KILHAP000,45.76495556825846,4.867289284836729
317,ParuVendu,1500.0,95.0,15.79,Appartement,95 m2 3,69003,Lyon,https://www.paruvendu.fr/immobilier/location/appartement/1287726792A1KILHAP000,45.75961156273472,4.866274911239331
318,ParuVendu,581.0,20.0,29.05,Appartement,20 m2 1,69001,Lyon,https://www.paruvendu.fr/immobilier/location/appartement/1287726630A1KILHAP000,45.75553064476996,4.837457623300921
319,ParuVendu,1072.0,72.0,14.89,Appartement,72 m2 6,69006,Lyon,https://www.paruvendu.fr/immobilier/location/appartement/1287726623A1KILHAP000,45.76713523833059,4.869821351050147
320,ParuVendu,608.0,22.0,27.64,Appartement,22 m2 3,69003,Lyon,https://www.paruvendu.fr/immobilier/location/appartement/1287726624A1KILHAP000,45.75704695798752,4.866994925345696
321,ParuVendu,1420.0,75.0,18.93,Appartement,75 m2 3,69003,Lyon,https://www.paruvendu.fr/immobilier/location/appartement/1287726626A1KILHAP000,45.75735625313526,4.870603349194783
322,ParuVendu,615.0,25.0,24.6,Appartement,25 m2 7,69007,Lyon,https://www.paruvendu.fr/immobilier/location/appartement/1287726627A1KILHAP000,45.74967464849302,4.841036301045586
323,ParuVendu,561.0,16.0,35.06,Appartement,Chambre 16 m2 8,69008,Lyon,https://www.paruvendu.fr/immobilier/location/chambre/1287726628A1KILHCM000,45.74079348423829,4.865024175467834
324,ParuVendu,681.0,18.0,37.83,Appartement,18 m2 3,69003,Lyon,https://www.paruvendu.fr/immobilier/location/appartement/1287726118A1KILHAP000,45.75843270329802,4.866080171225165
325,ParuVendu,996.0,31.0,32.13,Appartement,31 m2 2,69002,Lyon,https://www.paruvendu.fr/immobilier/location/appartement/1287726119A1KILHAP000,45.75220618867336,4.830332963826584
326,ParuVendu,602.0,26.0,23.15,Appartement,26 m2 2,69002,Lyon,https://www.paruvendu.fr/immobilier/location/appartement/1287726120A1KILHAP000,45.74965049808603,4.825918652472633
327,ParuVendu,695.0,20.0,34.75,Appartement,20 m2 3,69003,Lyon,https://www.paruvendu.fr/immobilier/location/appartement/1287726116A1KILHAP000,45.76115807352944,4.8693467335766085
328,ParuVendu,853.0,49.0,17.41,Appartement,49 m2 7,69007,Lyon,https://www.paruvendu.fr/immobilier/location/appartement/1287726117A1KILHAP000,45.74911271114885,4.842145993083472
329,ParuVendu,520.0,20.0,26.0,Appartement,20 m2 7,69007,Lyon,https://www.paruvendu.fr/immobilier/location/appartement/1287725014A1KILHAP000,45.74896330573995,4.839948843905003
330,ParuVendu,551.0,15.0,36.73,Appartement,15 m2 1,69001,Lyon,https://www.paruvendu.fr/immobilier/location/appartement/1287725015A1KILHAP000,45.75751294590861,4.832382571769871
331,ParuVendu,830.0,37.0,22.43,Appartement,37 m2 6,69006,Lyon,https://www.paruvendu.fr/immobilier/location/appartement/1287725006A1KILHAP000,45.76237121512057,4.867166258000153
332,ParuVendu,773.0,36.0,21.47,Appartement,36 m2 7,69007,Lyon,https://www.paruvendu.fr/immobilier/location/appartement/1287725007A1KILHAP000,45.74532824692482,4.838443840262453
333,ParuVendu,691.0,36.0,19.19,Appartement,36 m2 9,69009,Lyon,https://www.paruvendu.fr/immobilier/location/appartement/1287725011A1KILHAP000,45.76896802748995,4.800824183365622
334,ParuVendu,545.0,17.0,32.06,Appartement,17 m2 2,69002,Lyon,https://www.paruvendu.fr/immobilier/location/appartement/1287725004A1KILHAP000,45.752436896112016,4.827088910150565
335,ParuVendu,750.0,18.0,41.67,Appartement,18 m2 5,69005,Lyon,https://www.paruvendu.fr/immobilier/location/appartement/1287725005A1KILHAP000,45.75281563671503,4.793098620024228
336,ParuVendu,894.0,53.0,16.87,Appartement,53 m2 9,69009,Lyon,https://www.paruvendu.fr/immobilier/location/appartement/1287724999A1KILHAP000,45.76799612753492,4.800983696424973
338,ParuVendu,450.0,11.0,40.91,Appartement,Chambre 11 m2 7,69007,Lyon,https://www.paruvendu.fr/immobilier/location/chambre/1287725001A1KILHCM000,45.74760023174233,4.838983685940571
339,ParuVendu,915.0,49.0,18.67,Appartement,49 m2 4,69004,Lyon,https://www.paruvendu.fr/immobilier/location/appartement/1287725002A1KILHAP000,45.77882691173231,4.8349192424062775
340,ParuVendu,1092.0,51.0,21.41,Appartement,51 m2 9,69009,Lyon,https://www.paruvendu.fr/immobilier/location/appartement/1287706040A1KILHAP000,45.76444787265638,4.799087037643381
341,ParuVendu,960.0,50.0,19.2,Appartement,50 m2 3,69003,Lyon,https://www.paruvendu.fr/immobilier/location/appartement/1287705590A1KILHAP000,45.75794227283924,4.868600802015942
342,ParuVendu,1060.0,60.0,17.67,Appartement,60 m2 3,69003,Lyon,https://www.paruvendu.fr/immobilier/location/appartement/1287705588A1KILHAP000,45.75704695049469,4.868756097245185
343,ParuVendu,1491.0,50.0,29.82,Appartement,50 m2 5,69005,Lyon,https://www.paruvendu.fr/immobilier/location/appartement/1287679349A1KILHAP000,45.75115820596228,4.796899368833087
344,ParuVendu,1091.0,52.0,20.98,Appartement,52 m2 9,69009,Lyon,https://www.paruvendu.fr/immobilier/location/appartement/1287679347A1KILHAP000,45.768372924011835,4.802647772672253
345,ParuVendu,941.0,47.0,20.02,Appartement,47 m2 4,69004,Lyon,https://www.paruvendu.fr/immobilier/location/appartement/1287679341A1KILHAP000,45.782296157356335,4.831424807123573
346,ParuVendu,1065.0,52.0,20.48,Appartement,52 m2 6,69006,Lyon,https://www.paruvendu.fr/immobilier/location/appartement/1287729436A1KILHAP000,45.76679609567533,4.868945678385266
347,ParuVendu,900.0,43.0,20.93,Appartement,43 m2 5,69005,Lyon,https://www.paruvendu.fr/immobilier/location/appartement/1287729171A1KILHAP000,45.75115840700138,4.797620541221674
348,ParuVendu,780.0,33.0,23.64,Appartement,33 m2 8,69008,Lyon,https://www.paruvendu.fr/immobilier/location/appartement/1287729150A1KILHAP000,45.73870459703438,4.866035376224365
349,ParuVendu,700.0,25.0,28.0,Appartement,25 m2 8,69008,Lyon,https://www.paruvendu.fr/immobilier/location/appartement/1287729132A1KILHAP000,45.73759645017128,4.865889901205875
350,ParuVendu,885.0,54.0,16.39,Appartement,54 m2 8,69008,Lyon,https://www.paruvendu.fr/immobilier/location/appartement/1287729073A1KILHAP000,45.73736359765127,4.864669324911979
351,ParuVendu,990.0,55.0,18.0,Appartement,55 m2 9,69009,Lyon,https://www.paruvendu.fr/immobilier/location/appartement/1287729035A1KILHAP000,45.76444498165667,4.802817841336303
352,ParuVendu,786.0,43.0,18.28,Appartement,43 m2 9,69009,Lyon,https://www.paruvendu.fr/immobilier/location/appartement/1287728258A1KILHAP000,45.76555908454537,4.80139341425229
353,ParuVendu,856.0,38.0,22.53,Appartement,38 m2 7,69007,Lyon,https://www.paruvendu.fr/immobilier/location/appartement/1287727820A1KILHAP000,45.745724234302145,4.836611236292274
354,ParuVendu,740.0,44.0,16.82,Appartement,44 m2 3,69003,Lyon,https://www.paruvendu.fr/immobilier/location/appartement/1287727819A1KILHAP000,45.76071346554887,4.865041561708369
355,ParuVendu,532.0,24.0,22.17,Appartement,24 m2 2,69002,Lyon,https://www.paruvendu.fr/immobilier/location/appartement/1287727816A1KILHAP000,45.75325207443549,4.829854038298979
356,ParuVendu,1066.0,64.0,16.66,Appartement,64 m2 8,69008,Lyon,https://www.paruvendu.fr/immobilier/location/appartement/1287727818A1KILHAP000,45.74020309424285,4.86227520383086
357,ParuVendu,453.0,19.0,23.84,Appartement,19 m2 2,69002,Lyon,https://www.paruvendu.fr/immobilier/location/appartement/1287727578A1KILHAP000,45.74983050011738,4.827615976535201
358,ParuVendu,621.0,32.0,19.41,Appartement,32 m2 4,69004,Lyon,https://www.paruvendu.fr/immobilier/location/appartement/1287727579A1KILHAP000,45.7780230772345,4.834170493497072
359,ParuVendu,1300.0,53.0,24.53,Appartement,53 m2 2,69002,Lyon,https://www.paruvendu.fr/immobilier/location/appartement/1287728842A1KILHAP000,45.750597595837625,4.829238792786185
360,ParuVendu,935.0,49.0,19.08,Appartement,49 m2 8,69008,Lyon,https://www.paruvendu.fr/immobilier/location/appartement/1287715567A1KILHAP000,45.73876403311282,4.866085997194702
361,ParuVendu,1282.0,67.0,19.13,Appartement,67 m2 3,69003,Lyon,https://www.paruvendu.fr/immobilier/location/appartement/1287715295A1KILHAP000,45.76130365201253,4.869434883553916
362,ParuVendu,824.0,53.0,15.55,Appartement,53 m2 9,69009,Lyon,https://www.paruvendu.fr/immobilier/location/appartement/1287714160A1KILHAP000,45.76657065045706,4.8017798342902696
363,ParuVendu,920.0,26.0,35.38,Appartement,26 m2 9,69009,Lyon,https://www.paruvendu.fr/immobilier/location/appartement/1287729133A1KILHAP000,45.76893753931786,4.800979216701581
364,ParuVendu,570.0,20.0,28.5,Appartement,20 m2 8,69008,Lyon,https://www.paruvendu.fr/immobilier/location/appartement/1287728989A1KILHAP000,45.737141962442976,4.863611399334802
365,ParuVendu,1066.0,64.0,16.66,Appartement,64 m2 2,69002,Lyon,https://www.paruvendu.fr/immobilier/location/appartement/1287728869A1KILHAP000,45.75501770879174,4.83122592912854
366,ParuVendu,680.0,20.0,34.0,Appartement,20 m2 3,69003,Lyon,https://www.paruvendu.fr/immobilier/location/appartement/1287728970A1KILHAP000,45.761172202399145,4.869178201589148
367,ParuVendu,1226.0,68.0,18.03,Appartement,68 m2 7,69007,Lyon,https://www.paruvendu.fr/immobilier/location/appartement/1287729041A1KILHAP000,45.74830737252358,4.838640406197822
368,ParuVendu,381.0,16.0,23.81,Appartement,16 m2 7,69007,Lyon,https://www.paruvendu.fr/immobilier/location/appartement/1287728242A1KILHAP000,45.748749640315424,4.840061874724836
369,ParuVendu,765.0,58.0,13.19,Appartement,58 m2 6,69006,Lyon,https://www.paruvendu.fr/immobilier/location/appartement/1287360727A1KILHAP000,45.76370209867784,4.868628019639366
370,ParuVendu,1015.0,48.0,21.15,Appartement,48 m2 8,69008,Lyon,https://www.paruvendu.fr/immobilier/location/appartement/1287729212A1KILHAP000,45.738939643758535,4.860724846393471
371,ParuVendu,910.0,38.0,23.95,Appartement,38 m2 3,69003,Lyon,https://www.paruvendu.fr/immobilier/location/appartement/1287262739A1KILHAP000,45.756126155952536,4.870791105940579
372,ParuVendu,1200.0,55.0,21.82,Appartement,55 m2 5,69005,Lyon,https://www.paruvendu.fr/immobilier/location/appartement/1287262708A1KILHAP000,45.75253971930883,4.796182484000227
373,ParuVendu,310.0,11.0,28.18,Appartement,11 m2 5,69005,Lyon,https://www.paruvendu.fr/immobilier/location/appartement/1287729140A1KILHAP000,45.75454329798285,4.793855431098683
374,ParuVendu,980.0,38.0,25.79,Appartement,38 m2 3,69003,Lyon,https://www.paruvendu.fr/immobilier/location/appartement/1287728921A1KILHAP000,45.75974199139286,4.869282867613902
375,ParuVendu,1086.0,63.0,17.24,Appartement,63 m2 3,69003,Lyon,https://www.paruvendu.fr/immobilier/location/appartement/t3-lyon-3/1269412486A1KILHAP000,45.76157599670768,4.870666034546948
376,ParuVendu,997.0,47.0,21.21,Appartement,47 m2 1,69001,Lyon,https://www.paruvendu.fr/immobilier/location/appartement/1287726788A1KILHAP000,45.75791998998954,4.835662929820669
377,ParuVendu,980.0,52.0,18.85,Appartement,52 m2 3,69003,Lyon,https://www.paruvendu.fr/immobilier/location/appartement/1287726789A1KILHAP000,45.76046655944768,4.869400780663624
378,ParuVendu,569.0,20.0,28.45,Appartement,20 m2 8,69008,Lyon,https://www.paruvendu.fr/immobilier/location/appartement/1287726790A1KILHAP000,45.73809610939662,4.860578715693995
380,SeLoger,1600.0,101.0,15.84,Appartement,"4 pièce - 3 chambre - s, s, 101 m², étage",69004,Lyon,https://www.seloger.com/annonces/locations/appartement/lyon-4eme-69/plateau-de-la-croix-rousse-saone/256257927.htm?serp_view=list&search=distributionTypes%3DRent%26estateTypes%3DHouse%2CApartment%26locations%3DAD08FR28808#ln=classified_search_results&m=classified_search_results_classified_classified_detail_XL,45.781111900668094,4.833270369116507
382,SeLoger,831.0,57.4,14.48,Appartement,"3 pièce - 2 chambre - s, s, 57,4 m², étage",69002,Lyon,https://www.seloger.com/annonces/locations/appartement/lyon-2eme-69/cordeliers-celestins-bourse/257757889.htm?serp_view=list&search=distributionTypes%3DRent%26estateTypes%3DHouse%2CApartment%26locations%3DAD08FR28808#ln=classified_search_results&m=classified_search_results_classified_classified_detail_XL,45.75118947425677,4.825819220992562
383,SeLoger,935.0,49.2,19.0,Appartement,"2 pièce - 1 chambre - s, , 49,2 m², étage",69008,Lyon,https://www.seloger.com/annonces/locations/appartement/lyon-8eme-69/transvaal/257750583.htm?serp_view=list&search=distributionTypes%3DRent%26estateTypes%3DHouse%2CApartment%26locations%3DAD08FR28808#ln=classified_search_results&m=classified_search_results_classified_classified_detail_XL,45.73819403357067,4.862795537552903
384,SeLoger,1595.0,66.2,24.09,Appartement,"3 pièce - 1 chambre - s, , 66,2 m², étage",69002,Lyon,https://www.seloger.com/annonces/locations/appartement/lyon-2eme-69/bellecour-ainay/256756373.htm?serp_view=list&search=distributionTypes%3DRent%26estateTypes%3DHouse%2CApartment%26locations%3DAD08FR28808#ln=classified_search_results&m=classified_search_results_classified_classified_detail_XL,45.75013733615054,4.827975975919343
385,SeLoger,1010.0,56.0,18.04,Maison,"3 pièce - 1 chambre - Maison de ville s, , 56 m²",69008,Lyon,https://www.seloger.com/annonces/locations/maison/lyon-8eme-69/laennec-mermoz/258050573.htm?serp_view=list&search=distributionTypes%3DRent%26estateTypes%3DHouse%2CApartment%26locations%3DAD08FR28808#ln=classified_search_results&m=classified_search_results_classified_classified_detail_XL,45.74206198988272,4.863642306213351
386,SeLoger,1000.0,74.0,13.51,Appartement,"3 pièce - 2 chambre - s, s, 74 m², RDC/6",69009,Lyon,https://www.seloger.com/annonces/locations/appartement/lyon-9eme-69/gorge-du-loup-champvert/255707257.htm?serp_view=list&search=distributionTypes%3DRent%26estateTypes%3DHouse%2CApartment%26locations%3DAD08FR28808#ln=classified_search_results&m=classified_search_results_classified_classified_detail_XL,45.76458222201613,4.80018847887912
390,SeLoger,1090.0,70.5,15.46,Appartement,"3 pièce - 2 chambre - s, s, 70,5 m², RDC",69008,Lyon,https://www.seloger.com/annonces/locations/appartement/lyon-8eme-69/monplaisir-le-bachut/255160489.htm?serp_view=list&search=distributionTypes%3DRent%26estateTypes%3DHouse%2CApartment%26locations%3DAD08FR28808#ln=classified_search_results&m=classified_search_results_classified_classified_detail_XL,45.74189774898026,4.862281018955561
391,SeLoger,1871.0,100.0,18.71,Appartement,"4 pièce - 2 chambre - s, s, 100 m², Étage 2/5",69006,Lyon,https://www.seloger.com/annonces/locations/appartement/lyon-6eme-69/les-brotteaux-bellecombe-massena/258145021.htm?serp_view=list&search=distributionTypes%3DRent%26estateTypes%3DHouse%2CApartment%26locations%3DAD08FR28808#ln=classified_search_results&m=classified_search_results_classified_classified_detail_L,45.765623580929734,4.871325029003628
392,SeLoger,3191.0,130.0,24.55,Appartement,"5 pièce - 4 chambre - s, s, 130 m², étage",69006,Lyon,https://www.seloger.com/annonces/locations/appartement/lyon-6eme-69/258211225.htm?serp_view=list&search=distributionTypes%3DRent%26estateTypes%3DHouse%2CApartment%26locations%3DAD08FR28808#ln=classified_search_results&m=classified_search_results_classified_classified_detail_L,45.76421813112457,4.866336979919778
393,SeLoger,1285.0,40.0,32.12,Appartement,"2 pièce - 1 chambre - s, , 40 m², étage",69006,Lyon,https://www.seloger.com/annonces/locations/appartement/lyon-6eme-69/258211233.htm?serp_view=list&search=distributionTypes%3DRent%26estateTypes%3DHouse%2CApartment%26locations%3DAD08FR28808#ln=classified_search_results&m=classified_search_results_classified_classified_detail_L,45.762039929935504,4.868756660471216
394,SeLoger,990.0,46.0,21.52,Appartement,"2 pièce - 1 chambre - Duplex s, , 46 m², Étage 2/2",69004,Lyon,https://www.seloger.com/annonces/locations/appartement/lyon-4eme-69/croix-rousse-centre/257490349.htm?serp_view=list&search=distributionTypes%3DRent%26estateTypes%3DHouse%2CApartment%26locations%3DAD08FR28808#ln=classified_search_results&m=classified_search_results_classified_classified_detail_L,45.782290301141856,4.833355007215084
397,SeLoger,1220.0,41.0,29.76,Appartement,"1 pièce - 41 m², étage",69002,Lyon,https://www.seloger.com/annonces/locations/appartement/lyon-2eme-69/258211231.htm?serp_view=list&search=distributionTypes%3DRent%26estateTypes%3DHouse%2CApartment%26locations%3DAD08FR28808#ln=classified_search_results&m=classified_search_results_classified_classified_detail_L,45.75261226377922,4.830117172186321
398,SeLoger,1295.0,45.0,28.78,Appartement,"2 pièce - 1 chambre - s, , 45 m², étage",69002,Lyon,https://www.seloger.com/annonces/locations/appartement/lyon-2eme-69/258211217.htm?serp_view=list&search=distributionTypes%3DRent%26estateTypes%3DHouse%2CApartment%26locations%3DAD08FR28808#ln=classified_search_results&m=classified_search_results_classified_classified_detail_L,45.752187073681,4.826480949252142
399,SeLoger,1509.0,85.0,17.75,Appartement,"4 pièce - 3 chambre - s, s, 85 m², Étage 3/4",69006,Lyon,https://www.seloger.com/annonces/locations/appartement/lyon-6eme-69/les-brotteaux-bellecombe-massena/253844171.htm?serp_view=list&search=distributionTypes%3DRent%26estateTypes%3DHouse%2CApartment%26locations%3DAD08FR28808#ln=classified_search_results&m=classified_search_results_classified_classified_detail_L,45.76746318121775,4.871416732770756
400,SeLoger,1268.0,104.0,12.19,Appartement,"4 pièce - 3 chambre - s, s, 104 m², étage",69009,Lyon,https://www.seloger.com/annonces/locations/appartement/lyon-9eme-69/saint-rambert/257329561.htm?serp_view=list&search=distributionTypes%3DRent%26estateTypes%3DHouse%2CApartment%26locations%3DAD08FR28808#ln=classified_search_results&m=classified_search_results_classified_classified_detail_L,45.765313140861345,4.8047038358884695
401,SeLoger,1200.0,41.2,29.13,Appartement,"2 pièce - 1 chambre - Duplex s, , 41,2 m², Étage 2/5",69002,Lyon,https://www.seloger.com/annonces/locations/appartement/lyon-2eme-69/cordeliers-celestins-bourse/256198369.htm?serp_view=list&search=distributionTypes%3DRent%26estateTypes%3DHouse%2CApartment%26locations%3DAD08FR28808#ln=classified_search_results&m=classified_search_results_classified_classified_detail_L,45.752221820886355,4.831224262917318
402,SeLoger,720.0,45.0,16.0,Appartement,"2 pièce - 1 chambre - s, , 45 m², étage",69000,Lyon,https://www.seloger.com/annonces/locations/appartement/oullins-69/bussiere/257996969.htm?serp_view=list&search=distributionTypes%3DRent%26estateTypes%3DHouse%2CApartment%26locations%3DAD08FR28808#ln=classified_search_results&m=classified_search_results_classified_classified_detail_XL,45.74932749427676,4.828796642952803
403,SeLoger,2490.0,69.0,36.09,Appartement,"4 pièce - 3 chambre - s, s, 69 m², étage",69006,Lyon,https://www.seloger.com/annonces/locations/appartement/lyon-6eme-69/les-brotteaux-bellecombe-massena/239453283.htm?serp_view=list&search=distributionTypes%3DRent%26estateTypes%3DHouse%2CApartment%26locations%3DAD08FR28808#ln=classified_search_results&m=classified_search_results_classified_classified_detail_L,45.7658273530734,4.865895374263558
404,SeLoger,1585.0,60.0,26.42,Appartement,"2 pièce - 1 chambre - s, , 60 m², étage",69006,Lyon,https://www.seloger.com/annonces/locations/appartement/lyon-6eme-69/258211215.htm?serp_view=list&search=distributionTypes%3DRent%26estateTypes%3DHouse%2CApartment%26locations%3DAD08FR28808#ln=classified_search_results&m=classified_search_results_classified_classified_detail_L,45.76228610751059,4.867742543607775
405,SeLoger,1260.0,54.0,23.33,Appartement,"3 pièce - 2 chambre - s, s, 54 m², Étage 4/6",69007,Lyon,https://www.seloger.com/annonces/locations/appartement/lyon-7eme-69/la-guillotiere-sud/258143261.htm?serp_view=list&search=distributionTypes%3DRent%26estateTypes%3DHouse%2CApartment%26locations%3DAD08FR28808#ln=classified_search_results&m=classified_search_results_classified_classified_detail_L,45.744616401358996,4.837395225878304
406,SeLoger,1223.0,78.0,15.68,Appartement,"3 pièce - 2 chambre - s, s, 78 m², Étage 1/2",69009,Lyon,https://www.seloger.com/annonces/locations/appartement/lyon-9eme-69/saint-rambert/204643383.htm?serp_view=list&search=distributionTypes%3DRent%26estateTypes%3DHouse%2CApartment%26locations%3DAD08FR28808#ln=classified_search_results&m=classified_search_results_classified_classified_detail_L,45.76456305294374,4.804614656669253
407,SeLoger,1518.0,32.0,47.44,Appartement,"2 pièce - 1 chambre - s, , 32 m², étage",69002,Lyon,https://www.seloger.com/annonces/locations/appartement/lyon-2eme-69/cordeliers-celestins-bourse/257300975.htm?serp_view=list&search=distributionTypes%3DRent%26estateTypes%3DHouse%2CApartment%26locations%3DAD08FR28808#ln=classified_search_results&m=classified_search_results_classified_classified_detail_L,45.75488584679339,4.8263343393299865
409,SeLoger,727.0,31.7,22.93,Appartement,"1 pièce - 31,7 m², dès le 24/01/2026",69003,Lyon,https://www.seloger.com/annonces/locations/appartement/lyon-3eme-69/montchat/258016705.htm?serp_view=list&search=distributionTypes%3DRent%26estateTypes%3DHouse%2CApartment%26locations%3DAD08FR28808#ln=classified_search_results&m=classified_search_results_classified_classified_detail_L,45.758881090917406,4.865905801069986
410,SeLoger,905.0,69.0,13.12,Appartement,"2 pièce - 1 chambre - s, , 69 m², RDC",69003,Lyon,https://www.seloger.com/annonces/locations/appartement/lyon-3eme-69/part-dieu/254556947.htm?serp_view=list&search=distributionTypes%3DRent%26estateTypes%3DHouse%2CApartment%26locations%3DAD08FR28808#ln=classified_search_results&m=classified_search_results_classified_classified_detail_L,45.75746280353715,4.865986469145681
411,SeLoger,2300.0,88.0,26.14,Appartement,"3 pièce - 2 chambre - s, s, 88 m², étage",69006,Lyon,https://www.seloger.com/annonces/locations/appartement/lyon-6eme-69/253237649.htm?serp_view=list&search=distributionTypes%3DRent%26estateTypes%3DHouse%2CApartment%26locations%3DAD08FR28808%26page%3D2#ln=classified_search_results&m=classified_search_results_classified_classified_detail_L,45.76672585192911,4.870051797421522
413,SeLoger,1050.0,82.0,12.8,Appartement,"4 pièce - 3 chambre - s, s, 82 m², Étage 1/4",69009,Lyon,https://www.seloger.com/annonces/locations/appartement/lyon-9eme-69/saint-rambert/256226213.htm?serp_view=list&search=distributionTypes%3DRent%26estateTypes%3DHouse%2CApartment%26locations%3DAD08FR28808%26page%3D2#ln=classified_search_results&m=classified_search_results_classified_classified_detail_L,45.76831030055034,4.798992365797923
414,SeLoger,800.0,15.0,53.33,Studio,"1 pièce - Studio , 15 m²",69003,Lyon,https://www.seloger.com/annonces/locations/appartement/lyon-3eme-69/montchat/251770147.htm?serp_view=list&search=distributionTypes%3DRent%26estateTypes%3DHouse%2CApartment%26locations%3DAD08FR28808%26page%3D2#ln=classified_search_results&m=classified_search_results_classified_classified_detail_L,45.757900983338324,4.866620422281506
415,SeLoger,540.0,15.0,36.0,Studio,"1 pièce - 1 chambre - Studio , , 15 m², étage",69003,Lyon,https://www.seloger.com/annonces/locations/appartement/lyon-3eme-69/part-dieu/253804139.htm?serp_view=list&search=distributionTypes%3DRent%26estateTypes%3DHouse%2CApartment%26locations%3DAD08FR28808%26page%3D2#ln=classified_search_results&m=classified_search_results_classified_classified_detail_L,45.75943796426628,4.865314646108744
416,SeLoger,775.0,15.0,51.67,Studio,"1 pièce - Studio , 15 m², étage",69002,Lyon,https://www.seloger.com/annonces/locations/appartement/lyon-2eme-69/cordeliers-celestins-bourse/254504965.htm?serp_view=list&search=distributionTypes%3DRent%26estateTypes%3DHouse%2CApartment%26locations%3DAD08FR28808%26page%3D2#ln=classified_search_results&m=classified_search_results_classified_classified_detail_L,45.752977848958245,4.8313809861826815
417,SeLoger,1960.0,127.0,15.43,Appartement,"4 pièce - 3 chambre - s, s, 127 m², Étage 4/5",69002,Lyon,https://www.seloger.com/annonces/locations/appartement/lyon-2eme-69/cordeliers-celestins-bourse/252263621.htm?serp_view=list&search=distributionTypes%3DRent%26estateTypes%3DHouse%2CApartment%26locations%3DAD08FR28808%26page%3D2#ln=classified_search_results&m=classified_search_results_classified_classified_detail_L,45.75484039664571,4.825738769994819
418,SeLoger,1250.0,55.0,22.73,Appartement,"3 pièce - 2 chambre - s, s, 55 m², étage",69002,Lyon,https://www.seloger.com/annonces/locations/appartement/lyon-2eme-69/bellecour-ainay/256569859.htm?serp_view=list&search=distributionTypes%3DRent%26estateTypes%3DHouse%2CApartment%26locations%3DAD08FR28808%26page%3D2#ln=classified_search_results&m=classified_search_results_classified_classified_detail_L,45.75205013258048,4.83087603099052
419,SeLoger,594.0,12.0,49.5,Appartement,"1 pièce - 12 m², Étage 6/6",69007,Lyon,https://www.seloger.com/annonces/locations/appartement/lyon-7eme-69/jean-mace/258143247.htm?serp_view=list&search=distributionTypes%3DRent%26estateTypes%3DHouse%2CApartment%26locations%3DAD08FR28808%26page%3D2#ln=classified_search_results&m=classified_search_results_classified_classified_detail_L,45.74950180135821,4.840916087652616
420,SeLoger,660.0,19.9,33.17,Appartement,"1 pièce - 19,9 m², Étage 1/5, dès le 16/01/2026",69000,Lyon,https://www.seloger.com/annonces/locations/appartement/villeurbanne-69/perraliere/257827045.htm?serp_view=list&search=distributionTypes%3DRent%26estateTypes%3DHouse%2CApartment%26locations%3DAD08FR28808%26page%3D2#ln=classified_search_results&m=classified_search_results_classified_classified_detail_XL,45.746979978629696,4.825595985715398
421,SeLoger,855.0,15.0,57.0,Studio,"1 pièce - Studio , 15 m², étage",69001,Lyon,https://www.seloger.com/annonces/locations/appartement/lyon-1er-69/terreaux/254813081.htm?serp_view=list&search=distributionTypes%3DRent%26estateTypes%3DHouse%2CApartment%26locations%3DAD08FR28808%26page%3D2#ln=classified_search_results&m=classified_search_results_classified_classified_detail_L,45.7559246062199,4.834777444978194
422,SeLoger,620.0,15.0,41.33,Studio,"1 pièce - Studio , 15 m², étage",69003,Lyon,https://www.seloger.com/annonces/locations/appartement/lyon-3eme-69/part-dieu/253957627.htm?serp_view=list&search=distributionTypes%3DRent%26estateTypes%3DHouse%2CApartment%26locations%3DAD08FR28808%26page%3D2#ln=classified_search_results&m=classified_search_results_classified_classified_detail_L,45.756461270470425,4.868639540483787
423,SeLoger,1327.0,38.9,34.11,Appartement,"2 pièce - 1 chambre - s, , 38,9 m², Étage 4/5",69002,Lyon,https://www.seloger.com/annonces/locations/appartement/lyon-2eme-69/255412661.htm?serp_view=list&search=distributionTypes%3DRent%26estateTypes%3DHouse%2CApartment%26locations%3DAD08FR28808%26page%3D2#ln=classified_search_results&m=classified_search_results_classified_classified_detail_L,45.75544881185514,4.829496312559272
424,SeLoger,1605.0,137.0,11.72,Appartement,"6 pièce - 5 chambre - s, s, 137 m², étage",69009,Lyon,https://www.seloger.com/annonces/locations/appartement/lyon-9eme-69/saint-rambert/254254785.htm?serp_view=list&search=distributionTypes%3DRent%26estateTypes%3DHouse%2CApartment%26locations%3DAD08FR28808%26page%3D2#ln=classified_search_results&m=classified_search_results_classified_classified_detail_L,45.76816768121251,4.802579866359599
425,SeLoger,1500.0,30.0,50.0,Appartement,"1 pièce - 30 m², étage",69001,Lyon,https://www.seloger.com/annonces/locations/appartement/lyon-1er-69/terreaux/254883177.htm?serp_view=list&search=distributionTypes%3DRent%26estateTypes%3DHouse%2CApartment%26locations%3DAD08FR28808%26page%3D2#ln=classified_search_results&m=classified_search_results_classified_classified_detail_L,45.75975714151828,4.834874515322076
426,SeLoger,1090.0,67.0,16.27,Appartement,"3 pièce - 2 chambre - s, s, 67 m², étage",69008,Lyon,https://www.seloger.com/annonces/locations/appartement/lyon-8eme-69/transvaal/257709257.htm?serp_view=list&search=distributionTypes%3DRent%26estateTypes%3DHouse%2CApartment%26locations%3DAD08FR28808%26page%3D2#ln=classified_search_results&m=classified_search_results_classified_classified_detail_XL,45.74214824609506,4.863122423112142
427,SeLoger,2500.0,135.1,18.5,Appartement,"4 pièce - 3 chambre - s, s, 135,1 m², étage",69006,Lyon,https://www.seloger.com/annonces/locations/appartement/lyon-6eme-69/les-brotteaux-bellecombe-massena/257968191.htm?serp_view=list&search=distributionTypes%3DRent%26estateTypes%3DHouse%2CApartment%26locations%3DAD08FR28808%26page%3D2#ln=classified_search_results&m=classified_search_results_classified_classified_detail_XL,45.763963660895264,4.866809865223117
428,SeLoger,1080.0,55.0,19.64,Appartement,"2 pièce - 1 chambre - s, , 55 m², RDC/3",69005,Lyon,https://www.seloger.com/annonces/locations/appartement/lyon-5eme-69/257319839.htm?serp_view=list&search=distributionTypes%3DRent%26estateTypes%3DHouse%2CApartment%26locations%3DAD08FR28808%26page%3D2#ln=classified_search_results&m=classified_search_results_classified_classified_detail_XL,45.75477440954881,4.794240524709256
429,SeLoger,790.0,36.5,21.64,Appartement,"2 pièce - 1 chambre - s, , 36,5 m², étage",69007,Lyon,https://www.seloger.com/258247651/detail.htm?serp_view=list&search=distributionTypes%3DRent%26estateTypes%3DHouse%2CApartment%26locations%3DAD08FR28808%26page%3D2#ln=classified_search_results&m=classified_search_results_classified_classified_detail_XL,45.74786468185876,4.837123819643057
430,SeLoger,1220.0,61.0,20.0,Appartement,"3 pièce - 2 chambre - s, s, 61 m², étage",69007,Lyon,https://www.seloger.com/annonces/locations/appartement/lyon-7eme-69/256382249.htm?serp_view=list&search=distributionTypes%3DRent%26estateTypes%3DHouse%2CApartment%26locations%3DAD08FR28808%26page%3D2#ln=classified_search_results&m=classified_search_results_classified_classified_detail_XL,45.750092922948696,4.836825276782171
431,SeLoger,946.0,56.0,16.89,Appartement,"3 pièce - 2 chambre - s, s, 56 m², étage",69009,Lyon,https://www.seloger.com/annonces/locations/appartement/lyon-9eme-69/gorge-du-loup-champvert/247371323.htm?serp_view=list&search=distributionTypes%3DRent%26estateTypes%3DHouse%2CApartment%26locations%3DAD08FR28808%26page%3D2#ln=classified_search_results&m=classified_search_results_classified_classified_detail_XL,45.76682508365609,4.799512731288668
434,SeLoger,1390.0,79.0,17.59,Appartement,"4 pièce - 3 chambre - s, s, 79 m², étage",69000,Lyon,https://www.seloger.com/annonces/locations/appartement/champagne-au-mont-d-or-69/contour/256387563.htm?serp_view=list&search=distributionTypes%3DRent%26estateTypes%3DHouse%2CApartment%26locations%3DAD08FR28808%26page%3D2#ln=classified_search_results&m=classified_search_results_classified_classified_detail_XL,45.75051186636555,4.825224549309197
435,SeLoger,1400.0,76.0,18.42,Appartement,"3 pièce - 2 chambre - s, s, 76 m², Étage 4/5",69001,Lyon,https://www.seloger.com/annonces/locations/appartement/lyon-1er-69/croix-paquet/256847603.htm?serp_view=list&search=distributionTypes%3DRent%26estateTypes%3DHouse%2CApartment%26locations%3DAD08FR28808%26page%3D2#ln=classified_search_results&m=classified_search_results_classified_classified_detail_L,45.75556576258326,4.83565731463488
436,SeLoger,530.0,11.0,48.18,Studio,"1 pièce - 1 chambre - Studio , , 11 m², étage",69008,Lyon,https://www.seloger.com/annonces/locations/appartement/lyon-8eme-69/transvaal/258246161.htm?serp_view=list&search=distributionTypes%3DRent%26estateTypes%3DHouse%2CApartment%26locations%3DAD08FR28808%26page%3D2#ln=classified_search_results&m=classified_search_results_classified_classified_detail_L,45.73792752353308,4.860737600413282
437,SeLoger,1500.0,76.2,19.69,Appartement,"3 pièce - 2 chambre - s, s, 76,2 m², Étage 1/5",69004,Lyon,https://www.seloger.com/annonces/locations/appartement/lyon-4eme-69/plateau-de-la-croix-rousse-ouest/253290669.htm?serp_view=list&search=distributionTypes%3DRent%26estateTypes%3DHouse%2CApartment%26locations%3DAD08FR28808%26page%3D2#ln=classified_search_results&m=classified_search_results_classified_classified_detail_L,45.77795826411354,4.833129858200024
438,SeLoger,896.0,49.0,18.29,Appartement,"2 pièce - 1 chambre - s, , 49 m², RDC/2",69009,Lyon,https://www.seloger.com/annonces/locations/appartement/lyon-9eme-69/saint-rambert/257735933.htm?serp_view=list&search=distributionTypes%3DRent%26estateTypes%3DHouse%2CApartment%26locations%3DAD08FR28808%26page%3D2#ln=classified_search_results&m=classified_search_results_classified_classified_detail_L,45.76819435899558,4.801560750119179
439,SeLoger,1900.0,90.0,21.11,Appartement,"4 pièce - 3 chambre - s, s, 90 m², étage",69007,Lyon,https://www.seloger.com/annonces/locations/appartement/lyon-7eme-69/jean-mace/257302015.htm?serp_view=list&search=distributionTypes%3DRent%26estateTypes%3DHouse%2CApartment%26locations%3DAD08FR28808%26page%3D2#ln=classified_search_results&m=classified_search_results_classified_classified_detail_L,45.74621187944255,4.838025563000576
440,SeLoger,1652.0,112.0,14.75,Appartement,"3 pièce - 2 chambre - s, s, 112 m², Étage 3/5",69006,Lyon,https://www.seloger.com/257123339/detail.htm?serp_view=list&search=distributionTypes%3DRent%26estateTypes%3DHouse%2CApartment%26locations%3DAD08FR28808%26page%3D2#ln=classified_search_results&m=classified_search_results_classified_classified_detail_L,45.76512665545373,4.866283036785084
441,SeLoger,710.0,25.0,28.4,Appartement,"1 pièce - 25 m², étage",69000,Lyon,https://www.seloger.com/annonces/locations/appartement/lyon-5eme-69/vieux-lyon/257840615.htm?serp_view=list&search=distributionTypes%3DRent%26estateTypes%3DHouse%2CApartment%26locations%3DAD08FR28808%26page%3D2#ln=classified_search_results&m=classified_search_results_classified_classified_detail_L,45.747703361931954,4.827131999716836
442,SeLoger,868.0,29.0,29.93,Appartement,"1 pièce - 29 m², Étage 2/5, dès le 20/01/2026",69005,Lyon,https://www.seloger.com/annonces/locations/appartement/lyon-5eme-69/257945305.htm?serp_view=list&search=distributionTypes%3DRent%26estateTypes%3DHouse%2CApartment%26locations%3DAD08FR28808%26page%3D2#ln=classified_search_results&m=classified_search_results_classified_classified_detail_L,45.753825946304886,4.793169340121026
443,SeLoger,2360.0,88.0,26.82,Appartement,"4 pièce - 3 chambre - s, s, 88 m², Étage 6/8",69006,Lyon,https://www.seloger.com/annonces/locations/appartement/lyon-6eme-69/257462355.htm?serp_view=list&search=distributionTypes%3DRent%26estateTypes%3DHouse%2CApartment%26locations%3DAD08FR28808%26page%3D3#ln=classified_search_results&m=classified_search_results_classified_classified_detail_L,45.766142503688876,4.868895106037074
444,SeLoger,775.0,33.0,23.48,Appartement,"2 pièce - 1 chambre - Duplex s, , 33 m², RDC/4",69007,Lyon,https://www.seloger.com/annonces/locations/appartement/lyon-7eme-69/jean-mace/257885281.htm?serp_view=list&search=distributionTypes%3DRent%26estateTypes%3DHouse%2CApartment%26locations%3DAD08FR28808%26page%3D3#ln=classified_search_results&m=classified_search_results_classified_classified_detail_L,45.74863803860641,4.842291465369579
445,SeLoger,572.0,27.8,20.58,Appartement,"1 pièce - 27,8 m², étage, dès le 05/02/2026",69003,Lyon,https://www.seloger.com/annonces/locations/appartement/lyon-3eme-69/villette/258242725.htm?serp_view=list&search=distributionTypes%3DRent%26estateTypes%3DHouse%2CApartment%26locations%3DAD08FR28808%26page%3D3#ln=classified_search_results&m=classified_search_results_classified_classified_detail_L,45.75862656067312,4.868005946729466
446,SeLoger,730.0,16.0,45.62,Appartement,"1 pièce - 16 m², Étage 5/6",69000,Lyon,https://www.seloger.com/annonces/locations/appartement/lyon-2eme-69/cordeliers-celestins-bourse/257713059.htm?serp_view=list&search=distributionTypes%3DRent%26estateTypes%3DHouse%2CApartment%26locations%3DAD08FR28808%26page%3D3#ln=classified_search_results&m=classified_search_results_classified_classified_detail_L,45.751171388748006,4.82530494578065
447,SeLoger,700.0,24.0,29.17,Appartement,"1 pièce - 24 m², Étage 1/7",69000,Lyon,https://www.seloger.com/annonces/locations/appartement/lyon-7eme-69/gerland/255740949.htm?serp_view=list&search=distributionTypes%3DRent%26estateTypes%3DHouse%2CApartment%26locations%3DAD08FR28808%26page%3D3#ln=classified_search_results&m=classified_search_results_classified_classified_detail_L,45.74804474764805,4.825859012938006
448,SeLoger,834.0,59.0,14.14,Appartement,"2 pièce - 1 chambre - s, , 59 m², Étage 1/5",69007,Lyon,https://www.seloger.com/256395807/detail.htm?serp_view=list&search=distributionTypes%3DRent%26estateTypes%3DHouse%2CApartment%26locations%3DAD08FR28808%26page%3D3#ln=classified_search_results&m=classified_search_results_classified_classified_detail_L,45.74994950331498,4.836766298933035
449,SeLoger,1428.0,97.0,14.72,Appartement,"2 pièce - 1 chambre - s, , 97 m², étage",69002,Lyon,https://www.seloger.com/annonces/locations/appartement/lyon-2eme-69/bellecour-ainay/247990365.htm?serp_view=list&search=distributionTypes%3DRent%26estateTypes%3DHouse%2CApartment%26locations%3DAD08FR28808%26page%3D3#ln=classified_search_results&m=classified_search_results_classified_classified_detail_L,45.749699927351344,4.826767933382107
450,SeLoger,2000.0,115.0,17.39,Appartement,"5 pièce - 4 chambre - s, s, 115 m², RDC",69002,Lyon,https://www.seloger.com/annonces/locations/appartement/lyon-2eme-69/cordeliers-celestins-bourse/252734121.htm?serp_view=list&search=distributionTypes%3DRent%26estateTypes%3DHouse%2CApartment%26locations%3DAD08FR28808%26page%3D3#ln=classified_search_results&m=classified_search_results_classified_classified_detail_L,45.75143253978662,4.830637383070292
451,SeLoger,2290.0,75.0,30.53,Appartement,"3 pièce - 2 chambre - s, s, 75 m², Étage 3/5",69002,Lyon,https://www.seloger.com/annonces/locations/appartement/lyon-2eme-69/255542809.htm?serp_view=list&search=distributionTypes%3DRent%26estateTypes%3DHouse%2CApartment%26locations%3DAD08FR28808%26page%3D3#ln=classified_search_results&m=classified_search_results_classified_classified_detail_L,45.75240970080081,4.8279399487830705
452,SeLoger,620.0,24.0,25.83,Appartement,"2 pièce - 1 chambre - s, , 24 m², étage",69000,Lyon,https://www.seloger.com/annonces/locations/appartement/bron-69/les-genets-le-vinatier-le-lessivas/258014615.htm?serp_view=list&search=distributionTypes%3DRent%26estateTypes%3DHouse%2CApartment%26locations%3DAD08FR28808%26page%3D3#ln=classified_search_results&m=classified_search_results_classified_classified_detail_XL,45.74787343570205,4.825450463105838
453,SeLoger,1167.0,62.0,18.82,Appartement,"3 pièce - 2 chambre - s, s, 62 m², étage",69002,Lyon,https://www.seloger.com/annonces/locations/appartement/lyon-2eme-69/cordeliers-celestins-bourse/255932417.htm?serp_view=list&search=distributionTypes%3DRent%26estateTypes%3DHouse%2CApartment%26locations%3DAD08FR28808%26page%3D3#ln=classified_search_results&m=classified_search_results_classified_classified_detail_L,45.7500761984507,4.827320545595287
454,SeLoger,1072.0,61.0,17.57,Appartement,"2 pièce - 1 chambre - s, , 61 m², étage",69002,Lyon,https://www.seloger.com/annonces/locations/appartement/lyon-2eme-69/cordeliers-celestins-bourse/252288205.htm?serp_view=list&search=distributionTypes%3DRent%26estateTypes%3DHouse%2CApartment%26locations%3DAD08FR28808%26page%3D3#ln=classified_search_results&m=classified_search_results_classified_classified_detail_L,45.752765940100446,4.827258462998765
455,SeLoger,1074.0,67.0,16.03,Appartement,"3 pièce - 2 chambre - s, s, 67 m², RDC",69008,Lyon,https://www.seloger.com/annonces/locations/appartement/lyon-8eme-69/la-plaine/252836953.htm?serp_view=list&search=distributionTypes%3DRent%26estateTypes%3DHouse%2CApartment%26locations%3DAD08FR28808%26page%3D3#ln=classified_search_results&m=classified_search_results_classified_classified_detail_L,45.73735026652967,4.86084149182079
456,SeLoger,1200.0,42.0,28.57,Appartement,"2 pièce - 1 chambre - s, , 42 m², Étage 2/5",69006,Lyon,https://www.seloger.com/annonces/locations/appartement/lyon-6eme-69/255438635.htm?serp_view=list&search=distributionTypes%3DRent%26estateTypes%3DHouse%2CApartment%26locations%3DAD08FR28808%26page%3D3#ln=classified_search_results&m=classified_search_results_classified_classified_detail_L,45.765846974974124,4.869455181053789
457,SeLoger,620.0,18.0,34.44,Appartement,"1 pièce - 18 m², RDC/4",69003,Lyon,https://www.seloger.com/annonces/locations/appartement/lyon-3eme-69/sans-souci-dauphine/256982967.htm?serp_view=list&search=distributionTypes%3DRent%26estateTypes%3DHouse%2CApartment%26locations%3DAD08FR28808%26page%3D3#ln=classified_search_results&m=classified_search_results_classified_classified_detail_L,45.76145967763272,4.865985681932079
458,SeLoger,1308.0,73.0,17.92,Appartement,"3 pièce - 2 chambre - s, s, 73 m², étage",69004,Lyon,https://www.seloger.com/annonces/locations/appartement/lyon-4eme-69/croix-rousse-gros-caillou/254607465.htm?serp_view=list&search=distributionTypes%3DRent%26estateTypes%3DHouse%2CApartment%26locations%3DAD08FR28808%26page%3D3#ln=classified_search_results&m=classified_search_results_classified_classified_detail_L,45.77977611186448,4.8328462367837295
459,SeLoger,790.0,40.0,19.75,Appartement,"1 pièce - 40 m², étage",69002,Lyon,https://www.seloger.com/annonces/locations/appartement/lyon-2eme-69/cordeliers-celestins-bourse/256220341.htm?serp_view=list&search=distributionTypes%3DRent%26estateTypes%3DHouse%2CApartment%26locations%3DAD08FR28808%26page%3D3#ln=classified_search_results&m=classified_search_results_classified_classified_detail_L,45.749726964627534,4.827347941488819
460,SeLoger,1493.0,104.0,14.36,Appartement,"3 pièce - 2 chambre - s, s, 104 m², étage",69002,Lyon,https://www.seloger.com/annonces/locations/appartement/lyon-2eme-69/bellecour-ainay/247874107.htm?serp_view=list&search=distributionTypes%3DRent%26estateTypes%3DHouse%2CApartment%26locations%3DAD08FR28808%26page%3D3#ln=classified_search_results&m=classified_search_results_classified_classified_detail_L,45.7541310329719,4.829610172041513
461,SeLoger,870.0,50.0,17.4,Appartement,"1 pièce - 50 m², Étage 1/5",69002,Lyon,https://www.seloger.com/annonces/locations/appartement/lyon-2eme-69/bellecour-ainay/256781699.htm?serp_view=list&search=distributionTypes%3DRent%26estateTypes%3DHouse%2CApartment%26locations%3DAD08FR28808%26page%3D3#ln=classified_search_results&m=classified_search_results_classified_classified_detail_L,45.75281394741734,4.830450746367979
462,SeLoger,895.0,55.5,16.13,Appartement,"2 pièce - 1 chambre - s, , 55,5 m², RDC",69007,Lyon,https://www.seloger.com/annonces/locations/appartement/lyon-7eme-69/253932609.htm?serp_view=list&search=distributionTypes%3DRent%26estateTypes%3DHouse%2CApartment%26locations%3DAD08FR28808%26page%3D3#ln=classified_search_results&m=classified_search_results_classified_classified_detail_L,45.74964703338146,4.839391534786128
463,SeLoger,1370.0,62.0,22.1,Appartement,"5 pièce - 2 chambre - s, s, 62 m², étage",69001,Lyon,https://www.seloger.com/annonces/locations/appartement/lyon-1er-69/croix-paquet/258007889.htm?serp_view=list&search=distributionTypes%3DRent%26estateTypes%3DHouse%2CApartment%26locations%3DAD08FR28808%26page%3D3#ln=classified_search_results&m=classified_search_results_classified_classified_detail_L,45.75615092450003,4.837264335261661
464,SeLoger,1056.0,50.0,21.12,Appartement,"2 pièce - 1 chambre - s, , 50 m², étage",69003,Lyon,https://www.seloger.com/annonces/locations/appartement/lyon-3eme-69/part-dieu/257960439.htm?serp_view=list&search=distributionTypes%3DRent%26estateTypes%3DHouse%2CApartment%26locations%3DAD08FR28808%26page%3D3#ln=classified_search_results&m=classified_search_results_classified_classified_detail_L,45.7583787039081,4.869818962646463
466,SeLoger,660.0,19.9,33.17,Appartement,"1 pièce - 19,9 m², Étage 1/5, dès le 16/01/2026",69000,Lyon,https://www.seloger.com/annonces/locations/appartement/villeurbanne-69/perraliere/257827045.htm?serp_view=list&search=distributionTypes%3DRent%26estateTypes%3DHouse%2CApartment%26locations%3DAD08FR28808%26page%3D3#ln=classified_search_results&m=classified_search_results_classified_classified_detail_XL,45.747343406889186,4.825906723141352
467,SeLoger,990.0,43.0,23.02,Appartement,"2 pièce - 1 chambre - s, , 43 m², étage",69004,Lyon,https://www.seloger.com/annonces/locations/appartement/lyon-4eme-69/croix-rousse-centre/257960441.htm?serp_view=list&search=distributionTypes%3DRent%26estateTypes%3DHouse%2CApartment%26locations%3DAD08FR28808%26page%3D3#ln=classified_search_results&m=classified_search_results_classified_classified_detail_L,45.78097269265099,4.833568780454213
470,SeLoger,1062.0,68.0,15.62,Appartement,"2 pièce - 1 chambre - s, , 68 m², étage",69009,Lyon,https://www.seloger.com/annonces/locations/appartement/lyon-9eme-69/la-duchere/258223553.htm?serp_view=list&search=distributionTypes%3DRent%26estateTypes%3DHouse%2CApartment%26locations%3DAD08FR28808%26page%3D3#ln=classified_search_results&m=classified_search_results_classified_classified_detail_L,45.7685058944531,4.800143706710065
471,SeLoger,990.0,58.0,17.07,Appartement,"3 pièce - 2 chambre - s, s, 58 m², étage",69008,Lyon,https://www.seloger.com/annonces/locations/appartement/lyon-8eme-69/transvaal/257710401.htm?serp_view=list&search=distributionTypes%3DRent%26estateTypes%3DHouse%2CApartment%26locations%3DAD08FR28808%26page%3D3#ln=classified_search_results&m=classified_search_results_classified_classified_detail_L,45.74290104623186,4.860652034694121
472,SeLoger,935.0,33.0,28.33,Appartement,"1 pièce - 33 m², étage, dès le 13/02/2026",69001,Lyon,https://www.seloger.com/annonces/locations/appartement/lyon-1er-69/croix-paquet/258223541.htm?serp_view=list&search=distributionTypes%3DRent%26estateTypes%3DHouse%2CApartment%26locations%3DAD08FR28808%26page%3D3#ln=classified_search_results&m=classified_search_results_classified_classified_detail_L,45.757380735590715,4.837334851834008
473,SeLoger,1030.0,45.0,22.89,Appartement,"2 pièce - 1 chambre - s, , 45 m², étage",69009,Lyon,https://www.seloger.com/257710419/detail.htm?serp_view=list&search=distributionTypes%3DRent%26estateTypes%3DHouse%2CApartment%26locations%3DAD08FR28808%26page%3D3#ln=classified_search_results&m=classified_search_results_classified_classified_detail_L,45.76788349136778,4.803235183556887
479,SeLoger,1145.0,65.0,17.62,Appartement,"3 pièce - 2 chambre - s, s, 65 m², Étage 5/7",69000,Lyon,https://www.seloger.com/annonces/locations/appartement/lyon-8eme-69/le-grand-trou/2664MUP178ZA.htm?serp_view=list&search=distributionTypes%3DRent%26estateTypes%3DHouse%2CApartment%26locations%3DAD08FR28808%26page%3D4#ln=classified_search_results&m=classified_search_results_classified_classified_detail_M,45.74779627529032,4.826379456218046
481,SeLoger,1190.0,50.0,23.8,Appartement,"2 pièce - 1 chambre - s, , 50 m², étage",69005,Lyon,https://www.seloger.com/annonces/locations/appartement/lyon-5eme-69/vieux-lyon/257704029.htm?serp_view=list&search=distributionTypes%3DRent%26estateTypes%3DHouse%2CApartment%26locations%3DAD08FR28808%26page%3D4#ln=classified_search_results&m=classified_search_results_classified_classified_detail_L,45.75321553932874,4.793341443327891
482,SeLoger,675.0,46.0,14.67,Appartement,"3 pièce - 2 chambre - s, s, 46 m², étage",69008,Lyon,https://www.seloger.com/annonces/locations/appartement/lyon-8eme-69/laennec-mermoz/257690319.htm?serp_view=list&search=distributionTypes%3DRent%26estateTypes%3DHouse%2CApartment%26locations%3DAD08FR28808%26page%3D4#ln=classified_search_results&m=classified_search_results_classified_classified_detail_L,45.74137396623811,4.861541037656101
484,SeLoger,1905.0,96.2,19.8,Appartement,"4 pièce - 3 chambre - Duplex s, s, 96,2 m², Étage 2/2",69000,Lyon,https://www.seloger.com/annonces/locations/appartement/tassin-la-demi-lune-69/centre-ville/257923363.htm?serp_view=list&search=distributionTypes%3DRent%26estateTypes%3DHouse%2CApartment%26locations%3DAD08FR28808%26page%3D4#ln=classified_search_results&m=classified_search_results_classified_classified_detail_XL,45.748118155643574,4.828439241957797
490,SeLoger,908.0,37.8,24.02,Appartement,"1 pièce - 37,8 m², étage, dès le 31/01/2026",69006,Lyon,https://www.seloger.com/257890245/detail.htm?serp_view=list&search=distributionTypes%3DRent%26estateTypes%3DHouse%2CApartment%26locations%3DAD08FR28808%26page%3D4#ln=classified_search_results&m=classified_search_results_classified_classified_detail_M,45.76225567070644,4.87008094176035
492,SeLoger,622.0,50.0,12.44,Appartement,"3 pièce - 2 chambre - s, s, 50 m², étage",69003,Lyon,https://www.seloger.com/annonces/locations/appartement/lyon-3eme-69/part-dieu/257690307.htm?serp_view=list&search=distributionTypes%3DRent%26estateTypes%3DHouse%2CApartment%26locations%3DAD08FR28808%26page%3D4#ln=classified_search_results&m=classified_search_results_classified_classified_detail_L,45.76099242527584,4.866018228643448
495,SeLoger,1249.0,75.0,16.65,Appartement,"3 pièce - 5 chambre - s, s, 75 m², Étage 2/6",69002,Lyon,https://www.seloger.com/annonces/locations/appartement/lyon-2eme-69/cordeliers-celestins-bourse/258027051.htm?serp_view=list&search=distributionTypes%3DRent%26estateTypes%3DHouse%2CApartment%26locations%3DAD08FR28808%26page%3D4#ln=classified_search_results&m=classified_search_results_classified_classified_detail_M,45.75243781679182,4.830893677960654
496,SeLoger,1378.0,72.0,19.14,Appartement,"3 pièce - 2 chambre - s, s, 72 m², 7 étages",69004,Lyon,https://www.seloger.com/annonces/locations/appartement/lyon-4eme-69/croix-rousse-gros-caillou/258013929.htm?serp_view=list&search=distributionTypes%3DRent%26estateTypes%3DHouse%2CApartment%26locations%3DAD08FR28808%26page%3D4#ln=classified_search_results&m=classified_search_results_classified_classified_detail_M,45.778187679950705,4.833594069390776
497,SeLoger,1108.0,52.3,21.19,Appartement,"2 pièce - 1 chambre - s, , 52,3 m², RDC",69005,Lyon,https://www.seloger.com/annonces/locations/appartement/lyon-5eme-69/point-du-jour-menival/258219607.htm?serp_view=list&search=distributionTypes%3DRent%26estateTypes%3DHouse%2CApartment%26locations%3DAD08FR28808%26page%3D4#ln=classified_search_results&m=classified_search_results_classified_classified_detail_M,45.75227356382597,4.792812745751164
498,SeLoger,1300.0,87.6,14.84,Appartement,"4 pièce - 3 chambre - s, s, 87,6 m², 1 étages",69000,Lyon,https://www.seloger.com/annonces/locations/appartement/francheville-69/francheville-le-bas-chater/258157715.htm?serp_view=list&search=distributionTypes%3DRent%26estateTypes%3DHouse%2CApartment%26locations%3DAD08FR28808%26page%3D4#ln=classified_search_results&m=classified_search_results_classified_classified_detail_XL,45.75122003457369,4.825106894668783
499,SeLoger,1346.0,63.7,21.13,Appartement,"3 pièce - 2 chambre - s, s, 63,7 m², étage",69002,Lyon,https://www.seloger.com/annonces/locations/appartement/lyon-2eme-69/perrache-le-confluent/258157711.htm?serp_view=list&search=distributionTypes%3DRent%26estateTypes%3DHouse%2CApartment%26locations%3DAD08FR28808%26page%3D4#ln=classified_search_results&m=classified_search_results_classified_classified_detail_M,45.75305707957775,4.82842357837142
500,SeLoger,1250.0,52.0,24.04,Appartement,"3 pièce - 2 chambre - s, s, 52 m², Étage 2/5",69002,Lyon,https://www.seloger.com/annonces/locations/appartement/lyon-2eme-69/bellecour-ainay/258223775.htm?serp_view=list&search=distributionTypes%3DRent%26estateTypes%3DHouse%2CApartment%26locations%3DAD08FR28808%26page%3D4#ln=classified_search_results&m=classified_search_results_classified_classified_detail_L,45.75238638241201,4.825757461640958
502,SeLoger,1460.0,47.0,31.06,Appartement,"2 pièce - 1 chambre - s, , 47 m², Étage 6/7",69003,Lyon,https://www.seloger.com/annonces/locations/appartement/lyon-3eme-69/part-dieu/257870197.htm?serp_view=list&search=distributionTypes%3DRent%26estateTypes%3DHouse%2CApartment%26locations%3DAD08FR28808%26page%3D4#ln=classified_search_results&m=classified_search_results_classified_classified_detail_L,45.76108973439755,4.869477635076642
505,SeLoger,738.0,58.3,12.66,Appartement,"2 pièce - 1 chambre - s, , 58,3 m², étage",69006,Lyon,https://www.seloger.com/258252837/detail.htm?serp_view=list&search=distributionTypes%3DRent%26estateTypes%3DHouse%2CApartment%26locations%3DAD08FR28808%26page%3D4#ln=classified_search_results&m=classified_search_results_classified_classified_detail_M,45.766847031557205,4.871661061868106
507,SeLoger,1490.0,83.0,17.95,Appartement,"4 pièce - 3 chambre - s, s, 83 m², étage",69003,Lyon,https://www.seloger.com/annonces/locations/appartement/lyon-3eme-69/villette/257651647.htm?serp_view=list&search=distributionTypes%3DRent%26estateTypes%3DHouse%2CApartment%26locations%3DAD08FR28808%26page%3D5#ln=classified_search_results&m=classified_search_results_classified_classified_detail_L,45.75670403422411,4.865454241370253
508,SeLoger,1990.0,53.0,37.55,Appartement,"2 pièce - 1 chambre - s, , 53 m², étage",69006,Lyon,https://www.seloger.com/annonces/locations/appartement/lyon-6eme-69/les-brotteaux-bellecombe-massena/257798625.htm?serp_view=list&search=distributionTypes%3DRent%26estateTypes%3DHouse%2CApartment%26locations%3DAD08FR28808%26page%3D5#ln=classified_search_results&m=classified_search_results_classified_classified_detail_M,45.76386109597304,4.868661222325398
509,SeLoger,896.0,64.5,13.89,Appartement,"3 pièce - 2 chambre - s, s, 64,5 m², Étage 4/5",69008,Lyon,https://www.seloger.com/annonces/locations/appartement/lyon-8eme-69/transvaal/258039451.htm?serp_view=list&search=distributionTypes%3DRent%26estateTypes%3DHouse%2CApartment%26locations%3DAD08FR28808%26page%3D5#ln=classified_search_results&m=classified_search_results_classified_classified_detail_L,45.7394069265316,4.864094490833153
510,SeLoger,550.0,18.0,30.56,Studio,"1 pièce - Studio , 18 m², Étage 3/5",69000,Lyon,https://www.seloger.com/257993059/detail.htm?serp_view=list&search=distributionTypes%3DRent%26estateTypes%3DHouse%2CApartment%26locations%3DAD08FR28808%26page%3D5#ln=classified_search_results&m=classified_search_results_classified_classified_detail_M,45.75071497028141,4.825957993864493
511,SeLoger,1290.0,67.1,19.23,Appartement,"3 pièce - 2 chambre - s, s, 67,1 m², Étage 2/6",69003,Lyon,https://www.seloger.com/annonces/locations/appartement/lyon-3eme-69/part-dieu/258076725.htm?serp_view=list&search=distributionTypes%3DRent%26estateTypes%3DHouse%2CApartment%26locations%3DAD08FR28808%26page%3D5#ln=classified_search_results&m=classified_search_results_classified_classified_detail_M,45.75625264671721,4.866446781743433
512,SeLoger,1171.0,46.0,25.46,Appartement,"1 pièce - 46 m², Étage 5/5, dès le 04/02/2026",69000,Lyon,https://www.seloger.com/annonces/locations/appartement/lyon-1er-69/saint-vincent/26QZ8EBSDW4F.htm?serp_view=list&search=distributionTypes%3DRent%26estateTypes%3DHouse%2CApartment%26locations%3DAD08FR28808%26page%3D5#ln=classified_search_results&m=classified_search_results_classified_classified_detail_M,45.74882458991776,4.825465304893559
513,SeLoger,650.0,25.9,25.1,Appartement,"1 pièce - 25,9 m², Étage 6/9",69000,Lyon,https://www.seloger.com/annonces/locations/appartement/lyon-6eme-69/les-brotteaux-bellecombe-massena/258223661.htm?serp_view=list&search=distributionTypes%3DRent%26estateTypes%3DHouse%2CApartment%26locations%3DAD08FR28808%26page%3D5#ln=classified_search_results&m=classified_search_results_classified_classified_detail_L,45.746450633661496,4.827043360041871
514,SeLoger,875.0,63.0,13.89,Appartement,"2 pièce - 1 chambre - s, , 63 m², étage",69007,Lyon,https://www.seloger.com/annonces/locations/appartement/lyon-7eme-69/jean-mace/257700733.htm?serp_view=list&search=distributionTypes%3DRent%26estateTypes%3DHouse%2CApartment%26locations%3DAD08FR28808%26page%3D5#ln=classified_search_results&m=classified_search_results_classified_classified_detail_M,45.74660760985819,4.840809489424509
516,SeLoger,1390.0,79.0,17.59,Appartement,"4 pièce - 3 chambre - s, s, 79 m², étage",69000,Lyon,https://www.seloger.com/annonces/locations/appartement/champagne-au-mont-d-or-69/contour/256387563.htm?serp_view=list&search=distributionTypes%3DRent%26estateTypes%3DHouse%2CApartment%26locations%3DAD08FR28808%26page%3D5#ln=classified_search_results&m=classified_search_results_classified_classified_detail_XL,45.74778561478118,4.82488549675481
517,SeLoger,2262.0,150.9,14.99,Appartement,"5 pièce - 4 chambre - s, s, 150,9 m², Étage 5/5",69003,Lyon,https://www.seloger.com/annonces/locations/appartement/lyon-3eme-69/la-guillotiere-nord/257890243.htm?serp_view=list&search=distributionTypes%3DRent%26estateTypes%3DHouse%2CApartment%26locations%3DAD08FR28808%26page%3D5#ln=classified_search_results&m=classified_search_results_classified_classified_detail_M,45.75952869759654,4.8673375154780825
519,SeLoger,1004.0,72.7,13.81,Appartement,"4 pièce - 3 chambre - s, s, 72,7 m², étage",69003,Lyon,https://www.seloger.com/annonces/locations/appartement/lyon-3eme-69/sans-souci-dauphine/257256601.htm?serp_view=list&search=distributionTypes%3DRent%26estateTypes%3DHouse%2CApartment%26locations%3DAD08FR28808%26page%3D5#ln=classified_search_results&m=classified_search_results_classified_classified_detail_M,45.75728498852528,4.866277197217608
521,SeLoger,700.0,43.0,16.28,Appartement,"1 pièce - 43 m², Étage 2/2, disponible dès maintenant",69008,Lyon,https://www.seloger.com/annonces/locations/appartement/lyon-8eme-69/le-grand-trou/258222863.htm?serp_view=list&search=distributionTypes%3DRent%26estateTypes%3DHouse%2CApartment%26locations%3DAD08FR28808%26page%3D5#ln=classified_search_results&m=classified_search_results_classified_classified_detail_L,45.739261234811764,4.865302210402852
522,SeLoger,1204.0,77.5,15.54,Appartement,"4 pièce - 3 chambre - Duplex s, s, 77,5 m², RDC",69009,Lyon,https://www.seloger.com/annonces/locations/appartement/lyon-9eme-69/saint-rambert/257773875.htm?serp_view=list&search=distributionTypes%3DRent%26estateTypes%3DHouse%2CApartment%26locations%3DAD08FR28808%26page%3D5#ln=classified_search_results&m=classified_search_results_classified_classified_detail_M,45.76531843849062,4.80479143920231
527,SeLoger,2580.0,146.7,17.59,Maison,"6 pièce - 5 chambre - Maison s, s, 146,7 m², 508 m² de terrain",69009,Lyon,https://www.seloger.com/annonces/locations/maison/lyon-9eme-69/gorge-du-loup-champvert/257008443.htm?serp_view=list&search=distributionTypes%3DRent%26estateTypes%3DHouse%2CApartment%26locations%3DAD08FR28808%26page%3D5#ln=classified_search_results&m=classified_search_results_classified_classified_detail_L,45.76465986304514,4.80469807717539
528,SeLoger,1069.0,67.0,15.96,Appartement,"3 pièce - 2 chambre - s, s, 67 m², Étage 4/7",69008,Lyon,https://www.seloger.com/annonces/locations/appartement/lyon-8eme-69/transvaal/258192509.htm?serp_view=list&search=distributionTypes%3DRent%26estateTypes%3DHouse%2CApartment%26locations%3DAD08FR28808%26page%3D5#ln=classified_search_results&m=classified_search_results_classified_classified_detail_L,45.741092028914814,4.864877665646025
529,SeLoger,892.0,40.0,22.3,Appartement,"2 pièce - 1 chambre - Duplex s, , 40 m²",69005,Lyon,https://www.seloger.com/annonces/locations/appartement/lyon-5eme-69/fourviere-saint-just/258166785.htm?serp_view=list&search=distributionTypes%3DRent%26estateTypes%3DHouse%2CApartment%26locations%3DAD08FR28808%26page%3D5#ln=classified_search_results&m=classified_search_results_classified_classified_detail_M,45.75436467198532,4.793362692565569
530,SeLoger,1190.0,78.0,15.26,Appartement,"4 pièce - 3 chambre - s, s, 78 m², étage",69000,Lyon,https://www.seloger.com/annonces/locations/appartement/champagne-au-mont-d-or-69/contour/256656035.htm?serp_view=list&search=distributionTypes%3DRent%26estateTypes%3DHouse%2CApartment%26locations%3DAD08FR28808%26page%3D5#ln=classified_search_results&m=classified_search_results_classified_classified_detail_XL,45.7478207124348,4.8250234637077565
531,SeLoger,1850.0,40.0,46.25,Appartement,"2 pièce - 1 chambre - s, , 40 m², dès le 01/02/2026",69001,Lyon,https://www.seloger.com/annonces/locations/appartement/lyon-1er-69/croix-paquet/257798607.htm?serp_view=list&search=distributionTypes%3DRent%26estateTypes%3DHouse%2CApartment%26locations%3DAD08FR28808%26page%3D5#ln=classified_search_results&m=classified_search_results_classified_classified_detail_M,45.75525383262107,4.837593993216503
532,SeLoger,1433.0,124.0,11.56,Appartement,"3 pièce - 2 chambre - s, s, 124 m², Étage 1/6",69000,Lyon,https://www.seloger.com/annonces/locations/appartement/lyon-2eme-69/bellecour-ainay/26SD8D691GDG.htm?serp_view=list&search=distributionTypes%3DRent%26estateTypes%3DHouse%2CApartment%26locations%3DAD08FR28808%26page%3D5#ln=classified_search_results&m=classified_search_results_classified_classified_detail_M,45.746377137881474,4.824635607744997
533,SeLoger,1044.0,55.8,18.71,Appartement,"2 pièce - 1 chambre - s, , 55,8 m², étage",69007,Lyon,https://www.seloger.com/annonces/locations/appartement/lyon-7eme-69/la-guillotiere-sud/258221911.htm?serp_view=list&search=distributionTypes%3DRent%26estateTypes%3DHouse%2CApartment%26locations%3DAD08FR28808%26page%3D5#ln=classified_search_results&m=classified_search_results_classified_classified_detail_L,45.7489924131464,4.84231423381787
535,SeLoger,2340.0,82.9,28.23,Appartement,"3 pièce - 2 chambre - s, s, 82,9 m², Étage 3/3",69006,Lyon,https://www.seloger.com/257374093/detail.htm?serp_view=list&search=distributionTypes%3DRent%26estateTypes%3DHouse%2CApartment%26locations%3DAD08FR28808%26page%3D5#ln=classified_search_results&m=classified_search_results_classified_classified_detail_M,45.76702181503587,4.868445411960555
536,SeLoger,565.0,47.0,12.02,Appartement,"3 pièce - 2 chambre - s, s, 47 m², étage",69008,Lyon,https://www.seloger.com/annonces/locations/appartement/lyon-8eme-69/laennec-mermoz/257292527.htm?serp_view=list&search=distributionTypes%3DRent%26estateTypes%3DHouse%2CApartment%26locations%3DAD08FR28808%26page%3D5#ln=classified_search_results&m=classified_search_results_classified_classified_detail_L,45.73750889747894,4.865355441050455
537,SeLoger,762.0,42.3,18.01,Appartement,"2 pièce - 1 chambre - s, , 42,3 m², étage",69008,Lyon,https://www.seloger.com/annonces/locations/appartement/lyon-8eme-69/monplaisir-le-bachut/257780539.htm?serp_view=list&search=distributionTypes%3DRent%26estateTypes%3DHouse%2CApartment%26locations%3DAD08FR28808%26page%3D5#ln=classified_search_results&m=classified_search_results_classified_classified_detail_L,45.737837946576605,4.86581411620645
538,SeLoger,1210.0,70.4,17.19,Appartement,"3 pièce - 2 chambre - s, s, 70,4 m², étage",69003,Lyon,https://www.seloger.com/annonces/locations/appartement/lyon-3eme-69/villette/256964003.htm?serp_view=list&search=distributionTypes%3DRent%26estateTypes%3DHouse%2CApartment%26locations%3DAD08FR28808%26page%3D5#ln=classified_search_results&m=classified_search_results_classified_classified_detail_L,45.7591175978803,4.869788384593859
539,SeLoger,1787.0,91.0,19.64,Appartement,"4 pièce - 3 chambre - s, s, 91 m², Étage 3/4",69002,Lyon,https://www.seloger.com/annonces/locations/appartement/lyon-2eme-69/cordeliers-celestins-bourse/257479333.htm?serp_view=list&search=distributionTypes%3DRent%26estateTypes%3DHouse%2CApartment%26locations%3DAD08FR28808%26page%3D6#ln=classified_search_results&m=classified_search_results_classified_classified_detail_M,45.749687725818795,4.8265584611036925
540,SeLoger,1300.0,76.0,17.11,Appartement,"3 pièce - 2 chambre - s, s, 76 m², Étage 2/7",69004,Lyon,https://www.seloger.com/annonces/locations/appartement/lyon-4eme-69/plateau-de-la-croix-rousse-saone/258257337.htm?serp_view=list&search=distributionTypes%3DRent%26estateTypes%3DHouse%2CApartment%26locations%3DAD08FR28808%26page%3D6#ln=classified_search_results&m=classified_search_results_classified_classified_detail_M,45.78126988268288,4.834937280906841
541,SeLoger,872.0,25.0,34.88,Appartement,"1 pièce - 25 m², RDC/4, disponible dès maintenant",69003,Lyon,https://www.seloger.com/annonces/locations/appartement/lyon-3eme-69/part-dieu/258257329.htm?serp_view=list&search=distributionTypes%3DRent%26estateTypes%3DHouse%2CApartment%26locations%3DAD08FR28808%26page%3D6#ln=classified_search_results&m=classified_search_results_classified_classified_detail_M,45.75742064249811,4.870611474922227
542,SeLoger,3320.0,118.0,28.14,Appartement,"3 pièce - 2 chambre - s, s, 118 m², étage",69002,Lyon,https://www.seloger.com/annonces/locations/appartement/lyon-2eme-69/bellecour-ainay/258257485.htm?serp_view=list&search=distributionTypes%3DRent%26estateTypes%3DHouse%2CApartment%26locations%3DAD08FR28808%26page%3D6#ln=classified_search_results&m=classified_search_results_classified_classified_detail_M,45.75406477414035,4.8264460448039035
543,SeLoger,1290.0,83.0,15.54,Appartement,"3 pièce - 2 chambre - s, s, 83 m², étage",69003,Lyon,https://www.seloger.com/annonces/locations/appartement/lyon-3eme-69/part-dieu/258222899.htm?serp_view=list&search=distributionTypes%3DRent%26estateTypes%3DHouse%2CApartment%26locations%3DAD08FR28808%26page%3D6#ln=classified_search_results&m=classified_search_results_classified_classified_detail_L,45.75716393896976,4.865203627556838
544,SeLoger,1372.0,125.0,10.98,Appartement,"4 pièce - 3 chambre - s, s, 125 m², étage",69003,Lyon,https://www.seloger.com/annonces/locations/appartement/lyon-3eme-69/montchat/258223007.htm?serp_view=list&search=distributionTypes%3DRent%26estateTypes%3DHouse%2CApartment%26locations%3DAD08FR28808%26page%3D6#ln=classified_search_results&m=classified_search_results_classified_classified_detail_L,45.7614109414224,4.868910470734425
545,SeLoger,660.0,23.0,28.7,Appartement,"1 pièce - 23 m², Étage 1/7",69000,Lyon,https://www.seloger.com/258193261/detail.htm?serp_view=list&search=distributionTypes%3DRent%26estateTypes%3DHouse%2CApartment%26locations%3DAD08FR28808%26page%3D6#ln=classified_search_results&m=classified_search_results_classified_classified_detail_M,45.749625441629675,4.824780351422464
547,SeLoger,927.0,53.5,17.33,Appartement,"2 pièce - 1 chambre - s, , 53,5 m², Étage 2/5",69006,Lyon,https://www.seloger.com/annonces/locations/appartement/lyon-6eme-69/les-brotteaux-bellecombe-massena/257941401.htm?serp_view=list&search=distributionTypes%3DRent%26estateTypes%3DHouse%2CApartment%26locations%3DAD08FR28808%26page%3D6#ln=classified_search_results&m=classified_search_results_classified_classified_detail_M,45.76659566721587,4.867031158984187
548,SeLoger,1300.0,60.0,21.67,Appartement,"2 pièce - 1 chambre - s, , 60 m², Étage 1/3",69000,Lyon,https://www.seloger.com/annonces/locations/appartement/ecully-69/le-perollier/255314869.htm?serp_view=list&search=distributionTypes%3DRent%26estateTypes%3DHouse%2CApartment%26locations%3DAD08FR28808%26page%3D6#ln=classified_search_results&m=classified_search_results_classified_classified_detail_XL,45.74887860282925,4.8264939956619095
549,SeLoger,869.0,52.8,16.46,Appartement,"2 pièce - 1 chambre - s, , 52,8 m², étage",69001,Lyon,https://www.seloger.com/annonces/locations/appartement/lyon-1er-69/terreaux/257935465.htm?serp_view=list&search=distributionTypes%3DRent%26estateTypes%3DHouse%2CApartment%26locations%3DAD08FR28808%26page%3D6#ln=classified_search_results&m=classified_search_results_classified_classified_detail_M,45.76081555336013,4.835762334295318
550,SeLoger,614.0,38.2,16.07,Appartement,"1 pièce - 38,2 m², Étage 2/3",69005,Lyon,https://www.seloger.com/annonces/locations/appartement/lyon-5eme-69/fourviere-saint-just/257910563.htm?serp_view=list&search=distributionTypes%3DRent%26estateTypes%3DHouse%2CApartment%26locations%3DAD08FR28808%26page%3D6#ln=classified_search_results&m=classified_search_results_classified_classified_detail_M,45.752666109433584,4.7932764091254425
551,SeLoger,1680.0,82.0,20.49,Appartement,"3 pièce - 2 chambre - s, s, 82 m², Étage 6/6",69000,Lyon,https://www.seloger.com/annonces/locations/appartement/lyon-3eme-69/la-guillotiere-nord/26V8X5KZQTFQ.htm?serp_view=list&search=distributionTypes%3DRent%26estateTypes%3DHouse%2CApartment%26locations%3DAD08FR28808%26page%3D6#ln=classified_search_results&m=classified_search_results_classified_classified_detail_M,45.748239092854654,4.826594467356562
552,SeLoger,2100.0,91.0,23.08,Appartement,"3 pièce - 2 chambre - s, s, 91 m², Étage 6/6",69001,Lyon,https://www.seloger.com/annonces/locations/appartement/lyon-1er-69/terreaux/257902663.htm?serp_view=list&search=distributionTypes%3DRent%26estateTypes%3DHouse%2CApartment%26locations%3DAD08FR28808%26page%3D6#ln=classified_search_results&m=classified_search_results_classified_classified_detail_M,45.755164632258335,4.836135473786188
553,SeLoger,731.0,35.2,20.77,Appartement,"1 pièce - 35,2 m², étage",69006,Lyon,https://www.seloger.com/annonces/locations/appartement/lyon-6eme-69/les-brotteaux-bellecombe-massena/257890241.htm?serp_view=list&search=distributionTypes%3DRent%26estateTypes%3DHouse%2CApartment%26locations%3DAD08FR28808%26page%3D6#ln=classified_search_results&m=classified_search_results_classified_classified_detail_M,45.76405644177077,4.8686708119604
554,SeLoger,1200.0,45.0,26.67,Appartement,"2 pièce - 1 chambre - s, , 45 m², Étage 4/4",69002,Lyon,https://www.seloger.com/annonces/locations/appartement/lyon-2eme-69/cordeliers-celestins-bourse/258007617.htm?serp_view=list&search=distributionTypes%3DRent%26estateTypes%3DHouse%2CApartment%26locations%3DAD08FR28808%26page%3D6#ln=classified_search_results&m=classified_search_results_classified_classified_detail_M,45.75403137065049,4.826163088885382
555,SeLoger,1150.0,64.0,17.97,Appartement,"3 pièce - 2 chambre - s, s, 64 m², RDC/4",69005,Lyon,https://www.seloger.com/annonces/locations/appartement/lyon-5eme-69/point-du-jour-menival/257995951.htm?serp_view=list&search=distributionTypes%3DRent%26estateTypes%3DHouse%2CApartment%26locations%3DAD08FR28808%26page%3D6#ln=classified_search_results&m=classified_search_results_classified_classified_detail_L,45.75492878154918,4.796014097230665
557,SeLoger,900.0,43.0,20.93,Appartement,"2 pièce - 1 chambre - s, , 43 m², RDC/5",69000,Lyon,https://www.seloger.com/annonces/locations/appartement/lyon-8eme-69/monplaisir-le-bachut/26I2622CXFW5.htm?serp_view=list&search=distributionTypes%3DRent%26estateTypes%3DHouse%2CApartment%26locations%3DAD08FR28808%26page%3D6#ln=classified_search_results&m=classified_search_results_classified_classified_detail_M,45.74641564743637,4.823397110173338
558,SeLoger,1425.0,86.0,16.57,Appartement,"4 pièce - 3 chambre - s, s, 86 m², étage",69003,Lyon,https://www.seloger.com/annonces/locations/appartement/lyon-3eme-69/villette/256696875.htm?serp_view=list&search=distributionTypes%3DRent%26estateTypes%3DHouse%2CApartment%26locations%3DAD08FR28808%26page%3D6#ln=classified_search_results&m=classified_search_results_classified_classified_detail_L,45.76118400918135,4.868677038641374
559,SeLoger,554.0,18.0,30.78,Appartement,"1 pièce - 18 m², Étage 2/8, dès le 07/02/2026",69004,Lyon,https://www.seloger.com/annonces/locations/appartement/lyon-3eme-69/sans-souci-dauphine/258257363.htm?serp_view=list&search=distributionTypes%3DRent%26estateTypes%3DHouse%2CApartment%26locations%3DAD08FR28808%26page%3D6#ln=classified_search_results&m=classified_search_results_classified_classified_detail_M,45.78110690550323,4.8343756858290865
560,SeLoger,1250.0,68.0,18.38,Appartement,"4 pièce - 2 chambre - s, s, 68 m², Étage 3/4",69003,Lyon,https://www.seloger.com/annonces/locations/appartement/lyon-3eme-69/villette/258257303.htm?serp_view=list&search=distributionTypes%3DRent%26estateTypes%3DHouse%2CApartment%26locations%3DAD08FR28808%26page%3D6#ln=classified_search_results&m=classified_search_results_classified_classified_detail_M,45.757540732798404,4.867521302352104
561,SeLoger,1800.0,83.0,21.69,Appartement,"4 pièce - 3 chambre - s, s, 83 m², Étage 1/6",69006,Lyon,https://www.seloger.com/257783515/detail.htm?serp_view=list&search=distributionTypes%3DRent%26estateTypes%3DHouse%2CApartment%26locations%3DAD08FR28808%26page%3D6#ln=classified_search_results&m=classified_search_results_classified_classified_detail_L,45.762181444309924,4.868242495241815
562,SeLoger,2840.0,215.0,13.21,Maison,"7 pièce - 5 chambre - Maison s, s, 215 m², 1 377 m² de terrain",69000,Lyon,https://www.seloger.com/annonces/locations/maison/francheville-69/francheville-le-haut-bruissin/250613097.htm?serp_view=list&search=distributionTypes%3DRent%26estateTypes%3DHouse%2CApartment%26locations%3DAD08FR28808%26page%3D6#ln=classified_search_results&m=classified_search_results_classified_classified_detail_XL,45.750442928370695,4.82377708717592
563,SeLoger,778.0,26.0,29.92,Appartement,"1 pièce - 26 m², étage, dès le 01/03/2026",69007,Lyon,https://www.seloger.com/annonces/locations/appartement/lyon-7eme-69/jean-mace/257356585.htm?serp_view=list&search=distributionTypes%3DRent%26estateTypes%3DHouse%2CApartment%26locations%3DAD08FR28808%26page%3D6#ln=classified_search_results&m=classified_search_results_classified_classified_detail_L,45.74866784292869,4.839154618062921
564,SeLoger,791.0,24.7,32.02,Appartement,"1 pièce - 24,7 m², Étage 4/7",69006,Lyon,https://www.seloger.com/annonces/locations/appartement/lyon-6eme-69/les-brotteaux-bellecombe-massena/257976707.htm?serp_view=list&search=distributionTypes%3DRent%26estateTypes%3DHouse%2CApartment%26locations%3DAD08FR28808%26page%3D6#ln=classified_search_results&m=classified_search_results_classified_classified_detail_M,45.76610897067591,4.86883484180736
565,SeLoger,1650.0,125.0,13.2,Appartement,"3 pièce - 2 chambre - s, s, 125 m², étage",69007,Lyon,https://www.seloger.com/annonces/locations/appartement/lyon-7eme-69/jean-mace/258052963.htm?serp_view=list&search=distributionTypes%3DRent%26estateTypes%3DHouse%2CApartment%26locations%3DAD08FR28808%26page%3D6#ln=classified_search_results&m=classified_search_results_classified_classified_detail_M,45.74639735508887,4.841631575248339
566,SeLoger,608.0,26.8,22.69,Appartement,"1 pièce - 26,8 m², Étage 2/2",69005,Lyon,https://www.seloger.com/annonces/locations/appartement/lyon-5eme-69/fourviere-saint-just/257584673.htm?serp_view=list&search=distributionTypes%3DRent%26estateTypes%3DHouse%2CApartment%26locations%3DAD08FR28808%26page%3D6#ln=classified_search_results&m=classified_search_results_classified_classified_detail_M,45.75412730894711,4.796082257671895
567,SeLoger,680.0,34.4,19.77,Appartement,"1 pièce - 34,4 m², étage",69002,Lyon,https://www.seloger.com/annonces/locations/appartement/lyon-2eme-69/cordeliers-celestins-bourse/258241185.htm?serp_view=list&search=distributionTypes%3DRent%26estateTypes%3DHouse%2CApartment%26locations%3DAD08FR28808%26page%3D6#ln=classified_search_results&m=classified_search_results_classified_classified_detail_L,45.754659087483056,4.829278480431376
568,SeLoger,845.0,28.0,30.18,Appartement,"1 pièce - 28 m², étage",69001,Lyon,https://www.seloger.com/annonces/locations/appartement/lyon-1er-69/terreaux/257733625.htm?serp_view=list&search=distributionTypes%3DRent%26estateTypes%3DHouse%2CApartment%26locations%3DAD08FR28808%26page%3D6#ln=classified_search_results&m=classified_search_results_classified_classified_detail_M,45.75811714748655,4.8376498442180935
569,SeLoger,875.0,40.0,21.88,Appartement,"2 pièce - 1 chambre - s, , 40 m², Étage 4/5",69006,Lyon,https://www.seloger.com/257946687/detail.htm?serp_view=list&search=distributionTypes%3DRent%26estateTypes%3DHouse%2CApartment%26locations%3DAD08FR28808%26page%3D6#ln=classified_search_results&m=classified_search_results_classified_classified_detail_M,45.762583392999744,4.8662687350825475
571,SeLoger,799.0,51.5,15.51,Appartement,"3 pièce - 2 chambre - s, s, 51,5 m², étage",69002,Lyon,https://www.seloger.com/258038129/detail.htm?serp_view=list&search=distributionTypes%3DRent%26estateTypes%3DHouse%2CApartment%26locations%3DAD08FR28808%26page%3D7#ln=classified_search_results&m=classified_search_results_classified_classified_detail_M,45.753824207400534,4.826740462603755
572,SeLoger,800.0,67.1,11.92,Appartement,"2 pièce - 1 chambre - s, , 67,1 m², étage",69002,Lyon,https://www.seloger.com/annonces/locations/appartement/lyon-2eme-69/cordeliers-celestins-bourse/258038131.htm?serp_view=list&search=distributionTypes%3DRent%26estateTypes%3DHouse%2CApartment%26locations%3DAD08FR28808%26page%3D7#ln=classified_search_results&m=classified_search_results_classified_classified_detail_M,45.75200341661873,4.831586415406819
573,SeLoger,1309.0,63.0,20.78,Appartement,"2 pièce - 1 chambre - s, , 63 m², Étage 4/5",69002,Lyon,https://www.seloger.com/annonces/locations/appartement/lyon-2eme-69/bellecour-ainay/257271729.htm?serp_view=list&search=distributionTypes%3DRent%26estateTypes%3DHouse%2CApartment%26locations%3DAD08FR28808%26page%3D7#ln=classified_search_results&m=classified_search_results_classified_classified_detail_M,45.75155242898074,4.827250838851415
574,SeLoger,945.0,56.0,16.88,Appartement,"3 pièce - 2 chambre - s, s, 56 m², RDC",69008,Lyon,https://www.seloger.com/annonces/locations/appartement/lyon-8eme-69/transvaal/256972221.htm?serp_view=list&search=distributionTypes%3DRent%26estateTypes%3DHouse%2CApartment%26locations%3DAD08FR28808%26page%3D7#ln=classified_search_results&m=classified_search_results_classified_classified_detail_L,45.74066344830325,4.860839336739773
575,SeLoger,1053.0,28.4,37.08,Appartement,"1 pièce - 28,4 m², Étage 5/6",69006,Lyon,https://www.seloger.com/annonces/locations/appartement/lyon-6eme-69/les-brotteaux-bellecombe-massena/258166475.htm?serp_view=list&search=distributionTypes%3DRent%26estateTypes%3DHouse%2CApartment%26locations%3DAD08FR28808%26page%3D7#ln=classified_search_results&m=classified_search_results_classified_classified_detail_L,45.76623477155881,4.868657574195935
576,SeLoger,1130.0,72.0,15.69,Appartement,"2 pièce - 1 chambre - s, , 72 m², Étage - 2/4",69000,Lyon,https://www.seloger.com/annonces/locations/appartement/lyon-5eme-69/champvert-point-du-jour-saint-irenee/26EPID41EK3T.htm?serp_view=list&search=distributionTypes%3DRent%26estateTypes%3DHouse%2CApartment%26locations%3DAD08FR28808%26page%3D7#ln=classified_search_results&m=classified_search_results_classified_classified_detail_M,45.74986252927869,4.823424621934882
577,SeLoger,1298.0,90.0,14.42,Appartement,"3 pièce - 2 chambre - s, s, 90 m², étage",69002,Lyon,https://www.seloger.com/annonces/locations/appartement/lyon-2eme-69/cordeliers-celestins-bourse/257649321.htm?serp_view=list&search=distributionTypes%3DRent%26estateTypes%3DHouse%2CApartment%26locations%3DAD08FR28808%26page%3D7#ln=classified_search_results&m=classified_search_results_classified_classified_detail_M,45.75359966652808,4.82851930238086
579,SeLoger,817.0,42.0,19.45,Appartement,"2 pièce - 1 chambre - s, , 42 m², RDC",69008,Lyon,https://www.seloger.com/annonces/locations/appartement/lyon-8eme-69/le-grand-trou/258261157.htm?serp_view=list&search=distributionTypes%3DRent%26estateTypes%3DHouse%2CApartment%26locations%3DAD08FR28808%26page%3D7#ln=classified_search_results&m=classified_search_results_classified_classified_detail_M,45.739491619978935,4.8605813645832825
580,SeLoger,1905.0,96.2,19.8,Appartement,"4 pièce - 3 chambre - Duplex s, s, 96,2 m², Étage 2/2",69000,Lyon,https://www.seloger.com/annonces/locations/appartement/tassin-la-demi-lune-69/centre-ville/257923363.htm?serp_view=list&search=distributionTypes%3DRent%26estateTypes%3DHouse%2CApartment%26locations%3DAD08FR28808%26page%3D7#ln=classified_search_results&m=classified_search_results_classified_classified_detail_XL,45.747952878203364,4.823904077767457
581,SeLoger,2550.0,190.0,13.42,Appartement,"4 pièce - 3 chambre - s, s, 190 m², étage",69001,Lyon,https://www.seloger.com/annonces/locations/appartement/lyon-1er-69/saint-vincent/258257297.htm?serp_view=list&search=distributionTypes%3DRent%26estateTypes%3DHouse%2CApartment%26locations%3DAD08FR28808%26page%3D7#ln=classified_search_results&m=classified_search_results_classified_classified_detail_M,45.75617221301162,4.833616513418857
582,SeLoger,760.0,35.0,21.71,Appartement,"1 pièce - 35 m², Étage 4/8, disponible dès maintenant",69007,Lyon,https://www.seloger.com/annonces/locations/appartement/lyon-7eme-69/258224139.htm?serp_view=list&search=distributionTypes%3DRent%26estateTypes%3DHouse%2CApartment%26locations%3DAD08FR28808%26page%3D7#ln=classified_search_results&m=classified_search_results_classified_classified_detail_L,45.749926433235196,4.837094106211813
583,SeLoger,2100.0,124.5,16.87,Appartement,"4 pièce - 3 chambre - s, s, 124,5 m², Étage 2/2",69006,Lyon,https://www.seloger.com/annonces/locations/appartement/lyon-6eme-69/les-brotteaux-bellecombe-massena/257856515.htm?serp_view=list&search=distributionTypes%3DRent%26estateTypes%3DHouse%2CApartment%26locations%3DAD08FR28808%26page%3D7#ln=classified_search_results&m=classified_search_results_classified_classified_detail_M,45.765350982414795,4.869892103315665
585,SeLoger,1350.0,35.0,38.57,Appartement,"1 pièce - 35 m², RDC/6, dès le 15/01/2026",69000,Lyon,https://www.seloger.com/26pzryaar4xk/detail.htm?serp_view=list&search=distributionTypes%3DRent%26estateTypes%3DHouse%2CApartment%26locations%3DAD08FR28808%26page%3D7#ln=classified_search_results&m=classified_search_results_classified_classified_detail_M,45.74856658751564,4.82581746851236
586,SeLoger,930.0,54.0,17.22,Appartement,"3 pièce - 2 chambre - s, s, 54 m², étage",69007,Lyon,https://www.seloger.com/258011075/detail.htm?serp_view=list&search=distributionTypes%3DRent%26estateTypes%3DHouse%2CApartment%26locations%3DAD08FR28808%26page%3D7#ln=classified_search_results&m=classified_search_results_classified_classified_detail_M,45.750126899895655,4.839620310946285
587,SeLoger,998.0,80.0,12.47,Appartement,"3 pièce - 2 chambre - s, s, 80 m², Étage 5/6",69008,Lyon,https://www.seloger.com/annonces/locations/appartement/lyon-3eme-69/sans-souci-dauphine/257501183.htm?serp_view=list&search=distributionTypes%3DRent%26estateTypes%3DHouse%2CApartment%26locations%3DAD08FR28808%26page%3D7#ln=classified_search_results&m=classified_search_results_classified_classified_detail_L,45.73826874111253,4.860213908958646
589,SeLoger,1460.0,64.0,22.81,Appartement,"4 pièce - 3 chambre - s, s, 64 m², étage",69008,Lyon,https://www.seloger.com/annonces/locations/appartement/lyon-8eme-69/laennec-mermoz/257706813.htm?serp_view=list&search=distributionTypes%3DRent%26estateTypes%3DHouse%2CApartment%26locations%3DAD08FR28808%26page%3D7#ln=classified_search_results&m=classified_search_results_classified_classified_detail_L,45.74086700902142,4.863500000396776
590,SeLoger,775.0,17.0,45.59,Appartement,"1 pièce - 17 m², étage",69007,Lyon,https://www.seloger.com/annonces/locations/appartement/lyon-7eme-69/la-guillotiere-sud/257252695.htm?serp_view=list&search=distributionTypes%3DRent%26estateTypes%3DHouse%2CApartment%26locations%3DAD08FR28808%26page%3D7#ln=classified_search_results&m=classified_search_results_classified_classified_detail_M,45.744735928504696,4.840936440771802
591,SeLoger,540.0,18.0,30.0,Studio,"1 pièce - Studio , 18 m², étage",69007,Lyon,https://www.seloger.com/annonces/locations/appartement/lyon-7eme-69/la-guillotiere-sud/256779943.htm?serp_view=list&search=distributionTypes%3DRent%26estateTypes%3DHouse%2CApartment%26locations%3DAD08FR28808%26page%3D7#ln=classified_search_results&m=classified_search_results_classified_classified_detail_L,45.74478245188921,4.839847447110321
592,SeLoger,1090.0,60.0,18.17,Appartement,"3 pièce - 2 chambre - s, s, 60 m², Étage 1/4",69005,Lyon,https://www.seloger.com/annonces/locations/appartement/lyon-5eme-69/vieux-lyon/258257381.htm?serp_view=list&search=distributionTypes%3DRent%26estateTypes%3DHouse%2CApartment%26locations%3DAD08FR28808%26page%3D7#ln=classified_search_results&m=classified_search_results_classified_classified_detail_M,45.750447495406675,4.7941967271591475
593,SeLoger,950.0,71.0,13.38,Appartement,"2 pièce - 1 chambre - s, , 71 m², étage",69003,Lyon,https://www.seloger.com/annonces/locations/appartement/lyon-3eme-69/villette/258257305.htm?serp_view=list&search=distributionTypes%3DRent%26estateTypes%3DHouse%2CApartment%26locations%3DAD08FR28808%26page%3D7#ln=classified_search_results&m=classified_search_results_classified_classified_detail_M,45.75711794908803,4.870436014208144
594,SeLoger,1300.0,87.6,14.84,Appartement,"4 pièce - 3 chambre - s, s, 87,6 m², 1 étages",69000,Lyon,https://www.seloger.com/annonces/locations/appartement/francheville-69/francheville-le-bas-chater/258157715.htm?serp_view=list&search=distributionTypes%3DRent%26estateTypes%3DHouse%2CApartment%26locations%3DAD08FR28808%26page%3D7#ln=classified_search_results&m=classified_search_results_classified_classified_detail_XL,45.74667346686988,4.825710031219877
595,SeLoger,940.0,74.0,12.7,Appartement,"4 pièce - 2 chambre - s, s, 74 m², étage",69007,Lyon,https://www.seloger.com/annonces/locations/appartement/lyon-8eme-69/le-grand-trou/258257413.htm?serp_view=list&search=distributionTypes%3DRent%26estateTypes%3DHouse%2CApartment%26locations%3DAD08FR28808%26page%3D7#ln=classified_search_results&m=classified_search_results_classified_classified_detail_M,45.74804355503671,4.8417705454412685
596,SeLoger,1039.0,62.0,16.76,Appartement,"3 pièce - 2 chambre - s, s, 62 m², Étage 2/3",69008,Lyon,https://www.seloger.com/annonces/locations/appartement/lyon-8eme-69/le-grand-trou/258257345.htm?serp_view=list&search=distributionTypes%3DRent%26estateTypes%3DHouse%2CApartment%26locations%3DAD08FR28808%26page%3D7#ln=classified_search_results&m=classified_search_results_classified_classified_detail_M,45.74253397735616,4.8624966255235424
597,SeLoger,823.0,30.0,27.43,Studio,"1 pièce - Studio , 30 m², étage, dès le 18/01/2026",69000,Lyon,https://www.seloger.com/258224603/detail.htm?serp_view=list&search=distributionTypes%3DRent%26estateTypes%3DHouse%2CApartment%26locations%3DAD08FR28808%26page%3D7#ln=classified_search_results&m=classified_search_results_classified_classified_detail_L,45.749020209842726,4.827301920094029
598,SeLoger,1390.0,79.0,17.59,Appartement,"4 pièce - 3 chambre - s, s, 79 m², Étage 6/6",69008,Lyon,https://www.seloger.com/annonces/locations/appartement/lyon-8eme-69/transvaal/257707749.htm?serp_view=list&search=distributionTypes%3DRent%26estateTypes%3DHouse%2CApartment%26locations%3DAD08FR28808%26page%3D7#ln=classified_search_results&m=classified_search_results_classified_classified_detail_M,45.7420212388191,4.861797927187313
599,SeLoger,405.0,10.5,38.57,Appartement,"1 pièce - 10,5 m², Étage 9/9",69006,Lyon,https://www.seloger.com/annonces/locations/appartement/lyon-6eme-69/les-brotteaux-bellecombe-massena/257868015.htm?serp_view=list&search=distributionTypes%3DRent%26estateTypes%3DHouse%2CApartment%26locations%3DAD08FR28808%26page%3D7#ln=classified_search_results&m=classified_search_results_classified_classified_detail_M,45.76469646280832,4.870766956176996
600,SeLoger,1690.0,71.0,23.8,Appartement,"3 pièce - 2 chambre - s, s, 71 m², étage",69006,Lyon,https://www.seloger.com/257475991/detail.htm?serp_view=list&search=distributionTypes%3DRent%26estateTypes%3DHouse%2CApartment%26locations%3DAD08FR28808%26page%3D7#ln=classified_search_results&m=classified_search_results_classified_classified_detail_M,45.76592036613012,4.868773231979992
601,SeLoger,926.0,42.9,21.59,Appartement,"2 pièce - 1 chambre - s, , 42,9 m², RDC/3",69009,Lyon,https://www.seloger.com/258035441/detail.htm?serp_view=list&search=distributionTypes%3DRent%26estateTypes%3DHouse%2CApartment%26locations%3DAD08FR28808%26page%3D7#ln=classified_search_results&m=classified_search_results_classified_classified_detail_L,45.76686363722974,4.802129876246665
602,SeLoger,812.0,30.0,27.07,Appartement,"1 pièce - 30 m², Étage 6/6, dès le 01/02/2026",69000,Lyon,https://www.seloger.com/annonces/locations/appartement/lyon-1er-69/terreaux/26DRRZ4CM6K6.htm?serp_view=list&search=distributionTypes%3DRent%26estateTypes%3DHouse%2CApartment%26locations%3DAD08FR28808%26page%3D7#ln=classified_search_results&m=classified_search_results_classified_classified_detail_M,45.75067087992496,4.824438671630062
603,SeLoger,915.0,54.0,16.94,Appartement,"2 pièce - 1 chambre - s, , 54 m², Étage 6/7",69007,Lyon,https://www.seloger.com/annonces/locations/appartement/lyon-7eme-69/la-guillotiere-sud/257612791.htm?serp_view=list&search=distributionTypes%3DRent%26estateTypes%3DHouse%2CApartment%26locations%3DAD08FR28808%26page%3D8#ln=classified_search_results&m=classified_search_results_classified_classified_detail_M,45.7454765229112,4.83828813441693
604,SeLoger,776.0,52.0,14.92,Appartement,"1 pièce - 52 m², étage",69007,Lyon,https://www.seloger.com/annonces/locations/appartement/lyon-7eme-69/la-guillotiere-sud/258168723.htm?serp_view=list&search=distributionTypes%3DRent%26estateTypes%3DHouse%2CApartment%26locations%3DAD08FR28808%26page%3D8#ln=classified_search_results&m=classified_search_results_classified_classified_detail_M,45.7479817847059,4.8418818174882565
605,SeLoger,995.0,57.4,17.33,Appartement,"3 pièce - 2 chambre - s, s, 57,4 m², étage",69007,Lyon,https://www.seloger.com/annonces/locations/appartement/lyon-7eme-69/jean-mace/258153187.htm?serp_view=list&search=distributionTypes%3DRent%26estateTypes%3DHouse%2CApartment%26locations%3DAD08FR28808%26page%3D8#ln=classified_search_results&m=classified_search_results_classified_classified_detail_M,45.74966373238318,4.840175169356443
606,SeLoger,950.0,39.0,24.36,Appartement,"2 pièce - 1 chambre - s, , 39 m², étage",69005,Lyon,https://www.seloger.com/annonces/locations/appartement/lyon-5eme-69/vieux-lyon/258143813.htm?serp_view=list&search=distributionTypes%3DRent%26estateTypes%3DHouse%2CApartment%26locations%3DAD08FR28808%26page%3D8#ln=classified_search_results&m=classified_search_results_classified_classified_detail_M,45.75250058769181,4.7976116587044135
607,SeLoger,990.0,88.0,11.25,Appartement,"3 pièce - 2 chambre - s, s, 88 m², étage",69003,Lyon,https://www.seloger.com/annonces/locations/appartement/lyon-3eme-69/la-guillotiere-nord/258261137.htm?serp_view=list&search=distributionTypes%3DRent%26estateTypes%3DHouse%2CApartment%26locations%3DAD08FR28808%26page%3D8#ln=classified_search_results&m=classified_search_results_classified_classified_detail_M,45.7587130829942,4.867466610062016
608,SeLoger,1329.0,69.0,19.26,Appartement,"3 pièce - 2 chambre - s, s, 69 m², Étage 3/4",69009,Lyon,https://www.seloger.com/annonces/locations/appartement/lyon-9eme-69/gorge-du-loup-champvert/258257391.htm?serp_view=list&search=distributionTypes%3DRent%26estateTypes%3DHouse%2CApartment%26locations%3DAD08FR28808%26page%3D8#ln=classified_search_results&m=classified_search_results_classified_classified_detail_M,45.76924013702921,4.801297518584776
609,SeLoger,946.0,40.6,23.3,Appartement,"2 pièce - 1 chambre - s, , 40,6 m², étage",69007,Lyon,https://www.seloger.com/258250861/detail.htm?serp_view=list&search=distributionTypes%3DRent%26estateTypes%3DHouse%2CApartment%26locations%3DAD08FR28808%26page%3D8#ln=classified_search_results&m=classified_search_results_classified_classified_detail_M,45.746522478171364,4.836826623257182
612,SeLoger,660.0,19.9,33.17,Appartement,"1 pièce - 19,9 m², Étage 1/5, dès le 16/01/2026",69000,Lyon,https://www.seloger.com/annonces/locations/appartement/villeurbanne-69/perraliere/257827045.htm?serp_view=list&search=distributionTypes%3DRent%26estateTypes%3DHouse%2CApartment%26locations%3DAD08FR28808%26page%3D8#ln=classified_search_results&m=classified_search_results_classified_classified_detail_XL,45.75168512313391,4.828338978346208
613,SeLoger,1800.0,95.0,18.95,Appartement,"2 pièce - 1 chambre - s, , 95 m², Étage 6/6",69000,Lyon,https://www.seloger.com/annonces/locations/appartement/lyon-2eme-69/bellecour-ainay/26DJGPLI29G5.htm?serp_view=list&search=distributionTypes%3DRent%26estateTypes%3DHouse%2CApartment%26locations%3DAD08FR28808%26page%3D8#ln=classified_search_results&m=classified_search_results_classified_classified_detail_M,45.74781795636002,4.827877158865086
614,SeLoger,1515.0,97.9,15.47,Appartement,"3 pièce - 2 chambre - s, s, 97,9 m², Étage 4/6",69002,Lyon,https://www.seloger.com/annonces/locations/appartement/lyon-2eme-69/cordeliers-celestins-bourse/257780737.htm?serp_view=list&search=distributionTypes%3DRent%26estateTypes%3DHouse%2CApartment%26locations%3DAD08FR28808%26page%3D8#ln=classified_search_results&m=classified_search_results_classified_classified_detail_M,45.75446735790125,4.825893234568215
615,SeLoger,1024.0,52.4,19.54,Appartement,"2 pièce - 1 chambre - s, , 52,4 m², étage",69004,Lyon,https://www.seloger.com/annonces/locations/appartement/lyon-4eme-69/croix-rousse-gros-caillou/257759499.htm?serp_view=list&search=distributionTypes%3DRent%26estateTypes%3DHouse%2CApartment%26locations%3DAD08FR28808%26page%3D8#ln=classified_search_results&m=classified_search_results_classified_classified_detail_M,45.78301566479032,4.834161842912178
616,SeLoger,895.0,53.0,16.89,Appartement,"1 pièce - 53 m², RDC",69008,Lyon,https://www.seloger.com/annonces/locations/appartement/lyon-8eme-69/transvaal/256224431.htm?serp_view=list&search=distributionTypes%3DRent%26estateTypes%3DHouse%2CApartment%26locations%3DAD08FR28808%26page%3D8#ln=classified_search_results&m=classified_search_results_classified_classified_detail_L,45.739798934423014,4.862833505344641
617,SeLoger,1350.0,80.8,16.71,Appartement,"4 pièce - 2 chambre - s, s, 80,8 m², Étage 11/13",69009,Lyon,https://www.seloger.com/annonces/locations/appartement/lyon-9eme-69/vaise-rochecardon-industrie/255319559.htm?serp_view=list&search=distributionTypes%3DRent%26estateTypes%3DHouse%2CApartment%26locations%3DAD08FR28808%26page%3D8#ln=classified_search_results&m=classified_search_results_classified_classified_detail_L,45.768445257944116,4.80094435975319
618,SeLoger,1600.0,48.0,33.33,Appartement,"2 pièce - 1 chambre - s, , 48 m², étage",69003,Lyon,https://www.seloger.com/annonces/locations/appartement/lyon-3eme-69/montchat/207050517.htm?serp_view=list&search=distributionTypes%3DRent%26estateTypes%3DHouse%2CApartment%26locations%3DAD08FR28808%26page%3D8#ln=classified_search_results&m=classified_search_results_classified_classified_detail_L,45.75904607840226,4.86681590230923
619,SeLoger,892.0,47.0,18.98,Appartement,"2 pièce - 1 chambre - s, , 47 m², étage",69007,Lyon,https://www.seloger.com/annonces/locations/appartement/lyon-7eme-69/jean-mace/257875797.htm?serp_view=list&search=distributionTypes%3DRent%26estateTypes%3DHouse%2CApartment%26locations%3DAD08FR28808%26page%3D8#ln=classified_search_results&m=classified_search_results_classified_classified_detail_M,45.746690464257846,4.8406220749421145
620,SeLoger,1196.0,83.2,14.38,Appartement,"3 pièce - s, 83,2 m², étage",69002,Lyon,https://www.seloger.com/annonces/locations/appartement/lyon-2eme-69/cordeliers-celestins-bourse/257947211.htm?serp_view=list&search=distributionTypes%3DRent%26estateTypes%3DHouse%2CApartment%26locations%3DAD08FR28808%26page%3D8#ln=classified_search_results&m=classified_search_results_classified_classified_detail_M,45.75269157833751,4.828347576656029
621,SeLoger,950.0,45.0,21.11,Appartement,"1 pièce - 1 chambre - 45 m², RDC/8",69004,Lyon,https://www.seloger.com/annonces/locations/appartement/lyon-4eme-69/plateau-de-la-croix-rousse-saone/257874339.htm?serp_view=list&search=distributionTypes%3DRent%26estateTypes%3DHouse%2CApartment%26locations%3DAD08FR28808%26page%3D8#ln=classified_search_results&m=classified_search_results_classified_classified_detail_M,45.7788094002052,4.834570518900775
622,SeLoger,1250.0,52.0,24.04,Appartement,"4 pièce - 2 chambre - s, s, 52 m², RDC",69007,Lyon,https://www.seloger.com/annonces/locations/appartement/lyon-7eme-69/jean-mace/257870555.htm?serp_view=list&search=distributionTypes%3DRent%26estateTypes%3DHouse%2CApartment%26locations%3DAD08FR28808%26page%3D8#ln=classified_search_results&m=classified_search_results_classified_classified_detail_M,45.74646013387329,4.836680351174071
623,SeLoger,950.0,47.1,20.17,Appartement,"2 pièce - 1 chambre - s, , 47,1 m², RDC",69007,Lyon,https://www.seloger.com/258011349/detail.htm?serp_view=list&search=distributionTypes%3DRent%26estateTypes%3DHouse%2CApartment%26locations%3DAD08FR28808%26page%3D8#ln=classified_search_results&m=classified_search_results_classified_classified_detail_M,45.74529668013749,4.837694529740372
624,SeLoger,1190.0,97.0,12.27,Appartement,"3 pièce - 2 chambre - s, s, 97 m², RDC",69008,Lyon,https://www.seloger.com/annonces/locations/appartement/lyon-8eme-69/transvaal/257986981.htm?serp_view=list&search=distributionTypes%3DRent%26estateTypes%3DHouse%2CApartment%26locations%3DAD08FR28808%26page%3D8#ln=classified_search_results&m=classified_search_results_classified_classified_detail_M,45.73955492608315,4.860825480947074
625,SeLoger,1793.0,89.0,20.15,Appartement,"3 pièce - 2 chambre - s, s, 89 m², Étage 3/8",69006,Lyon,https://www.seloger.com/annonces/locations/appartement/lyon-6eme-69/les-brotteaux-bellecombe-massena/257709383.htm?serp_view=list&search=distributionTypes%3DRent%26estateTypes%3DHouse%2CApartment%26locations%3DAD08FR28808%26page%3D8#ln=classified_search_results&m=classified_search_results_classified_classified_detail_M,45.76712882012724,4.870906953538755
626,SeLoger,1390.0,79.0,17.59,Appartement,"4 pièce - 3 chambre - s, s, 79 m², étage",69000,Lyon,https://www.seloger.com/annonces/locations/appartement/champagne-au-mont-d-or-69/contour/256387563.htm?serp_view=list&search=distributionTypes%3DRent%26estateTypes%3DHouse%2CApartment%26locations%3DAD08FR28808%26page%3D8#ln=classified_search_results&m=classified_search_results_classified_classified_detail_XL,45.75025934339086,4.824656347277788
627,SeLoger,1470.0,89.0,16.52,Appartement,"4 pièce - 2 chambre - s, s, 89 m², Étage 4/4",69000,Lyon,https://www.seloger.com/annonces/locations/appartement/lyon-3eme-69/part-dieu/261BYZNM6QYE.htm?serp_view=list&search=distributionTypes%3DRent%26estateTypes%3DHouse%2CApartment%26locations%3DAD08FR28808%26page%3D8#ln=classified_search_results&m=classified_search_results_classified_classified_detail_M,45.749913497875035,4.8247814000652465
628,SeLoger,1488.0,73.0,20.38,Appartement,"3 pièce - 1 chambre - s, , 73 m², Étage 2/3",69000,Lyon,https://www.seloger.com/annonces/locations/appartement/lyon-3eme-69/villette/265XHFLIPJNN.htm?serp_view=list&search=distributionTypes%3DRent%26estateTypes%3DHouse%2CApartment%26locations%3DAD08FR28808%26page%3D8#ln=classified_search_results&m=classified_search_results_classified_classified_detail_M,45.74632429575468,4.828769217050821
631,SeLoger,990.0,46.0,21.52,Appartement,"2 pièce - 1 chambre - s, , 46 m², étage",69009,Lyon,https://www.seloger.com/annonces/locations/appartement/lyon-9eme-69/gorge-du-loup-champvert/257676987.htm?serp_view=list&search=distributionTypes%3DRent%26estateTypes%3DHouse%2CApartment%26locations%3DAD08FR28808%26page%3D8#ln=classified_search_results&m=classified_search_results_classified_classified_detail_L,45.76825287364012,4.803741111667302
632,SeLoger,710.0,23.0,30.87,Appartement,"2 pièce - 1 chambre - s, , 23 m², Étage 3/4",69008,Lyon,https://www.seloger.com/annonces/locations/appartement/lyon-8eme-69/le-grand-trou/257055601.htm?serp_view=list&search=distributionTypes%3DRent%26estateTypes%3DHouse%2CApartment%26locations%3DAD08FR28808%26page%3D8#ln=classified_search_results&m=classified_search_results_classified_classified_detail_L,45.742318354869695,4.8653507127751565
633,SeLoger,2500.0,98.0,25.51,Appartement,"3 pièce - 2 chambre - s, s, 98 m², Étage 4/5",69000,Lyon,https://www.seloger.com/annonces/locations/appartement/lyon-1er-69/croix-paquet/256DAAZUCVYM.htm?serp_view=list&search=distributionTypes%3DRent%26estateTypes%3DHouse%2CApartment%26locations%3DAD08FR28808%26page%3D8#ln=classified_search_results&m=classified_search_results_classified_classified_detail_M,45.75168274483415,4.825973673136543
635,SeLoger,1890.0,55.0,34.36,Appartement,"3 pièce - 2 chambre - s, s, 55 m², dès le 15/02/2026",69008,Lyon,https://www.seloger.com/annonces/locations/appartement/lyon-8eme-69/transvaal/258258799.htm?serp_view=list&search=distributionTypes%3DRent%26estateTypes%3DHouse%2CApartment%26locations%3DAD08FR28808%26page%3D9#ln=classified_search_results&m=classified_search_results_classified_classified_detail_M,45.74143178663047,4.865078453302347
636,SeLoger,661.0,35.5,18.62,Appartement,"2 pièce - 1 chambre - s, , 35,5 m², étage",69006,Lyon,https://www.seloger.com/annonces/locations/appartement/lyon-6eme-69/les-brotteaux-bellecombe-massena/258254773.htm?serp_view=list&search=distributionTypes%3DRent%26estateTypes%3DHouse%2CApartment%26locations%3DAD08FR28808%26page%3D9#ln=classified_search_results&m=classified_search_results_classified_classified_detail_M,45.76294545309909,4.869188190507303
637,SeLoger,625.0,18.0,34.72,Studio,"1 pièce - Studio , 18 m², étage, disponible dès maintenant",69004,Lyon,https://www.seloger.com/annonces/locations/appartement/lyon-4eme-69/croix-rousse-gros-caillou/258235321.htm?serp_view=list&search=distributionTypes%3DRent%26estateTypes%3DHouse%2CApartment%26locations%3DAD08FR28808%26page%3D9#ln=classified_search_results&m=classified_search_results_classified_classified_detail_M,45.78155533027313,4.833538253770523
638,SeLoger,1700.0,91.0,18.68,Appartement,"3 pièce - 2 chambre - s, s, 91 m², Étage 2/5",69007,Lyon,https://www.seloger.com/annonces/locations/appartement/lyon-7eme-69/jean-mace/258193365.htm?serp_view=list&search=distributionTypes%3DRent%26estateTypes%3DHouse%2CApartment%26locations%3DAD08FR28808%26page%3D9#ln=classified_search_results&m=classified_search_results_classified_classified_detail_M,45.74952583032625,4.837981750289786
639,SeLoger,790.0,42.0,18.81,Appartement,"2 pièce - 1 chambre - s, , 42 m², étage",69007,Lyon,https://www.seloger.com/annonces/locations/appartement/lyon-7eme-69/jean-mace/258192593.htm?serp_view=list&search=distributionTypes%3DRent%26estateTypes%3DHouse%2CApartment%26locations%3DAD08FR28808%26page%3D9#ln=classified_search_results&m=classified_search_results_classified_classified_detail_L,45.74454086926731,4.839990211737705
640,SeLoger,1050.0,57.0,18.42,Appartement,"3 pièce - 2 chambre - s, s, 57 m², Étage 5/5",69000,Lyon,https://www.seloger.com/263ny4sfncaf/detail.htm?serp_view=list&search=distributionTypes%3DRent%26estateTypes%3DHouse%2CApartment%26locations%3DAD08FR28808%26page%3D9#ln=classified_search_results&m=classified_search_results_classified_classified_detail_M,45.751417795141805,4.823157871880205
641,SeLoger,1490.0,110.3,13.51,Appartement,"4 pièce - 3 chambre - s, s, 110,3 m², Étage 5/5",69004,Lyon,https://www.seloger.com/annonces/locations/appartement/lyon-4eme-69/croix-rousse-centre/258170497.htm?serp_view=list&search=distributionTypes%3DRent%26estateTypes%3DHouse%2CApartment%26locations%3DAD08FR28808%26page%3D9#ln=classified_search_results&m=classified_search_results_classified_classified_detail_M,45.77743785364971,4.8345622481556365
642,SeLoger,1150.0,73.0,15.75,Appartement,"3 pièce - 2 chambre - s, s, 73 m², RDC",69005,Lyon,https://www.seloger.com/annonces/locations/appartement/lyon-5eme-69/point-du-jour-menival/256388745.htm?serp_view=list&search=distributionTypes%3DRent%26estateTypes%3DHouse%2CApartment%26locations%3DAD08FR28808%26page%3D9#ln=classified_search_results&m=classified_search_results_classified_classified_detail_L,45.75250708005145,4.798493917267358
643,SeLoger,615.0,20.0,30.75,Appartement,"1 pièce - 20 m², Étage 1/4",69003,Lyon,https://www.seloger.com/annonces/locations/appartement/lyon-3eme-69/montchat/257828111.htm?serp_view=list&search=distributionTypes%3DRent%26estateTypes%3DHouse%2CApartment%26locations%3DAD08FR28808%26page%3D9#ln=classified_search_results&m=classified_search_results_classified_classified_detail_M,45.755873811748465,4.864800003412475
644,SeLoger,2840.0,215.0,13.21,Maison,"7 pièce - 5 chambre - Maison s, s, 215 m², 1 377 m² de terrain",69000,Lyon,https://www.seloger.com/annonces/locations/maison/francheville-69/francheville-le-haut-bruissin/250613097.htm?serp_view=list&search=distributionTypes%3DRent%26estateTypes%3DHouse%2CApartment%26locations%3DAD08FR28808%26page%3D9#ln=classified_search_results&m=classified_search_results_classified_classified_detail_XL,45.748049699476354,4.828981247681587
645,SeLoger,1100.0,77.5,14.19,Appartement,"3 pièce - 2 chambre - s, s, 77,5 m², étage",69005,Lyon,https://www.seloger.com/annonces/locations/appartement/lyon-5eme-69/vieux-lyon/257773877.htm?serp_view=list&search=distributionTypes%3DRent%26estateTypes%3DHouse%2CApartment%26locations%3DAD08FR28808%26page%3D9#ln=classified_search_results&m=classified_search_results_classified_classified_detail_M,45.75341746731004,4.796760593305904
646,SeLoger,1150.0,60.0,19.17,Appartement,"3 pièce - 2 chambre - s, s, 60 m², Étage 3/5",69001,Lyon,https://www.seloger.com/annonces/locations/appartement/lyon-1er-69/saint-vincent/257457019.htm?serp_view=list&search=distributionTypes%3DRent%26estateTypes%3DHouse%2CApartment%26locations%3DAD08FR28808%26page%3D9#ln=classified_search_results&m=classified_search_results_classified_classified_detail_L,45.75928405270244,4.836564264531506
648,SeLoger,1700.0,137.0,12.41,Appartement,"4 pièce - 3 chambre - Triplex s, s, 137 m², étage",69003,Lyon,https://www.seloger.com/annonces/locations/appartement/lyon-3eme-69/part-dieu/257980273.htm?serp_view=list&search=distributionTypes%3DRent%26estateTypes%3DHouse%2CApartment%26locations%3DAD08FR28808%26page%3D9#ln=classified_search_results&m=classified_search_results_classified_classified_detail_M,45.75640506518316,4.868302306874007
651,SeLoger,1160.0,45.0,25.78,Appartement,"2 pièce - 1 chambre - s, , 45 m², étage",69006,Lyon,https://www.seloger.com/annonces/locations/appartement/lyon-6eme-69/les-brotteaux-bellecombe-massena/257664985.htm?serp_view=list&search=distributionTypes%3DRent%26estateTypes%3DHouse%2CApartment%26locations%3DAD08FR28808%26page%3D9#ln=classified_search_results&m=classified_search_results_classified_classified_detail_M,45.76290860372626,4.870874989737709
652,SeLoger,1000.0,41.1,24.33,Appartement,"1 pièce - 41,1 m², étage",69006,Lyon,https://www.seloger.com/annonces/locations/appartement/lyon-6eme-69/les-brotteaux-bellecombe-massena/257531795.htm?serp_view=list&search=distributionTypes%3DRent%26estateTypes%3DHouse%2CApartment%26locations%3DAD08FR28808%26page%3D9#ln=classified_search_results&m=classified_search_results_classified_classified_detail_M,45.76462876911852,4.867309350616971
653,SeLoger,1900.0,126.6,15.01,Appartement,"4 pièce - 3 chambre - Duplex s, s, 126,6 m², RDC/2",69002,Lyon,https://www.seloger.com/annonces/locations/appartement/lyon-2eme-69/perrache-le-confluent/257257335.htm?serp_view=list&search=distributionTypes%3DRent%26estateTypes%3DHouse%2CApartment%26locations%3DAD08FR28808%26page%3D9#ln=classified_search_results&m=classified_search_results_classified_classified_detail_M,45.75511904688871,4.828643076951727
654,SeLoger,749.0,29.0,25.83,Appartement,"1 pièce - 1 chambre - 29 m², Étage 2/8",69004,Lyon,https://www.seloger.com/annonces/locations/appartement/lyon-3eme-69/sans-souci-dauphine/258257351.htm?serp_view=list&search=distributionTypes%3DRent%26estateTypes%3DHouse%2CApartment%26locations%3DAD08FR28808%26page%3D9#ln=classified_search_results&m=classified_search_results_classified_classified_detail_M,45.77752003778189,4.836143804144083
656,SeLoger,940.0,41.0,22.93,Appartement,"2 pièce - 1 chambre - s, , 41 m², étage",69004,Lyon,https://www.seloger.com/annonces/locations/appartement/lyon-4eme-69/croix-rousse-centre/256389975.htm?serp_view=list&search=distributionTypes%3DRent%26estateTypes%3DHouse%2CApartment%26locations%3DAD08FR28808%26page%3D9#ln=classified_search_results&m=classified_search_results_classified_classified_detail_L,45.78094007565374,4.832122851363349
657,SeLoger,998.0,51.0,19.57,Appartement,"2 pièce - 1 chambre - s, , 51 m², Étage 6/6",69002,Lyon,https://www.seloger.com/annonces/locations/appartement/lyon-2eme-69/cordeliers-celestins-bourse/248848403.htm?serp_view=list&search=distributionTypes%3DRent%26estateTypes%3DHouse%2CApartment%26locations%3DAD08FR28808%26page%3D9#ln=classified_search_results&m=classified_search_results_classified_classified_detail_M,45.75101550708976,4.827393965348328
658,SeLoger,1365.0,60.0,22.75,Appartement,"2 pièce - 1 chambre - s, , 60 m², étage",69001,Lyon,https://www.seloger.com/annonces/locations/appartement/lyon-1er-69/croix-paquet/252831777.htm?serp_view=list&search=distributionTypes%3DRent%26estateTypes%3DHouse%2CApartment%26locations%3DAD08FR28808%26page%3D9#ln=classified_search_results&m=classified_search_results_classified_classified_detail_M,45.7600597500296,4.83429061490362
659,SeLoger,1090.0,50.0,21.8,Appartement,"2 pièce - 1 chambre - s, , 50 m², Étage 3/5",69004,Lyon,https://www.seloger.com/annonces/locations/appartement/lyon-4eme-69/croix-rousse-centre/252600113.htm?serp_view=list&search=distributionTypes%3DRent%26estateTypes%3DHouse%2CApartment%26locations%3DAD08FR28808%26page%3D9#ln=classified_search_results&m=classified_search_results_classified_classified_detail_M,45.782242544213695,4.834429094094358
660,SeLoger,939.0,62.8,14.95,Appartement,"3 pièce - 2 chambre - s, s, 62,8 m², Étage 3/5",69009,Lyon,https://www.seloger.com/257859013/detail.htm?serp_view=list&search=distributionTypes%3DRent%26estateTypes%3DHouse%2CApartment%26locations%3DAD08FR28808%26page%3D9#ln=classified_search_results&m=classified_search_results_classified_classified_detail_M,45.76858230988417,4.804266060046201
661,SeLoger,800.0,50.0,16.0,Appartement,"2 pièce - 1 chambre - s, , 50 m², étage",69003,Lyon,https://www.seloger.com/annonces/locations/appartement/lyon-3eme-69/villette/257840129.htm?serp_view=list&search=distributionTypes%3DRent%26estateTypes%3DHouse%2CApartment%26locations%3DAD08FR28808%26page%3D9#ln=classified_search_results&m=classified_search_results_classified_classified_detail_L,45.75954076248053,4.8670824486970945
662,SeLoger,791.0,24.7,32.02,Appartement,"1 pièce - 24,7 m², étage",69006,Lyon,https://www.seloger.com/annonces/locations/appartement/lyon-6eme-69/les-brotteaux-bellecombe-massena/257816163.htm?serp_view=list&search=distributionTypes%3DRent%26estateTypes%3DHouse%2CApartment%26locations%3DAD08FR28808%26page%3D9#ln=classified_search_results&m=classified_search_results_classified_classified_detail_M,45.7618783319199,4.866636292012086
663,SeLoger,1006.0,38.0,26.47,Appartement,"2 pièce - 1 chambre - s, , 38 m²",69007,Lyon,https://www.seloger.com/annonces/locations/appartement/lyon-7eme-69/gerland/257783883.htm?serp_view=list&search=distributionTypes%3DRent%26estateTypes%3DHouse%2CApartment%26locations%3DAD08FR28808%26page%3D9#ln=classified_search_results&m=classified_search_results_classified_classified_detail_L,45.747521304652764,4.839137236138
664,SeLoger,2371.0,163.0,14.55,Appartement,"5 pièce - 4 chambre - s, s, 163 m², Étage 1/1",69006,Lyon,https://www.seloger.com/annonces/locations/appartement/lyon-6eme-69/les-brotteaux-bellecombe-massena/257456949.htm?serp_view=list&search=distributionTypes%3DRent%26estateTypes%3DHouse%2CApartment%26locations%3DAD08FR28808%26page%3D9#ln=classified_search_results&m=classified_search_results_classified_classified_detail_M,45.76190029631525,4.867878971781682
665,SeLoger,650.0,11.0,59.09,Appartement,"1 pièce - 11 m², RDC, dès le 30/01/2026",69008,Lyon,https://www.seloger.com/annonces/locations/appartement/lyon-8eme-69/laennec-mermoz/257907631.htm?serp_view=list&search=distributionTypes%3DRent%26estateTypes%3DHouse%2CApartment%26locations%3DAD08FR28808%26page%3D9#ln=classified_search_results&m=classified_search_results_classified_classified_detail_L,45.73854532202042,4.865259423907465
