categorie_cavalier,type_osm,nom_lieu,latitude,longitude,code_postal
Vice - Sex-shop,manual_add,Passage du Désir,45.759775,4.855356,69003
Vice - Sex-shop,manual_add,espaceplaisir,45.766989,4.832144,69001
Vice - Sex-shop,manual_add,Love Shop (Dé)boutonné(e)s,45.769746,4.832958,69001
Vice - Sex-shop,manual_add,espaceplaisir,45.762948,4.83379,69002
Vice - Sex-shop,manual_add,La Lanterne Loveshop,45.765703,4.832034,69001
Vice - Bar,bar,La Mistura,45.7561391,4.8503915,69003
Vice - Bar,bar,MOS Bellecour,45.7576619,4.8347376,69002
Vice - Tabac,tobacco,SNC Tabac Sathonay,45.7688244,4.830026,69001
Vice - Tabac,tobacco,Inconnu,45.7774831,4.8323268,69004
Vice - CBD Shop,cannabis,High Society,45.753454,4.8292928,69002
Gentrification - Épicerie Fine,deli,Maison Cellerier,45.7408499,4.8186952,69002
Gentrification - Atelier Vélo,bicycle,Cycles Vega,45.7573154,4.8475982,69003
Nuisance - Aire de jeux,playground,Inconnu,45.7632606,4.8138187,69005
Nuisance - Discothèque,nightclub,La Plantation,45.7607288,4.8324066,69002
Superstition - Pompes Funèbres,funeral_directors,PFG,45.7815784,4.8326014,69004
Superstition - Pompes Funèbres,funeral_directors,Pompes funèbre L'autre rive,45.7812398,4.8325506,69004
Superstition - Pompes Funèbres,funeral_directors,Pôle funéraire public Métropole de Lyon,45.7814164,4.832557,69004
Vice - Kebab,kebab,Antalya,45.7427751,4.8698435,69008
Vice - Kebab,kebab,Lumière Kebab,45.7450863,4.8721525,69008
Vice - Kebab,kebab,Eclair Kebab,45.7320869,4.8592433,69008
Vice - Kebab,kebab,Le Cactus,45.7501499,4.8649637,69003
Vice - Kebab,kebab,Zigana,45.7750992,4.8060063,69009
Vice - Kebab,kebab,Sun Détente,45.7516448,4.8539709,69003
Vice - Kebab,kebab,K-akdeniz,45.7328519,4.8799273,69008
Vice - Kebab,kebab,Gustavo,45.7532441,4.8402022,69007
Vice - Kebab,kebab,Frie(n)ds,45.7546644,4.8425166,69007
Vice - Kebab,kebab,Nazim Baba,45.7545749,4.8424525,69007
Vice - Kebab,kebab,Le Palais des Gateries,45.7547123,4.8425509,69007
Vice - Kebab,kebab,Vargo,45.7558069,4.8431601,69003
Vice - Kebab,kebab,La Grillade,45.7559149,4.8449127,69003
Vice - Kebab,kebab,Istanbul Kebab,45.7667434,4.831037,69001
Vice - Kebab,kebab,Frau,45.7681371,4.8284947,69001
Vice - Kebab,kebab,Doya,45.751887,4.8276528,69002
Vice - Kebab,kebab,Adana Kebab,45.7476673,4.8419424,69007
Vice - Kebab,kebab,Amilcar II,45.7532324,4.8413792,69007
Vice - Kebab,kebab,Bahoz,45.7566478,4.8149861,69005
Vice - Kebab,kebab,Restaurant de l'Angle,45.7794257,4.8323943,69004
Vice - Kebab,kebab,King Tacos,45.7472426,4.8233935,69002
Vice - Kebab,kebab,Chëf,45.7435997,4.873327,69008
Vice - Kebab,kebab,Roney Kebab,45.7739653,4.8230891,69004
Vice - Kebab,kebab,Baraban Fresh Chicken,45.7549085,4.8669961,69003
Vice - Kebab,kebab,Brotteaux Kebab,45.7657018,4.8556005,69006
Vice - Kebab,kebab,Shawerman,45.7319041,4.826016,69007
Vice - Kebab,kebab,One minute Kebab,45.7863419,4.8114481,69009
Vice - Kebab,kebab,Mosaique,45.7526497,4.8519862,69003
Vice - Kebab,kebab,Mont Berliner,45.7632995,4.8554308,69003
Vice - Kebab,kebab,Kumpir’Land,45.7633554,4.8570717,69003
Vice - Kebab,kebab,Ali Baba 1,45.7309362,4.8331748,69007
Vice - Kebab,kebab,Class & Kebab,45.761698,4.8583632,69003
Vice - Kebab,kebab,Star Kebab,45.7691655,4.8525388,69006
Vice - Kebab,kebab,Mezo Mada,45.7771174,4.8321642,69004
Vice - Kebab,kebab,Reyna,45.7373064,4.8686457,69008
Vice - Kebab,kebab,Victor Hugo Kebab,45.7518191,4.8283048,69002
Vice - Kebab,kebab,Free Time,45.7567281,4.8461909,69003
Vice - Kebab,kebab,MKF Meilleur Kebab de France,45.7557004,4.8411659,69007
Vice - Kebab,kebab,Chaud Restau,45.74489,4.8490117,69007
Vice - Kebab,kebab,Beyasit,45.7595321,4.8265941,69005
Vice - Kebab,kebab,Kebab Azadi,45.7461863,4.838397,69007
Vice - Kebab,kebab,Mister Kebab,45.7475713,4.8340684,69007
Vice - Kebab,kebab,Le King,45.7391885,4.8611974,69008
Vice - Kebab,kebab,Kebab Chez Lina,45.7657566,4.8442994,69006
Vice - Kebab,kebab,CHËF Berliner Kebap,45.7685794,4.8317332,69001
Vice - Kebab,kebab,Le Marietton,45.7753487,4.8041491,69009
Vice - Kebab,kebab,Berliner,45.7413373,4.8161731,69002
Vice - Kebab,kebab,Dersim,45.7635482,4.8521747,69003
Vice - Kebab,kebab,L'Artisan Kebab,45.7380569,4.8856191,69008
Vice - Kebab,kebab,Tacos Time,45.7264012,4.8803973,69008
Vice - Kebab,kebab,King Tacos,45.7362624,4.8692125,69008
Vice - Kebab,kebab,King Tacos,45.7404575,4.8636711,69008
Vice - Kebab,kebab,Karamanli,45.7617632,4.834879,69002
Vice - Kebab,kebab,Sultan Kebab,45.7330096,4.8792478,69008
Vice - Kebab,kebab,Gerland Kebab,45.7378753,4.839745,69007
Vice - Kebab,kebab,Kebab de l'Avenue,45.7418699,4.8401093,69007
Vice - Kebab,kebab,Restaurant Valmy,45.7747775,4.8060107,69009
Vice - Kebab,kebab,Tacostore Lyon,45.7420271,4.8509688,69007
Vice - Kebab,kebab,Kebouse Grill House,45.7391,4.8291762,69007
Vice - Kebab,kebab,Inconnu,45.7675946,4.8318894,69001
Vice - Kebab,kebab,Kiosque Istanbul,45.7297583,4.8298239,69007
Vice - Tabac,tobacco,Tabac La Civette,45.7754574,4.8321522,69004
Vice - Tabac,tobacco,Tabac du Mail,45.7766425,4.8330252,69004
Vice - Tabac,tobacco,Inconnu,45.7313454,4.8593663,69008
Vice - Tabac,tobacco,Le Scott,45.7801866,4.8070707,69009
Vice - Tabac,tobacco,Tabac,45.7548372,4.8426183,69007
Vice - Tabac,tobacco,Tabac de l'Île,45.7981486,4.8304374,69009
Vice - Tabac,tobacco,Le Chiquito tabac presse loto,45.7530868,4.8303132,69002
Vice - Tabac,tobacco,Tabac-presse-loto de St Just,45.7562911,4.8176539,69005
Vice - Tabac,tobacco,La pipe,45.7469219,4.8370247,69007
Vice - Tabac,tobacco,Le diplomate,45.758868,4.834044,69002
Vice - Tabac,tobacco,Tabac des 24 colonies,45.7623186,4.8287108,69005
Vice - Tabac,tobacco,Tabac-Presse,45.7569552,4.865091,69003
Vice - Tabac,tobacco,Le Juliette,45.7656278,4.8554987,69006
Vice - Tabac,tobacco,Tabac des Facultés,45.7437012,4.87858,69003
Vice - Tabac,tobacco,Le Clike,45.7788034,4.8407882,69004
Vice - Tabac,tobacco,Inconnu,45.7418855,4.8189816,69002
Vice - Tabac,tobacco,Tabac Sigarellum,45.7540892,4.8848402,69003
Vice - Tabac,tobacco,Tabac Vaise,45.7744701,4.8069456,69009
Vice - Tabac,tobacco,Tabac presse,45.7434844,4.874143,69008
Vice - Tabac,tobacco,Tabac de l'Europe,45.7574532,4.8355519,69002
Vice - Tabac,tobacco,Le Gitana,45.7633953,4.8419972,69003
Vice - Tabac,tobacco,Le quatre-vingt-dix,45.751896,4.8468231,69007
Vice - Tabac,tobacco,Tabac Cigarestore,45.7634283,4.8327255,69002
Vice - Tabac,tobacco,Inconnu,45.7890455,4.7899043,69009
Vice - Tabac,tobacco,Tabac Duchère,45.785749,4.7948161,69009
Vice - Tabac,tobacco,Le République,45.759902,4.8359048,69002
Vice - Tabac,tobacco,Tabac Presse Loto Nars,45.750304,4.8287029,69002
Vice - Tabac,tobacco,Le Marigny,45.7506477,4.8264433,69002
Vice - Tabac,tobacco,Tabac Presse Loto,45.7381769,4.8812213,69008
Vice - Tabac,tobacco,Tabac des pierres plantées,45.7730796,4.8319092,69001
Vice - Tabac,tobacco,Le Garibaldi,45.7677484,4.8505587,69006
Vice - Tabac,tobacco,La Madeleine,45.7484307,4.8479873,69007
Vice - Tabac,tobacco,Tabac-Presse-Loto Chauville,45.7535939,4.8385041,69007
Vice - Tabac,tobacco,Tabac de la Pêcherie,45.765629,4.8312988,69001
Vice - Tabac,tobacco,Le Radjah,45.7484335,4.8435626,69007
Vice - Tabac,tobacco,Tabac Primerose,45.7671144,4.8341919,69001
Vice - Tabac,tobacco,Tabac des Frères Lumière,45.7447562,4.8680834,69008
Vice - Tabac,tobacco,Vap'Station,45.7450226,4.8669763,69008
Vice - Tabac,tobacco,Tabac Hôtel de Ville,45.7669629,4.8358441,69001
Vice - Tabac,tobacco,Tabac,45.7662092,4.8330942,69001
Vice - Tabac,tobacco,Tabac Moumou,45.7553095,4.8434521,69003
Vice - Tabac,tobacco,Inconnu,45.7556635,4.8425198,69003
Vice - Tabac,tobacco,Le vendôme,45.7666223,4.8453139,69006
Vice - Tabac,tobacco,Inconnu,45.7647038,4.8286278,69005
Vice - Tabac,tobacco,Zahir Slimani,45.7486192,4.8395205,69007
Vice - Tabac,tobacco,Ziklop Stor,45.7733609,4.8093597,69009
Vice - Tabac,tobacco,Le Narval,45.7750017,4.8429733,69006
Vice - Tabac,tobacco,Tabac Grande Côte,45.7695012,4.8317441,69001
Vice - Tabac,tobacco,Inconnu,45.7481756,4.8553141,69007
Vice - Tabac,tobacco,Le Presse Book,45.7356951,4.835996,69007
Vice - Tabac,tobacco,Le P'tit Gerland,45.7289214,4.8376027,69007
Vice - Tabac,tobacco,Loto tabac presse,45.7698142,4.8567892,69006
Vice - Tabac,tobacco,Tabac de la Mairie,45.734928,4.874528,69008
Vice - Tabac,tobacco,Tabac des États,45.7318959,4.8660177,69008
Vice - Tabac,tobacco,Tabac de la Guillotière,45.7494435,4.8526767,69007
Vice - Tabac,tobacco,Bar tabac Cristal,45.779283,4.8323591,69004
Vice - Tabac,tobacco,Espace 117,45.7373405,4.8526546,69008
Vice - Tabac,tobacco,Tabac AG5,45.759054,4.8297217,69002
Vice - Tabac,tobacco,Tabac du Moulin à vent,45.7298015,4.8534952,69200
Vice - Tabac,tobacco,Le Lutetia,45.7482722,4.8803608,69003
Vice - Tabac,tobacco,Inconnu,45.7302264,4.885285,69008
Vice - Tabac,tobacco,Campus Chicha,45.7490962,4.8424853,69007
Vice - Tabac,tobacco,Inconnu,45.7554583,4.8082112,69005
Vice - Tabac,tobacco,La civette du pharaon,45.7846554,4.8526836,69006
Vice - Tabac,tobacco,Joko,45.7704859,4.8614987,69006
Vice - Tabac,tobacco,Magpresse,45.7627223,4.7976308,69005
Vice - Tabac,tobacco,Tabac Lafayette,45.7636113,4.8639656,69003
Vice - Tabac,tobacco,Inconnu,45.7756124,4.7951253,69009
Vice - Tabac,tobacco,Smoke Shop,45.7611909,4.8556693,69003
Gentrification - Épicerie Fine,deli,La maison du Bon vivant,45.7402766,4.8206888,69002
Superstition - Pompes Funèbres,funeral_directors,PFG,45.7413622,4.8532015,69007
Superstition - Pompes Funèbres,funeral_directors,Pompes Funèbres Intercommunales,45.7419598,4.8535156,69007
Superstition - Pompes Funèbres,funeral_directors,Centre funéraire Rivière,45.7419547,4.8526203,69007
Superstition - Pompes Funèbres,funeral_directors,PFG,45.7488875,4.793176,69005
Superstition - Pompes Funèbres,funeral_directors,PFG,45.7815477,4.8326079,69004
Superstition - Pompes Funèbres,funeral_directors,Eco funéraire,45.743621,4.8785389,69003
Superstition - Pompes Funèbres,funeral_directors,Centre Funéraire Rivière,45.7436765,4.8771262,69003
Superstition - Pompes Funèbres,funeral_directors,Pompes funèbre L'autre rive,45.7812056,4.8325461,69004
Superstition - Pompes Funèbres,funeral_directors,Pôle funéraire public Métropole de Lyon,45.7814017,4.8325706,69004
Superstition - Pompes Funèbres,funeral_directors,Pompes Funèbres Service Catholique des Funérailles,45.7583626,4.8296218,69002
Superstition - Pompes Funèbres,funeral_directors,Services funéraires PFG,45.73391,4.8764715,69008
Superstition - Pompes Funèbres,funeral_directors,Pompes Funèbres Générales Lyon Kruger,45.7363827,4.8802482,69008
Superstition - Pompes Funèbres,funeral_directors,PFG,45.7699966,4.8564613,69006
Superstition - Pompes Funèbres,funeral_directors,Pompes funèbres Chaboud,45.7433,4.8773096,69008
Superstition - Pompes Funèbres,funeral_directors,PFG,45.7571382,4.8408884,69003
Superstition - Pompes Funèbres,funeral_directors,Pompes Funèbres Musulmanes Essalam,45.7571757,4.8436337,69003
Superstition - Pompes Funèbres,funeral_directors,L'Éternité,45.7532604,4.8452163,69007
Superstition - Pompes Funèbres,funeral_directors,Chambre Funéraire de la Croix-Rousse,45.7843796,4.8209347,69004
Superstition - Pompes Funèbres,funeral_directors,Lyon Berthelot,45.7409213,4.8558269,69007
Superstition - Pompes Funèbres,funeral_directors,Funeris,45.7406853,4.8556055,69007
Superstition - Pompes Funèbres,funeral_directors,Inconnu,45.740664,4.8556934,69007
Superstition - Pompes Funèbres,funeral_directors,Pompes funèbres Rozier,45.7414039,4.8533792,69007
Superstition - Pompes Funèbres,funeral_directors,Service Chrétien de Funérailles,45.7568445,4.8249469,69005
Superstition - Pompes Funèbres,funeral_directors,La Maison des Obsèques,45.7423859,4.8512363,69007
Superstition - Pompes Funèbres,funeral_directors,Roc Eclerc,45.7426034,4.8938424,69003
Superstition - Pompes Funèbres,funeral_directors,Noir Clair,45.7492338,4.835097,69007
Superstition - Pompes Funèbres,funeral_directors,Pôle Funéraire Public,45.7435402,4.8784997,69003
Superstition - Pompes Funèbres,funeral_directors,Pompes funèbres de France,45.7807424,4.8324598,69004
Superstition - Pompes Funèbres,funeral_directors,Centre funéraire Rivière,45.7809125,4.8324869,69004
Superstition - Pompes Funèbres,funeral_directors,Roc Eclerc,45.7816152,4.8326308,69004
Superstition - Pompes Funèbres,funeral_directors,Marbrerie Paul Favre,45.7818085,4.820814,69004
Superstition - Pompes Funèbres,funeral_directors,Inconnu,45.7629535,4.7974825,69005
Superstition - Pompes Funèbres,funeral_directors,Marbrerie - Zone technique,45.761335,4.8120077,69005
Vice - Bar,bar,Le Flan' Ruin Pub,45.7686724,4.8361996,69001
Vice - Bar,bar,Ninkasi Guillotière,45.7561747,4.84108,69003
Vice - Bar,bar,Bar de L'Eldorado,45.7544636,4.8458006,69003
Vice - Bar,bar,Le Monopol,45.7577889,4.8353255,69002
Vice - Bar,bar,Barabaar,45.7791637,4.8038231,69009
Vice - Bar,bar,Le Bonaparte,45.7593749,4.8274691,69005
Vice - Bar,bar,Café Hôtel Dieu,45.7591394,4.8358796,69002
Vice - Bar,bar,La Pêcherie,45.7660765,4.8310584,69001
Vice - Bar,bar,Pineapple Room,45.7651659,4.8545684,69006
Vice - Bar,bar,Le Biniou Du 6,45.7691134,4.8557919,69006
Vice - Bar,bar,Au Fût Et À Mesure Lyon,45.7688022,4.856825,69006
Vice - Bar,bar,You Cocktail Bar,45.767864,4.855429,69006
Vice - Bar,bar,Le Traquenard,45.7593345,4.8426163,69003
Vice - Bar,bar,Cigale,45.7646419,4.8277995,69005
Vice - Bar,bar,Tapas & Moove,45.7510908,4.8264084,69002
Vice - Bar,bar,Octopus,45.7510119,4.848466,69007
Vice - Bar,bar,Magic N' Bar,45.7798815,4.8349865,69004
Vice - Bar,bar,Hex'a gones,45.7598095,4.8479724,69003
Vice - Bar,bar,Le Carrefour,45.7480206,4.8809734,69003
Vice - Bar,bar,Inconnu,45.7484067,4.8807591,69003
Vice - Bar,bar,Brasserie des 2 avenues,45.7312459,4.8301513,69007
Vice - Bar,bar,Brasserie Debourg,45.7316168,4.8295495,69007
Vice - Bar,bar,Les Assembleurs,45.7584065,4.8421061,69003
Vice - Bar,bar,Le 14,45.7463647,4.8636658,69008
Vice - Bar,bar,Le Las Vegas,45.7318336,4.8300277,69007
Vice - Bar,bar,L'Apostrophe,45.7661807,4.8278596,69005
Vice - Bar,bar,La Marquise,45.758977,4.840036,69003
Vice - Bar,bar,Berzingue,45.7627905,4.840564,69003
Vice - Bar,bar,Selcius,45.7387676,4.8146175,69002
Vice - Bar,bar,Café des Sports,45.7533427,4.8918774,69003
Vice - Bar,bar,La Corniche,45.769638,4.8251857,69001
Vice - Bar,bar,Le Grand Café Neuf,45.7529652,4.8546529,69003
Vice - Bar,bar,La porte au prince,45.7275064,4.8836954,69008
Vice - Bar,bar,Bar musée Gadagne,45.7641317,4.8270948,69005
Vice - Bar,bar,L'atelier des canulars,45.7504269,4.8465891,69007
Vice - Bar,bar,Cochon iodé,45.7756072,4.8347299,69004
Vice - Bar,bar,Jack's Bar,45.7655291,4.8276435,69005
Vice - Bar,bar,Nakamal,45.7680588,4.8008057,69009
Vice - Bar,bar,Crazy Dog,45.7677776,4.8332585,69001
Vice - Bar,bar,L'Atenium,45.751274,4.8449204,69007
Vice - Bar,bar,Café de la Soie,45.778074,4.8346675,69004
Vice - Bar,bar,Pélican,45.7693619,4.8315124,69001
Vice - Bar,bar,Café des Antiquaires,45.7535968,4.830439,69002
Vice - Bar,bar,La Linotte,45.754348,4.83071,69002
Vice - Bar,bar,Voyageurs,45.7745827,4.8309974,69004
Vice - Bar,bar,Le petit coin,45.7793897,4.8344802,69004
Vice - Bar,bar,Le Chabada Café,45.7644303,4.832536,69002
Vice - Bar,bar,Broc'Bar,45.7660636,4.8317048,69001
Vice - Bar,bar,Cap 6,45.7646686,4.8346335,69002
Vice - Bar,bar,Soda Bar,45.7683105,4.8290173,69001
Vice - Bar,bar,L'Antiquaire,45.767922,4.8306351,69001
Vice - Bar,bar,Sauf Imprévu,45.7649541,4.8434918,69006
Vice - Bar,bar,Au Grand Paris,45.7750631,4.8052187,69009
Vice - Bar,bar,Le Bistrot fait sa broc',45.7768298,4.8334846,69004
Vice - Bar,bar,Le Petit Bar,45.7530545,4.8700406,69003
Vice - Bar,bar,La Faute aux Ours,45.754752,4.8431398,69007
Vice - Bar,bar,La Passagère,45.7606057,4.8402604,69003
Vice - Bar,bar,Bébé,45.7610785,4.8403229,69003
Vice - Bar,bar,Sauvage,45.7541332,4.8394258,69007
Vice - Bar,bar,Félix Café,45.7556397,4.8425979,69003
Vice - Bar,bar,La Mi Graine,45.7664433,4.8273998,69005
Vice - Bar,bar,Le Gambetta,45.7560185,4.8415262,69003
Vice - Bar,bar,Plouf Bateau Mouse,45.7595534,4.8400976,69003
Vice - Bar,bar,L'Angle d'Or,45.7546058,4.8420521,69007
Vice - Bar,bar,Le Bec de Jazz,45.7704846,4.8332759,69001
Vice - Bar,bar,Olmé,45.7537657,4.840532,69007
Vice - Bar,bar,Blue Monday,45.7537039,4.8402826,69007
Vice - Bar,bar,Le Chatelet,45.7518642,4.8401552,69007
Vice - Bar,bar,Le Commerce,45.749447,4.8387511,69007
Vice - Bar,bar,La Pipe,45.7469306,4.8370236,69007
Vice - Bar,bar,Le Casse vins,45.7670256,4.8545274,69006
Vice - Bar,bar,Alma,45.7484333,4.854575,69007
Vice - Bar,bar,Malto,45.7577692,4.8411711,69003
Vice - Bar,bar,L'Overdrive,45.7497399,4.8438736,69007
Vice - Bar,bar,AFK Bar,45.748268,4.8433461,69007
Vice - Bar,bar,La Baignoire,45.7539604,4.8428911,69007
Vice - Bar,bar,Mostaganem,45.752247,4.8440337,69007
Vice - Bar,bar,Chez Michel,45.7514305,4.844894,69007
Vice - Bar,bar,Lokace,45.7508988,4.8455368,69007
Vice - Bar,bar,Bar des Artistes,45.7510651,4.8426149,69007
Vice - Bar,bar,The PXL tavern,45.756932,4.8539112,69003
Vice - Bar,bar,Moneda,45.7617005,4.8323102,69002
Vice - Bar,bar,The black pearl tavern,45.7638225,4.864709,69006
Vice - Bar,bar,Kigali Life Bar,45.7532946,4.8414235,69007
Vice - Bar,bar,Le Tanger,45.7538624,4.8420421,69007
Vice - Bar,bar,Le Barberousse,45.7686593,4.8356734,69001
Vice - Bar,bar,Le Bistrot Royal,45.7549647,4.8450213,69003
Vice - Bar,bar,Les Assembleurs,45.7503001,4.8570105,69007
Vice - Bar,bar,La Madone,45.7689426,4.8324435,69001
Vice - Bar,bar,La Barge,45.7645798,4.8407664,69006
Vice - Bar,bar,Skybar,45.767528,4.8306667,69001
Vice - Bar,bar,La Bouteillerie,45.7683124,4.8291032,69001
Vice - Bar,bar,Le Bistro,45.768323,4.8293006,69001
Vice - Bar,bar,Pépouze,45.7683221,4.8285288,69001
Vice - Bar,bar,Au Bon Cru,45.7536108,4.8326653,69002
Vice - Bar,bar,Le Cardiff,45.7545637,4.8267318,69002
Vice - Bar,bar,Strip Club,45.7587665,4.8260433,69005
Vice - Bar,bar,Big White,45.7646449,4.8281015,69005
Vice - Bar,bar,La Cave des Voyageurs,45.7661526,4.8276586,69005
Vice - Bar,bar,Bis'Corner,45.7663243,4.8271697,69005
Vice - Bar,bar,Ayers Rock,45.7683993,4.8348396,69001
Vice - Bar,bar,Hell's Kitchen,45.7683977,4.8349501,69001
Vice - Bar,bar,The Monkey Club,45.7695669,4.8372671,69001
Vice - Bar,bar,La Loge,45.7601861,4.8316488,69002
Vice - Bar,bar,Viktor,45.7516727,4.82844,69002
Vice - Bar,bar,Le Marco Polo,45.7518753,4.829457,69002
Vice - Bar,bar,Le Pacha de Lyon,45.7532805,4.8411481,69007
Vice - Bar,bar,Le Mini Bar,45.7530292,4.8419051,69007
Vice - Bar,bar,Jungle,45.7498805,4.8525511,69007
Vice - Bar,bar,Lyonnais K'Fé,45.7506237,4.8478935,69007
Vice - Bar,bar,Le Remède,45.7454855,4.8455058,69007
Vice - Bar,bar,Quai22,45.7649716,4.837935,69002
Vice - Bar,bar,Bar des Deux Avenues,45.7546419,4.8665421,69003
Vice - Bar,bar,Ninkasi Vaise Industrie,45.7882685,4.8127363,69009
Vice - Bar,bar,Le City,45.7632762,4.8520533,69003
Vice - Bar,bar,Le Comptoir du 6ème,45.7728396,4.8441256,69006
Vice - Bar,bar,House of Bears,45.7493492,4.8351744,69007
Vice - Bar,bar,Café Saint-Louis,45.7489581,4.8482613,69007
Vice - Bar,bar,Café de la Source,45.7490843,4.8483197,69007
Vice - Bar,bar,Le Bazar,45.7378442,4.8654701,69008
Vice - Bar,bar,Tire-toi une bûche 2,45.7508237,4.8470353,69007
Vice - Bar,bar,Les Valseuses,45.7713743,4.8352736,69001
Vice - Bar,bar,Blonde Ou Brune,45.7713422,4.8330154,69001
Vice - Bar,bar,Brasserie du Square,45.7688367,4.8526408,69006
Vice - Bar,bar,Les Canailles De Raphaël,45.7705381,4.8520281,69006
Vice - Bar,bar,Barrio Club,45.7667369,4.8598151,69006
Vice - Bar,bar,Le Florian,45.7632513,4.8285022,69005
Vice - Bar,bar,POTE,45.7486732,4.8399915,69007
Vice - Bar,bar,Kargo Kulte,45.7529735,4.8462387,69007
Vice - Bar,bar,Le Bertone,45.77769,4.83425,69004
Vice - Bar,bar,Le Bouillon Paradis,45.7502193,4.8432149,69007
Vice - Bar,bar,La Grooverie,45.769738,4.83053,69001
Vice - Bar,bar,Yka,45.7684022,4.8584833,69006
Vice - Bar,bar,Le Troquet des Sens,45.7525027,4.8316449,69002
Vice - Bar,bar,Quartier,45.769708,4.831624,69001
Vice - Bar,bar,Le Bavard,45.7645393,4.828918,69005
Vice - Bar,bar,Féroce,45.7530681,4.8403037,69007
Vice - Bar,bar,Black Forest Society,45.7667943,4.8375558,69001
Vice - Bar,bar,Les Arpenteurs,45.7665813,4.8318689,69001
Vice - Bar,bar,BizTooFly Bar,45.7691816,4.8298426,69001
Vice - Bar,bar,L'envie,45.747809,4.8213074,69002
Vice - Bar,bar,Betty’s Bar,45.7598043,4.8261387,69005
Vice - Bar,bar,les Sept Marches,45.7738024,4.8230075,69004
Vice - Bar,bar,La Torpille,45.7735842,4.8225114,69004
Vice - Bar,bar,Le Churchill,45.7789318,4.8408416,69004
Vice - Bar,bar,Apérousse,45.7755973,4.8351311,69004
Vice - Bar,bar,Repère(S),45.7711898,4.8341532,69001
Vice - Bar,bar,Siam Bistro,45.7560962,4.8575316,69003
Vice - Bar,bar,La Feria (Lyon),45.7635317,4.8289054,69005
Vice - Bar,bar,L'Absinthe,45.7702436,4.8264574,69001
Vice - Bar,bar,La Serre,45.7695385,4.829646,69001
Vice - Bar,bar,La Patrie,45.7633845,4.8447873,69003
Vice - Bar,bar,Jazz Hot Club de Lyon,45.7656594,4.8319642,69001
Vice - Bar,bar,Le Azevedo,45.7240506,4.8837084,69008
Vice - Bar,bar,Turbine,45.750053,4.8442192,69007
Vice - Bar,bar,Look Bar,45.7622831,4.8285561,69005
Vice - Bar,bar,Meltdown Lyon,45.7710272,4.8350951,69001
Vice - Bar,bar,Yakapiocher,45.769773,4.8256499,69001
Vice - Bar,bar,Chenavard,45.7655863,4.8327592,69001
Vice - Bar,bar,Louis Bar,45.7734887,4.8090988,69009
Vice - Bar,bar,Le Passage,45.7659506,4.833876,69001
Vice - Bar,bar,Casa Nobile Gerland,45.7299434,4.8330373,69007
Vice - Bar,bar,Au Janis,45.750978,4.8425298,69007
Vice - Bar,bar,L'Ange Di Vin,45.7613189,4.832046,69002
Vice - Bar,bar,Kaffee Berlin,45.7536464,4.8385663,69007
Vice - Bar,bar,Le Drink,45.7503386,4.8866761,69003
Vice - Bar,bar,Auprès de mon arbre,45.7703491,4.8317138,69001
Vice - Bar,bar,Platypus Café Brewpub,45.7463042,4.82364,69002
Vice - Bar,bar,Le Fantôme de l'Opéra,45.7709807,4.8373371,69001
Vice - Bar,bar,L’Artchimiste,45.7682605,4.8563643,69006
Vice - Bar,bar,Les Barjaqueurs,45.7704012,4.836705,69001
Vice - Bar,bar,Le bistro Nicéphore,45.7567937,4.8161456,69005
Vice - Bar,bar,Basement,45.7508907,4.8421862,69007
Vice - Bar,bar,La Maison M,45.7685124,4.8300084,69001
Vice - Bar,bar,Le BistrO d'à cÔté,45.7709749,4.8345855,69001
Vice - Bar,bar,Le Shalala,45.7693037,4.8320818,69001
Vice - Bar,bar,La Station,45.7549728,4.875252,69003
Vice - Bar,bar,Café Lyonnais,45.750057,4.8299973,69002
Vice - Bar,bar,Bar du Tramway,45.7540424,4.8853953,69003
Vice - Bar,bar,Barabaar,45.7696185,4.8568353,69006
Vice - Bar,bar,Le Bar Bu,45.7654445,4.8289244,69005
Vice - Bar,bar,L’Alternateur,45.7570458,4.8511828,69003
Vice - Bar,bar,Tic & Tac Bar,45.747567,4.838654,69007
Vice - Bar,bar,Groom,45.7706062,4.8370066,69001
Vice - Bar,bar,L'Amicale,45.7521649,4.8441559,69007
Vice - Bar,bar,Cabana Café,45.7697199,4.8289488,69001
Vice - Bar,bar,PEPS public House,45.7544347,4.8395915,69007
Vice - Bar,bar,Kino,45.7450431,4.8719371,69008
Vice - Bar,bar,Justin,45.7581758,4.8360855,69002
Vice - Bar,bar,Darts club des gones,45.7645674,4.8273931,69005
Vice - Bar,bar,Le Bachut,45.7369791,4.868997,69008
Vice - Bar,bar,City Bar,45.7631242,4.8522504,69003
Vice - Bar,bar,Le Molière,45.7666814,4.8425326,69006
Vice - Bar,bar,Le Speaker,45.7704867,4.8371669,69001
Vice - Bar,bar,Sudaka,45.7686796,4.835799,69001
Vice - Bar,bar,L’Edgar Quinet,45.7658946,4.8442707,69006
Vice - Bar,bar,Le Queen Mary,45.7695834,4.8425839,69006
Vice - Bar,bar,Deuxième Verre,45.7694129,4.8355592,69001
Vice - Bar,bar,Le Coup de Pelle,45.7695,4.8368352,69001
Vice - Bar,bar,Le Temps des Copains,45.7652937,4.8334836,69001
Vice - Bar,bar,Le Bâton Rouge,45.7687792,4.8353961,69001
Vice - Bar,bar,Johnny's Kitchen,45.7575704,4.8248577,69005
Vice - Bar,bar,MOS Mercière,45.7629433,4.8327947,69002
Vice - Bar,bar,La Galacia,45.7630275,4.8326011,69002
Vice - Bar,bar,Le Chavanne,45.7652039,4.8324186,69001
Vice - Bar,bar,L'Atelier,45.7760005,4.8013875,69009
Vice - Bar,bar,Café Montchat,45.7497517,4.884904,69003
Vice - Bar,bar,Kodama Bar Lyon,45.7671971,4.8269127,69005
Vice - Bar,bar,Le Quai 19,45.763077,4.8321849,69002
Vice - Bar,bar,Le Roi Lyon,45.762129,4.8320294,69002
Vice - Bar,bar,Wallace,45.7615606,4.8324186,69002
Vice - Bar,bar,Café Court,45.7614165,4.8320304,69002
Vice - Bar,bar,Barum,45.7848366,4.8528161,69006
Vice - Bar,bar,Kabestan,45.758533,4.8363211,69002
Vice - Bar,bar,L'apérothèque,45.7582788,4.8355588,69002
Vice - Bar,bar,Gloria,45.7650723,4.8367718,69002
Vice - Bar,bar,Le Big,45.7609797,4.8323809,69002
Vice - Bar,bar,Le Temple,45.7607611,4.8322856,69002
Vice - Bar,bar,Bis'tram,45.7320189,4.8836828,69008
Vice - Bar,bar,L'Encart,45.7568378,4.8282159,69002
Vice - Bar,bar,LB Lyon,45.755988,4.8679961,69003
Vice - Bar,bar,Dadou,45.7558762,4.8572899,69003
Vice - Bar,bar,Chenin № 20,45.7513037,4.8262374,69002
Vice - Bar,bar,Toké,45.7750605,4.830997,69004
Vice - Bar,bar,Le Semple,45.7543402,4.8394045,69007
Vice - Bar,bar,El Chapeau,45.7617695,4.8345576,69002
Vice - Bar,bar,Le Kabuki,45.7597714,4.8310044,69002
Vice - Bar,bar,Ffa - Federation Française De L'aperitif - Lyon,45.7616895,4.831789,69002
Vice - Bar,bar,Café de la Soierie,45.7745922,4.8291135,69004
Vice - Bar,bar,La Plante du Loup,45.7487726,4.8382682,69007
Vice - Bar,bar,Pompette,45.7627632,4.8351111,69002
Vice - Bar,bar,Plein Sud,45.7629309,4.8329968,69002
Vice - Bar,bar,Vivants,45.7652482,4.8362787,69002
Vice - Bar,bar,L bar,45.7663571,4.8369235,69001
Vice - Bar,bar,XS Bar,45.7641224,4.8376452,69002
Vice - Bar,bar,Contrast,45.7619344,4.8352569,69002
Vice - Bar,bar,Le Qu4Tre,45.7627084,4.8343952,69002
Vice - Bar,bar,Buvette du pont Wilson,45.7597582,4.8408111,69003
Vice - Bar,bar,Les arcades,45.7657414,4.8328359,69001
Vice - Bar,bar,Barapol,45.7658104,4.8328528,69001
Vice - Bar,bar,Le Félix Faure,45.7529902,4.8529874,69003
Vice - Bar,bar,Bar des Champ's,45.7441376,4.8696472,69008
Vice - Bar,bar,Les Poupées Russes,45.7684612,4.8359632,69001
Vice - Bar,bar,Hopstore,45.7683272,4.830405,69001
Vice - Bar,bar,Dix Huit Mètres Carré,45.761342,4.8318992,69002
Vice - Bar,bar,Le Boulevardier Bar,45.7649787,4.8337015,69001
Vice - Bar,bar,Carmelo - Big Mamma,45.7652598,4.8349263,69001
Vice - Bar,bar,Le Grisbi,45.7654604,4.8327736,69001
Vice - Bar,bar,Chamax,45.7669321,4.8350727,69001
Vice - Bar,bar,Conflutime,45.7410975,4.8208492,69002
Vice - Bar,bar,AlternatiBar - Maison des alternatives,45.7692247,4.8319487,69001
Vice - Bar,bar,La Traboule,45.7645661,4.8271756,69005
Vice - Bar,bar,Le Berkeley,45.7694151,4.853024,69006
Vice - Bar,bar,La maison bleue,45.7365802,4.842202,69007
Vice - Bar,bar,Bazar,45.7616302,4.8440574,69003
Vice - Bar,bar,Bar Le 42,45.766287,4.8184734,69009
Vice - Bar,bar,American Bar,45.7627439,4.8284086,69005
Vice - Bar,bar,Since the Cavern,45.7628703,4.8284427,69005
Vice - Bar,bar,Black Hole,45.7632565,4.828971,69005
Vice - Bar,bar,Big Easy - Cocktail Bar & Tapas,45.7627604,4.8288482,69005
Vice - Bar,bar,Ryoka,45.7631359,4.8289635,69005
Vice - Bar,bar,Les petits joueurs,45.7590777,4.8254627,69005
Vice - Bar,bar,Imohtep Bar,45.7585864,4.8253433,69005
Vice - Bar,bar,Tata Mona,45.7589336,4.8260156,69005
Vice - Bar,bar,Le Comptoir des Buvards,45.7569519,4.8244684,69005
Vice - Bar,bar,Oaï Resto Bar,45.7595307,4.8255715,69005
Vice - Bar,bar,Les Maréchaux,45.7682665,4.8437762,69006
Vice - Bar,bar,La Calanque,45.7433852,4.8217146,69002
Vice - Bar,bar,Octobre,45.7660256,4.832598,69001
Vice - Bar,bar,Le Dystopik,45.7665183,4.8281783,69005
Vice - Bar,bar,Shootbar,45.7673734,4.8261563,69005
Vice - Bar,bar,Bar Jurassien,45.7541291,4.8412688,69007
Vice - Bar,bar,Le Scorsese,45.764035,4.8438866,69006
Vice - Bar,bar,Café Gaios,45.7471669,4.8243781,69002
Vice - Bar,bar,Multivers,45.7570633,4.841943,69003
Vice - Bar,bar,Chez Garbis,45.7679052,4.8445134,69006
Vice - Bar,bar,Bar des Artisans,45.7539447,4.8423508,69007
Vice - Bar,bar,Puzzle Inn - Bar Retro Gaming,45.7515118,4.8486205,69007
Vice - Bar,bar,Jupiter Bar,45.7513639,4.8475608,69007
Vice - Bar,bar,Boomerang,45.7568384,4.8434042,69003
Vice - Bar,bar,Verso,45.7468436,4.8433249,69007
Vice - Bar,bar,Le Tank,45.7399277,4.8406072,69007
Vice - Bar,bar,Ziggy,45.7732327,4.8096206,69009
Vice - Bar,bar,L'adresse,45.7662912,4.8183759,69009
Vice - Bar,bar,TechNoir,45.769524,4.8317257,69001
Vice - Bar,bar,Le Théodore,45.7585277,4.8368818,69002
Vice - Bar,bar,Carousel,45.7779397,4.8342329,69004
Vice - Bar,bar,Gogniols,45.7779154,4.835195,69004
Vice - Bar,bar,Au Goût à Goutte,45.7748988,4.8309713,69004
Vice - Bar,bar,Satriale,45.7690455,4.8322338,69001
Vice - Bar,bar,Skull,45.7484407,4.8551314,69007
Vice - Bar,bar,L’antidote,45.7559499,4.8240702,69005
Vice - Bar,bar,Pop and Wine,45.7626944,4.8351378,69002
Vice - Bar,bar,Antiq'Bar,45.7338272,4.8637405,69008
Vice - Bar,bar,Welsh Beer Bar,45.7615703,4.8322061,69002
Vice - Bar,bar,Des Bulles Sous Le Plafond,45.735977,4.8397598,69007
Vice - Bar,bar,L’Officine,45.7588461,4.8364893,69002
Vice - Bar,bar,Le Vitis,45.7745655,4.8276338,69004
Vice - Bar,bar,Burning Cat,45.775035,4.8294574,69004
Vice - Bar,bar,The Hill Club,45.74457,4.8259584,69002
Vice - Bar,bar,Le Volff,45.7554184,4.8748444,69003
Vice - Bar,bar,Jerovine Bar,45.7807501,4.8365611,69004
Vice - Bar,bar,La Plante Du Loup,45.7733812,4.8084084,69009
Vice - Bar,bar,Tire-toi une bûche,45.7666722,4.850106,69006
Vice - Bar,bar,Bar du Moulin d'Or,45.7293216,4.8529959,69008
Vice - Bar,bar,Bambi,45.7692292,4.8364726,69001
Vice - Bar,bar,Gourmet Croix Rousse,45.7749449,4.8288781,69004
Vice - Bar,bar,Paradox,45.7687199,4.8296478,69001
Vice - Bar,bar,Soif !,45.7689581,4.8315037,69001
Vice - Bar,bar,Jobaar,45.769898,4.8582988,69006
Vice - Bar,bar,United café,45.7656061,4.8316974,69001
Vice - Bar,bar,PoliGone,45.7592695,4.8315857,69002
Vice - Bar,bar,O'Quai Wine,45.760245,4.830884,69002
Vice - Bar,bar,La Bonne Gâche,45.7716368,4.835394,69001
Vice - Bar,bar,Catie‘s,45.7698773,4.8342518,69001
Vice - Bar,bar,Manneken-Pis,45.7681989,4.8328274,69001
Vice - Bar,bar,Distrikt Xii,45.7677616,4.819245,69001
Vice - Bar,bar,L'abbaye,45.7678896,4.8338274,69001
Vice - Bar,bar,Calle Latino,45.7509023,4.8245639,69002
Vice - Bar,bar,Nutopia Lyon,45.7423518,4.8210855,69002
Vice - Bar,bar,L'escale,45.7516421,4.8324294,69002
Vice - Bar,bar,Barãgones,45.7658034,4.827764,69005
Vice - Bar,bar,Abstract,45.7692439,4.8171683,69001
Vice - Bar,bar,L'horacio,45.7488918,4.8619846,69003
Vice - Bar,bar,Béguin,45.7686474,4.8508829,69006
Vice - Bar,bar,Gourmet bar Novotel,45.7413439,4.8154651,69002
Vice - Bar,bar,Las Palmeras,45.7651211,4.8680671,69006
Vice - Bar,bar,L'Aristide,45.7652883,4.8681174,69006
Vice - Bar,bar,Bar du Sagittaire,45.766235,4.8670908,69006
Vice - Bar,bar,Pélo,45.774493,4.8061657,69009
Vice - Bar,bar,Levantia,45.7664862,4.8450588,69006
Vice - Bar,bar,Cafe Comptoir-Bar a Vins,45.7621585,4.8374504,69002
Vice - Bar,bar,Ma Taverne,45.7447472,4.86813,69008
Vice - Bar,bar,Pienza Aperitivo,45.7753649,4.8316468,69004
Vice - Bar,bar,Le Biniou,45.7622666,4.8329367,69002
Vice - Bar,bar,Le petit marché d'une faim d'apprendre,45.7692161,4.8004801,69009
Vice - Bar,bar,Tabac les Girondins,45.7392689,4.8279503,69007
Vice - Bar,bar,Le B'ARTISTE,45.7609215,4.83425,69002
Vice - Bar,bar,New Allstar,45.7670546,4.8220034,69005
Vice - Bar,bar,Bambane,45.7498253,4.8460842,69007
Vice - Bar,bar,Mac Bar,45.7841771,4.8527224,69006
Vice - Bar,bar,Lo'Ben Bar,45.742905,4.8165537,69002
Vice - Bar,bar,Espit Chupitos,45.7676293,4.837294,69001
Vice - Bar,bar,bohème,45.7675751,4.8577755,69006
Vice - Bar,bar,Poissonchat,45.7683185,4.8072807,69009
Vice - Bar,bar,Tic & Tac,45.769989,4.8504268,69006
Vice - Bar,bar,Inconnu,45.7628404,4.7980072,69005
Vice - Bar,bar,Oz Boat,45.7617773,4.8403885,69003
Vice - Bar,bar,Loupika,45.7367152,4.8145631,69002
Vice - Bar,bar,Le Sonic,45.7507333,4.8203487,69005
Vice - Bar,bar,Bentomania,45.7617257,4.855956,69003
Vice - Bar,bar,Daniel & Denise en voyage,45.7602822,4.859108,69003
Vice - Casino,casino,Le Pharaon,45.7847561,4.8527698,69006
Vice - CBD Shop,cannabis,CBD Shop,45.7528917,4.8306852,69002
Vice - CBD Shop,cannabis,High Society,45.7539177,4.8465622,69007
Vice - CBD Shop,cannabis,Dr. Greentown,45.7634937,4.842753,69003
Vice - CBD Shop,cannabis,CBioD,45.7778059,4.8333,69004
Vice - CBD Shop,cannabis,Nativus,45.774241,4.807453,69009
Vice - CBD Shop,cannabis,CBD shop,45.7749061,4.8063496,69009
Vice - CBD Shop,cannabis,Les Gones CBD,45.7635477,4.8527624,69003
Vice - CBD Shop,cannabis,Generation Vape,45.7637333,4.847409,69006
Vice - CBD Shop,cannabis,High Society,45.7637164,4.8443396,69006
Vice - CBD Shop,cannabis,Aydoo CBD,45.7689465,4.8562199,69006
Vice - CBD Shop,cannabis,Plaisirs Délices,45.7664917,4.845156,69006
Vice - CBD Shop,cannabis,Le CBD français,45.7766309,4.832004,69004
Gentrification - Salle Sport,fitness_centre,Banane & basket,45.7709288,4.8077511,69009
Gentrification - Salle Sport,fitness_centre,WellNess,45.7516682,4.8524991,69007
Gentrification - Salle Sport,fitness_centre,L'Appart Fitness,45.7680154,4.8376767,69001
Gentrification - Salle Sport,fitness_centre,Basic-Fit,45.7601691,4.8614509,69003
Gentrification - Salle Sport,fitness_centre,Dojo d'Aikido Lyon Masséna,45.7664665,4.8542004,69006
Gentrification - Salle Sport,fitness_centre,L'appart Fitness,45.7605435,4.8416864,69003
Gentrification - Salle Sport,fitness_centre,Fédération Internationale de Krav Opérationnel et Professionnel,45.7570916,4.8633673,69003
Gentrification - Salle Sport,fitness_centre,Yogilude,45.7608779,4.8461777,69003
Gentrification - Salle Sport,fitness_centre,Small yoga,45.7532241,4.8265646,69002
Gentrification - Salle Sport,fitness_centre,La bulle yoga,45.7570354,4.8297714,69002
Gentrification - Salle Sport,fitness_centre,Latitude yoga,45.7535081,4.8283017,69002
Gentrification - Salle Sport,fitness_centre,OnlYoga,45.7688411,4.835763,69001
Gentrification - Salle Sport,fitness_centre,CrossFit,45.7735338,4.7972435,69009
Gentrification - Salle Sport,fitness_centre,Neoness,45.7639272,4.8657799,69006
Gentrification - Salle Sport,fitness_centre,Win fitness,45.7434769,4.87082,69008
Gentrification - Salle Sport,fitness_centre,Wellness sport club,45.7631177,4.8461956,69003
Gentrification - Salle Sport,fitness_centre,CapoFit,45.7537064,4.8543328,69003
Gentrification - Salle Sport,fitness_centre,L'idéal,45.7663734,4.8561171,69006
Gentrification - Salle Sport,fitness_centre,Centre de yoga Lyon Jean Macé,45.7451139,4.8457217,69007
Gentrification - Salle Sport,fitness_centre,Neoness,45.7375196,4.8684199,69008
Gentrification - Salle Sport,fitness_centre,École de Yoga Mysore,45.7503946,4.8294089,69002
Gentrification - Salle Sport,fitness_centre,L'Appart Fitness,45.7585482,4.834803,69002
Gentrification - Salle Sport,fitness_centre,KeepCool Lyon 8,45.7314478,4.8732094,69008
Gentrification - Salle Sport,fitness_centre,L'Appart Fitness Lyon 8 Laennec,45.7366286,4.8808019,69008
Gentrification - Salle Sport,fitness_centre,Club Victor Hugo,45.7530012,4.8297712,69002
Gentrification - Salle Sport,fitness_centre,Fit by So,45.757687,4.8285475,69002
Gentrification - Salle Sport,fitness_centre,L'Appart Fitness,45.7675449,4.8367657,69001
Gentrification - Salle Sport,fitness_centre,Club 48,45.7444846,4.8698414,69008
Gentrification - Salle Sport,fitness_centre,Basic-Fit,45.7655839,4.8361201,69001
Gentrification - Salle Sport,fitness_centre,Wellness Sport Club,45.7394961,4.8178235,69002
Gentrification - Salle Sport,fitness_centre,Interval,45.7539062,4.84741,69003
Gentrification - Salle Sport,fitness_centre,XF Coaching Sportif,45.7282885,4.8315904,69007
Gentrification - Salle Sport,fitness_centre,Gymnase Monod,45.731244,4.8264495,69007
Gentrification - Salle Sport,fitness_centre,Gymnase Descartes,45.7339913,4.8345477,69007
Gentrification - Salle Sport,fitness_centre,Physioconcept Santé,45.7795066,4.8375611,69004
Gentrification - Salle Sport,fitness_centre,KeepCool,45.7789592,4.8061201,69009
Gentrification - Salle Sport,fitness_centre,CrossFit Gerland,45.7366206,4.8417686,69007
Gentrification - Salle Sport,fitness_centre,Yoga Korner,45.7668904,4.8349262,69001
Gentrification - Salle Sport,fitness_centre,Saône et Soi,45.767255,4.8245857,69005
Gentrification - Salle Sport,fitness_centre,Okinawa Shaolin,45.7672662,4.8264516,69005
Gentrification - Salle Sport,fitness_centre,Maximum Evolution,45.751386,4.8905606,69003
Gentrification - Salle Sport,fitness_centre,Intensifit,45.7645222,4.8438123,69006
Gentrification - Salle Sport,fitness_centre,Coach in Lyon,45.764238,4.8441178,69006
Gentrification - Salle Sport,fitness_centre,Tiny Yoga Club,45.7617636,4.8440963,69003
Gentrification - Salle Sport,fitness_centre,Studio 96,45.7655649,4.8519404,69006
Gentrification - Salle Sport,fitness_centre,Club du Rhône,45.756761,4.8436594,69003
Gentrification - Salle Sport,fitness_centre,Rituel,45.7476919,4.8431205,69007
Gentrification - Salle Sport,fitness_centre,Inconnu,45.7533339,4.8613391,69003
Gentrification - Salle Sport,fitness_centre,Sesam,45.7497316,4.8389474,69007
Gentrification - Salle Sport,fitness_centre,Chevreul Sport & Fitness,45.7458801,4.8464664,69007
Gentrification - Salle Sport,fitness_centre,Oblique,45.7515265,4.8444848,69007
Gentrification - Salle Sport,fitness_centre,Fit Wave,45.7632182,4.8431909,69003
Gentrification - Salle Sport,fitness_centre,KeepCool,45.7538603,4.8937207,69003
Gentrification - Salle Sport,fitness_centre,Elancia,45.7463673,4.850955,69007
Gentrification - Salle Sport,fitness_centre,Centre Tao Yoga,45.7768287,4.8361675,69004
Gentrification - Salle Sport,fitness_centre,L'Atelier du Yoga,45.7763489,4.8338993,69004
Gentrification - Salle Sport,fitness_centre,Aquabiking,45.7752669,4.8061883,69009
Gentrification - Salle Sport,fitness_centre,On Air Fitness Lyon Saxe Gambetta,45.7533905,4.8494204,69003
Gentrification - Salle Sport,fitness_centre,BodyHit,45.7617871,4.8374184,69002
Gentrification - Salle Sport,fitness_centre,JOHN REED Lyon Part-Dieu,45.7598645,4.8557068,69003
Gentrification - Salle Sport,fitness_centre,The New Me,45.7754479,4.8326601,69004
Gentrification - Salle Sport,fitness_centre,Inconnu,45.7271363,4.822582,69007
Gentrification - Salle Sport,fitness_centre,Haltéro Club Lyonnais,45.7804758,4.8342743,69004
Gentrification - Salle Sport,fitness_centre,CrossFit Secteur 3,45.7475886,4.8822984,69003
Gentrification - Salle Sport,fitness_centre,Track & Fit,45.7539052,4.8268664,69002
Gentrification - Salle Sport,fitness_centre,Body Hit,45.7799173,4.834654,69004
Gentrification - Salle Sport,fitness_centre,Antropos Crossfit,45.7340549,4.8374887,69007
Gentrification - Salle Sport,fitness_centre,Cocon Yoga,45.7444915,4.8317536,69007
Gentrification - Salle Sport,fitness_centre,On Air Fitness,45.7676819,4.8564386,69006
Gentrification - Salle Sport,fitness_centre,Ironbody Fit,45.7635511,4.8544341,69003
Gentrification - Salle Sport,fitness_centre,Centre de fitness MYO DOJO Électrostimulation Miha Bodytec Lyon Confluence,45.7431501,4.8181658,69002
Gentrification - Salle Sport,fitness_centre,The Good Flow,45.7649115,4.8541566,69006
Gentrification - Salle Sport,fitness_centre,On Air,45.761433,4.8362867,69002
Gentrification - Salle Sport,fitness_centre,Yoga Citta,45.757433,4.8481296,69003
Gentrification - Salle Sport,fitness_centre,Agogée,45.7667831,4.8514125,69006
Gentrification - Salle Sport,fitness_centre,Basic-Fit,45.7762978,4.7967058,69009
Gentrification - Salle Sport,fitness_centre,L Form,45.7708312,4.8444931,69006
Gentrification - Salle Sport,fitness_centre,PHYSICONCEPT,45.7657102,4.8419885,69006
Gentrification - Salle Sport,fitness_centre,Yoga Room,45.7629657,4.8491524,69003
Gentrification - Salle Sport,fitness_centre,Centre de yoga Narayan,45.7731945,4.8067801,69009
Gentrification - Salle Sport,fitness_centre,Feel Gong,45.7681726,4.8596065,69006
Gentrification - Salle Sport,fitness_centre,The New Me,45.760082,4.8307074,69002
Gentrification - Salle Sport,fitness_centre,Yoga Horizon,45.7691949,4.8321279,69001
Gentrification - Salle Sport,fitness_centre,Elixir Studio,45.7522044,4.827735,69002
Gentrification - Salle Sport,fitness_centre,Essentiel Fitness,45.7747182,4.8302561,69004
Gentrification - Salle Sport,fitness_centre,Savasana,45.7805027,4.8324092,69004
Gentrification - Salle Sport,fitness_centre,Basic-Fit,45.763449,4.8068525,69009
Gentrification - Salle Sport,fitness_centre,Basic-Fit,45.7407084,4.8626557,69008
Gentrification - Salle Sport,fitness_centre,KeepCool,45.7614721,4.8560834,69003
Gentrification - Yoga,yoga,O Yoga,45.7668476,4.8436044,69006
Gentrification - Yoga,yoga,Centre de yoga Lyon Jean Macé,45.7451139,4.8457217,69007
Gentrification - Yoga,yoga,École de Yoga Mysore,45.7503946,4.8294089,69002
Gentrification - Yoga,yoga,Yoga Korner,45.7668904,4.8349262,69001
Gentrification - Yoga,yoga,Saône et Soi,45.767255,4.8245857,69005
Gentrification - Yoga,yoga,Tiny Yoga Club,45.7617636,4.8440963,69003
Gentrification - Yoga,yoga,Sesam,45.7497316,4.8389474,69007
Gentrification - Yoga,yoga,Oblique,45.7515265,4.8444848,69007
Gentrification - Yoga,yoga,Centre Tao Yoga,45.7768287,4.8361675,69004
Gentrification - Yoga,yoga,L'Atelier du Yoga,45.7763489,4.8338993,69004
Gentrification - Yoga,yoga,Pachamama,45.7745389,4.8071435,69009
Gentrification - Yoga,yoga,Cocon Yoga,45.7444915,4.8317536,69007
Gentrification - Yoga,yoga,The Good Flow,45.7649115,4.8541566,69006
Gentrification - Yoga,yoga,Yoga Citta,45.757433,4.8481296,69003
Gentrification - Yoga,yoga,Yoga Room,45.7629657,4.8491524,69003
Gentrification - Yoga,yoga,Centre de yoga Narayan,45.7731945,4.8067801,69009
Gentrification - Yoga,yoga,Yoga Horizon,45.7691949,4.8321279,69001
Gentrification - Yoga,yoga,Elixir Studio,45.7522044,4.827735,69002
Gentrification - Yoga,yoga,Savasana,45.7805027,4.8324092,69004
Gentrification - Crèche,childcare,Inconnu,45.7449963,4.8446204,69007
Gentrification - Crèche,childcare,Micro crèche,45.7568779,4.8515324,69003
Gentrification - Crèche,childcare,Crèche du pôle 9,45.8013114,4.8317689,69009
Gentrification - Crèche,childcare,Crèche multi-accueil municipale,45.7989881,4.8245755,69009
Gentrification - Crèche,childcare,Maison de l'Enfance et de la Jeunesse Croix-Rousse,45.7774808,4.8358479,69004
Gentrification - Crèche,childcare,Mes copains et moi,45.7769433,4.8303361,69004
Gentrification - Crèche,childcare,Crèche People & Baby,45.7801875,4.8347462,69004
Gentrification - Crèche,childcare,Crèche Saint-Bernard,45.7750651,4.834656,69004
Gentrification - Crèche,childcare,Crèche Pirouette,45.7797176,4.8402877,69004
Gentrification - Crèche,childcare,Chaudoudoux,45.7306311,4.8291419,69007
Gentrification - Crèche,childcare,Les Savants Fous,45.7306279,4.829386,69007
Gentrification - Crèche,childcare,Gard'eden Tourmeline,45.7582458,4.8151777,69005
Gentrification - Crèche,childcare,Babychou services,45.7371198,4.8667663,69008
Gentrification - Crèche,childcare,Nouvel ère,45.7569278,4.8158758,69005
Gentrification - Crèche,childcare,Assadia,45.7485646,4.8428068,69007
Gentrification - Crèche,childcare,Grain de Soleil,45.7527037,4.8216357,69005
Gentrification - Crèche,childcare,Crèche collective municipale Henon,45.779236,4.821366,69004
Gentrification - Crèche,childcare,Crèche Melba,45.778298,4.815654,69004
Gentrification - Épicerie Fine,deli,L'épicerie Afghane,45.7531636,4.8544064,69003
Gentrification - Épicerie Fine,deli,L'Artisanat Monastique,45.7579398,4.8293236,69002
Gentrification - Épicerie Fine,deli,Maison Godard,45.7691481,4.8522903,69006
Gentrification - Épicerie Fine,deli,Paul Basta,45.7646404,4.8282179,69005
Gentrification - Épicerie Fine,deli,Produits d'Ukraine,45.7565241,4.8430081,69003
Gentrification - Épicerie Fine,deli,Herboristerie,45.7611804,4.8267382,69005
Gentrification - Épicerie Fine,deli,Secrets d'apiculteur,45.7620838,4.8273573,69005
Gentrification - Épicerie Fine,deli,La Belle-Iloise,45.7621162,4.8273935,69005
Gentrification - Épicerie Fine,deli,Abel,45.7702135,4.8589738,69006
Gentrification - Épicerie Fine,deli,L'Atelier Espagnol,45.7540837,4.8849459,69003
Gentrification - Épicerie Fine,deli,C-Gastronomie,45.7676941,4.8423613,69006
Gentrification - Épicerie Fine,deli,Pignol,45.758388,4.8328001,69002
Gentrification - Épicerie Fine,deli,Inconnu,45.7631471,4.8280137,69005
Gentrification - Épicerie Fine,deli,Naturalmente Italiano,45.7688622,4.8487498,69006
Gentrification - Épicerie Fine,deli,Comtesse du Barry,45.7666929,4.8445039,69006
Gentrification - Épicerie Fine,deli,Épicerie sur Cours,45.7499611,4.8861669,69003
Gentrification - Épicerie Fine,deli,Grazie Gusto,45.7501335,4.8860546,69003
Gentrification - Épicerie Fine,deli,C. Reynon,45.7594318,4.8342795,69002
Gentrification - Épicerie Fine,deli,Traiteur - Épicerie italienne Nobile,45.7589605,4.8358996,69002
Gentrification - Épicerie Fine,deli,Yard,45.7587492,4.8315079,69002
Gentrification - Épicerie Fine,deli,Vatel Gourmet,45.7502325,4.8294321,69002
Gentrification - Épicerie Fine,deli,Assaggi,45.7544621,4.8322887,69002
Gentrification - Épicerie Fine,deli,L'Accord Parfait,45.7696059,4.8470349,69006
Gentrification - Épicerie Fine,deli,Little Italy,45.7559744,4.8275342,69002
Gentrification - Épicerie Fine,deli,Abel,45.7540164,4.8260899,69002
Gentrification - Épicerie Fine,deli,Mazzi,45.7525358,4.8283831,69002
Gentrification - Épicerie Fine,deli,Maison Ogier,45.7607854,4.8346817,69002
Gentrification - Épicerie Fine,deli,La Vieille Conserverie,45.7522197,4.8295719,69002
Gentrification - Épicerie Fine,deli,Tout le canard Domaine de Limagne,45.7633701,4.8328384,69002
Gentrification - Épicerie Fine,deli,Ô Divin Plaisir,45.745077,4.8667624,69008
Gentrification - Épicerie Fine,deli,G. Detou,45.7580912,4.8292007,69002
Gentrification - Épicerie Fine,deli,A l'Olivier,45.7692088,4.8478721,69006
Gentrification - Épicerie Fine,deli,La Minaudière Cellerier,45.7643253,4.8333634,69002
Gentrification - Épicerie Fine,deli,Famille Mary,45.7643908,4.8333514,69002
Gentrification - Épicerie Fine,deli,L’Épicerie de Béline,45.7472334,4.839006,69007
Gentrification - Épicerie Fine,deli,Maison Duculty,45.7620704,4.8349346,69002
Gentrification - Épicerie Fine,deli,Épicerie Madame,45.7631798,4.8351896,69002
Gentrification - Épicerie Fine,deli,Quai des Oliviers,45.7623314,4.8320968,69002
Gentrification - Épicerie Fine,deli,Lupo,45.7624554,4.8321311,69002
Gentrification - Épicerie Fine,deli,Le Petit Groin,45.7639247,4.8331098,69002
Gentrification - Épicerie Fine,deli,Délices de la Caspienne,45.7529646,4.8527841,69003
Gentrification - Épicerie Fine,deli,Baionart,45.7666325,4.8327429,69001
Gentrification - Épicerie Fine,deli,Africa Musso,45.754245,4.8438944,69007
Gentrification - Épicerie Fine,deli,Mama Angélique,45.7545511,4.8432556,69007
Gentrification - Épicerie Fine,deli,C Gastronomie,45.7603074,4.8361888,69002
Gentrification - Épicerie Fine,deli,Épicerie et Cave by Bistro Jaillet,45.7636672,4.8425452,69006
Gentrification - Épicerie Fine,deli,Clostan,45.7692704,4.850974,69006
Gentrification - Épicerie Fine,deli,Bô&Me,45.7692512,4.8507097,69006
Gentrification - Épicerie Fine,deli,Huilerie Richard,45.7694076,4.8500885,69006
Gentrification - Épicerie Fine,deli,Le Sirop de la Rue,45.7642317,4.828332,69005
Gentrification - Épicerie Fine,deli,Le Comptoir de Mathilde,45.763131,4.8280018,69005
Gentrification - Épicerie Fine,deli,L'Épicerie Artisanale du Vieux Lyon,45.763558,4.8280212,69005
Gentrification - Épicerie Fine,deli,L'Épicerie Comptoir Mère Brazier,45.7689557,4.8481921,69006
Gentrification - Épicerie Fine,deli,les Saveurs du Potager,45.7649884,4.8437398,69006
Gentrification - Épicerie Fine,deli,Pomme d'Amour,45.7670927,4.8430778,69006
Gentrification - Épicerie Fine,deli,Le primeur des Gones,45.7683715,4.8320498,69001
Gentrification - Épicerie Fine,deli,Inconnu,45.7588371,4.8304299,69002
Gentrification - Épicerie Fine,deli,Giraudet,45.7589264,4.8301309,69002
Gentrification - Épicerie Fine,deli,Le Comptoir Irlandais,45.761412,4.83164,69002
Gentrification - Épicerie Fine,deli,La Maison du Miel,45.775271,4.8312494,69004
Gentrification - Épicerie Fine,deli,Pistache d'Alep,45.7747423,4.8067204,69009
Gentrification - Épicerie Fine,deli,Patate,45.7663391,4.8199792,69005
Gentrification - Épicerie Fine,deli,Vatel Gourmet,45.7697398,4.8536037,69006
Gentrification - Épicerie Fine,deli,Les Yeux dans la Quille,45.7301091,4.8296482,69007
Gentrification - Épicerie Fine,deli,Priscilla's Lifestyle,45.7746835,4.8271986,69004
Gentrification - Épicerie Fine,deli,Nano Casa,45.7802805,4.8072585,69009
Gentrification - Épicerie Fine,deli,La maison du marron,45.7542184,4.8323862,69002
Gentrification - Épicerie Fine,deli,La Chambre Aux Confitures,45.763361,4.8353229,69002
Gentrification - Épicerie Fine,deli,Bonnard,45.7633602,4.8354132,69002
Gentrification - Épicerie Fine,deli,Le Petit Vorace,45.7726021,4.8342125,69001
Gentrification - Épicerie Fine,deli,La Madrina,45.7697258,4.8521901,69006
Gentrification - Épicerie Fine,deli,Bellaroma,45.7637191,4.8458087,69006
Gentrification - Épicerie Fine,deli,Chez Dumè,45.7681315,4.8453816,69006
Gentrification - Épicerie Fine,deli,Le Phénix,45.7666088,4.8280815,69005
Gentrification - Épicerie Fine,deli,Petit Paÿs,45.7520019,4.8553472,69003
Gentrification - Épicerie Fine,deli,Les Hâpy'Curiens,45.7475653,4.880747,69003
Gentrification - Épicerie Fine,deli,Inconnu,45.7531178,4.8538909,69003
Gentrification - Épicerie Fine,deli,Veronatuti,45.7493859,4.8475312,69007
Gentrification - Épicerie Fine,deli,Iberico & Co,45.77552,4.8326721,69004
Gentrification - Épicerie Fine,deli,Café Terroir,45.7606291,4.8339161,69002
Gentrification - Torréfacteur,coffee,Nespresso,45.7606879,4.8330975,69002
Gentrification - Torréfacteur,coffee,Bongoo café,45.7685197,4.8474846,69006
Gentrification - Torréfacteur,coffee,Jaune Cerise,45.7766715,4.8324048,69004
Gentrification - Torréfacteur,coffee,Nespresso,45.7669637,4.8440527,69006
Gentrification - Torréfacteur,coffee,La Route des Arômes,45.7544498,4.8299164,69002
Gentrification - Torréfacteur,coffee,Shouka,45.7612083,4.8319543,69002
Gentrification - Torréfacteur,coffee,Carte Blanche,45.7528108,4.8304467,69002
Gentrification - Torréfacteur,coffee,La Route des Arômes,45.7632057,4.8333722,69002
Gentrification - Torréfacteur,coffee,Torréfaction Papillons,45.7744125,4.8070738,69009
Gentrification - Torréfacteur,coffee,La Route des Arômes,45.7443336,4.8698208,69008
Gentrification - Torréfacteur,coffee,Loutsa,45.7453945,4.8658463,69008
Gentrification - Torréfacteur,coffee,Loutsa Torréfacteur,45.769423,4.8531473,69006
Gentrification - Torréfacteur,coffee,mokxa,45.7752701,4.8312802,69004
Gentrification - Torréfacteur,coffee,Shouka,45.7691572,4.8502907,69006
Gentrification - Torréfacteur,coffee,Nespresso,45.7612691,4.8552013,69003
Gentrification - Torréfacteur,coffee,Loutsa,45.7615356,4.8548129,69003
Gentrification - Torréfacteur,coffee,La Route des Arômes,45.7617405,4.8566224,69003
Gentrification - Atelier Vélo,bicycle,Culture Vélo,45.7672621,4.8247285,69005
Gentrification - Atelier Vélo,bicycle,Véran des Villes,45.7672567,4.8267576,69005
Gentrification - Atelier Vélo,bicycle,Vélonaute Tête d'Or,45.7699141,4.8472781,69006
Gentrification - Atelier Vélo,bicycle,Lyon Cycle Chic,45.7496354,4.8440923,69007
Gentrification - Atelier Vélo,bicycle,Vélonaute Liberté,45.7566431,4.842593,69003
Gentrification - Atelier Vélo,bicycle,Vélos et Compagnie,45.7775529,4.8300857,69004
Gentrification - Atelier Vélo,bicycle,Velostrada,45.7572531,4.8417193,69003
Gentrification - Atelier Vélo,bicycle,Cycles Blain - Manudany,45.767991,4.8619861,69006
Gentrification - Atelier Vélo,bicycle,Vélo Station,45.7672558,4.8252935,69005
Gentrification - Atelier Vélo,bicycle,Cyclexperts,45.7354849,4.8534583,69008
Gentrification - Atelier Vélo,bicycle,Cyclable Jean Jaurès,45.7526335,4.8460345,69007
Gentrification - Atelier Vélo,bicycle,Vélonaute Croix-Rousse,45.7794521,4.8277975,69004
Gentrification - Atelier Vélo,bicycle,Eco-triporteur Delano,45.7671337,4.8475117,69006
Gentrification - Atelier Vélo,bicycle,Vélonaute Frères Lumière,45.7464727,4.8621429,69008
Gentrification - Atelier Vélo,bicycle,Lion à Bicyclette,45.7525538,4.8533453,69003
Gentrification - Atelier Vélo,bicycle,Atelier cycle Lyon 3,45.7520069,4.8419229,69007
Gentrification - Atelier Vélo,bicycle,Cyclable Foch,45.7698667,4.8433812,69006
Gentrification - Atelier Vélo,bicycle,Giant,45.7601097,4.8412542,69003
Gentrification - Atelier Vélo,bicycle,Altermove,45.7641975,4.8450618,69006
Gentrification - Atelier Vélo,bicycle,Peugeot Cycles,45.7503937,4.8453529,69007
Gentrification - Atelier Vélo,bicycle,Cycle Service,45.7453641,4.8462221,69007
Gentrification - Atelier Vélo,bicycle,ECOX LYON,45.7639653,4.8451066,69006
Gentrification - Atelier Vélo,bicycle,Atelier Vélo Change de Chaîne,45.781507,4.8056633,69009
Gentrification - Atelier Vélo,bicycle,Cyclable Croix-Rousse,45.7769695,4.833203,69004
Gentrification - Atelier Vélo,bicycle,Méca Vélo,45.7742475,4.8086086,69009
Gentrification - Atelier Vélo,bicycle,Véran des Chemins,45.7673577,4.8262644,69005
Gentrification - Atelier Vélo,bicycle,Moustache Store by Vélonaute,45.7565659,4.8425985,69003
Gentrification - Atelier Vélo,bicycle,Cycles Millot,45.75642,4.8105437,69005
Gentrification - Atelier Vélo,bicycle,Grimpeurs Cyclist House,45.7670156,4.8309763,69001
Gentrification - Atelier Vélo,bicycle,Etablicyclette,45.764745,4.8437804,69006
Gentrification - Atelier Vélo,bicycle,Ambassade Probikeshop,45.7354325,4.8152245,69002
Gentrification - Atelier Vélo,bicycle,Baroudeur Cycles - L'Atelier,45.7685635,4.8289429,69001
Gentrification - Atelier Vélo,bicycle,Véloterie Fondation AJD,45.7637332,4.8326563,69002
Gentrification - Atelier Vélo,bicycle,Cyclable,45.7576089,4.8288278,69002
Gentrification - Atelier Vélo,bicycle,Cycles Marchi L'Atelier,45.7545227,4.8264445,69002
Gentrification - Atelier Vélo,bicycle,Le Comptoir du Cycle,45.7419643,4.8187872,69002
Gentrification - Atelier Vélo,bicycle,Giant,45.7603563,4.8412356,69003
Gentrification - Atelier Vélo,bicycle,Repair and run,45.7635019,4.8426045,69003
Gentrification - Atelier Vélo,bicycle,Véran des Routes,45.7672765,4.8266361,69005
Gentrification - Atelier Vélo,bicycle,Uniques,45.7606659,4.8453647,69003
Gentrification - Atelier Vélo,bicycle,Repair and Run,45.764124,4.8450661,69006
Gentrification - Atelier Vélo,bicycle,En Selle Marcel,45.761103,4.8377031,69002
Gentrification - Atelier Vélo,bicycle,Virvolt,45.7690942,4.8351089,69001
Gentrification - Atelier Vélo,bicycle,En Selle Marcel,45.7666635,4.8441096,69006
Gentrification - Atelier Vélo,bicycle,Dring,45.7578205,4.8523545,69003
Gentrification - Atelier Vélo,bicycle,Prestacycles,45.7352257,4.8397282,69007
Gentrification - Atelier Vélo,bicycle,Fix&Move,45.7569403,4.8330072,69002
Gentrification - Atelier Vélo,bicycle,Holland Bikes,45.7574517,4.8409227,69003
Gentrification - Atelier Vélo,bicycle,Les ateliers de l'audace,45.7595083,4.8450789,69003
Gentrification - Atelier Vélo,bicycle,Velograma,45.7566388,4.86761,69003
Gentrification - Atelier Vélo,bicycle,Cycletic Café-Vélo,45.7636179,4.8645127,69003
Gentrification - Atelier Vélo,bicycle,Baroudeur Cycles - Le Magasin,45.768787,4.8293247,69001
Gentrification - Atelier Vélo,bicycle,Montcycle,45.7535025,4.8920998,69003
Gentrification - Atelier Vélo,bicycle,Velcroc,45.7642268,4.8413299,69006
Gentrification - Atelier Vélo,bicycle,La 8ème roue,45.7239895,4.876826,69008
Gentrification - Atelier Vélo,bicycle,Recyclerie sportive,45.785558,4.7947792,69009
Gentrification - Atelier Vélo,bicycle,L'Atelier Vélo,45.7983441,4.8310816,69009
Gentrification - Atelier Vélo,bicycle,8 ô vélo,45.7372678,4.8624638,69008
Gentrification - Atelier Vélo,bicycle,Holland Bikes,45.7566729,4.8409512,69003
Gentrification - Atelier Vélo,bicycle,Epsilon Bikes,45.7377581,4.8720235,69008
Gentrification - Atelier Vélo,bicycle,Bicycl'haize,45.7565264,4.8167234,69005
Gentrification - Atelier Vélo,bicycle,VéloTech Lyon Ouest,45.7561286,4.8169892,69005
Gentrification - Atelier Vélo,bicycle,Bric à Bike,45.7359184,4.8424789,69007
Gentrification - Atelier Vélo,bicycle,L'Atelier du Chat Perché,45.7325874,4.8300114,69007
Gentrification - Atelier Vélo,bicycle,Le Petit Porteur,45.7543775,4.8266242,69002
Gentrification - Atelier Vélo,bicycle,Tournée Cycles (sur rendez-vous),45.7529638,4.8507499,69003
Gentrification - Atelier Vélo,bicycle,Roubam,45.7558429,4.8575693,69003
Gentrification - Fleuriste,florist,Fleuralyon,45.7501557,4.8867875,69003
Gentrification - Fleuriste,florist,Aux Bouquets d'Amandine,45.7298724,4.8287524,69007
Gentrification - Fleuriste,florist,L'enchantement,45.7534382,4.8910719,69003
Gentrification - Fleuriste,florist,Monceau Fleurs,45.7432447,4.8741485,69008
Gentrification - Fleuriste,florist,Maison Célestin,45.7598504,4.8267,69005
Gentrification - Fleuriste,florist,L'échappée végétale,45.7517007,4.8529466,69007
Gentrification - Fleuriste,florist,Camille Fleurs,45.766076,4.8556414,69006
Gentrification - Fleuriste,florist,Planet'Flor,45.7329859,4.8809549,69008
Gentrification - Fleuriste,florist,Aux Fleurs du Sud,45.7569188,4.8331777,69002
Gentrification - Fleuriste,florist,Maison Célestin Artisan Fleuriste,45.7754836,4.8321535,69004
Gentrification - Fleuriste,florist,Bonsaï Studio,45.7606729,4.8508183,69003
Gentrification - Fleuriste,florist,Lili Flora,45.7508744,4.8487825,69007
Gentrification - Fleuriste,florist,Fleuriste Mont d'Or,45.7882652,4.8085503,69009
Gentrification - Fleuriste,florist,Le Jardin Célestin,45.7604937,4.8310999,69002
Gentrification - Fleuriste,florist,Aux Belles Fleurs,45.7382305,4.8629091,69008
Gentrification - Fleuriste,florist,Le Jardin Saint-Louis,45.7501563,4.8478349,69007
Gentrification - Fleuriste,florist,Le Liseron,45.7547226,4.8672108,69003
Gentrification - Fleuriste,florist,Carré Fleurs,45.7771805,4.8073018,69009
Gentrification - Fleuriste,florist,Iris Fleurs,45.7499336,4.845809,69007
Gentrification - Fleuriste,florist,Au jardin de Jules Guesde,45.7469237,4.8375667,69007
Gentrification - Fleuriste,florist,Amour Floral,45.7589838,4.8457033,69003
Gentrification - Fleuriste,florist,Le secret d'une fleur,45.80037,4.8257084,69009
Gentrification - Fleuriste,florist,Fleur et Sens,45.7362239,4.8692571,69008
Gentrification - Fleuriste,florist,Les Fleurs d'Anna,45.7739367,4.823863,69004
Gentrification - Fleuriste,florist,Les Fleurs d'Anna,45.7733796,4.8218172,69004
Gentrification - Fleuriste,florist,Au Val des Roses,45.7566819,4.8669577,69003
Gentrification - Fleuriste,florist,Fleuralia,45.7638223,4.8630493,69006
Gentrification - Fleuriste,florist,Aquafleurs,45.745932,4.8642089,69008
Gentrification - Fleuriste,florist,Monceau Fleurs,45.7699155,4.8618836,69006
Gentrification - Fleuriste,florist,Dahlia Shop,45.7743281,4.8072871,69009
Gentrification - Fleuriste,florist,B. B. Fleurs,45.73016,4.8331219,69007
Gentrification - Fleuriste,florist,Lotus Fleurs,45.7695618,4.8357535,69001
Gentrification - Fleuriste,florist,Indécence,45.7635038,4.8473183,69003
Gentrification - Fleuriste,florist,Inconnu,45.7631825,4.8517858,69003
Gentrification - Fleuriste,florist,Atelier Lavarenne,45.7645601,4.8445432,69006
Gentrification - Fleuriste,florist,La Cour des Fleurs,45.7529895,4.8405082,69007
Gentrification - Fleuriste,florist,L'Atelier Vert,45.75404,4.8299145,69002
Gentrification - Fleuriste,florist,Stefanie Pastor,45.7526898,4.8285751,69002
Gentrification - Fleuriste,florist,Un Brin de Folie,45.767643,4.8317196,69001
Gentrification - Fleuriste,florist,Le Jardin de Nila,45.7351501,4.8533704,69008
Gentrification - Fleuriste,florist,Floramorphose,45.7746034,4.8061066,69009
Gentrification - Fleuriste,florist,Blandine Vallé fleuriste,45.7543979,4.8263594,69002
Gentrification - Fleuriste,florist,Le Jardin des Fleurs,45.7284615,4.8655651,69008
Gentrification - Fleuriste,florist,C. Perraud Fleurs,45.7448869,4.8675087,69008
Gentrification - Fleuriste,florist,Dulac Fleurs,45.7557346,4.8423028,69003
Gentrification - Fleuriste,florist,Interflora,45.7529498,4.8526648,69003
Gentrification - Fleuriste,florist,Bohème,45.765889,4.8313644,69001
Gentrification - Fleuriste,florist,Émilien & Coralie,45.7697035,4.8532652,69006
Gentrification - Fleuriste,florist,Les Fleurs de Marie,45.7661468,4.8442172,69006
Gentrification - Fleuriste,florist,Herbacé,45.7469285,4.8247401,69002
Gentrification - Fleuriste,florist,Mademoiselle,45.7459528,4.8233333,69002
Gentrification - Fleuriste,florist,Parenthèse florale,45.7485157,4.8381007,69007
Gentrification - Fleuriste,florist,Prequ'île Fleurs,45.7646974,4.8341362,69002
Gentrification - Fleuriste,florist,Maison Célestin,45.7456414,4.8640429,69008
Gentrification - Fleuriste,florist,Atelier Black Baccara,45.7537777,4.8879526,69003
Gentrification - Fleuriste,florist,Les Imparfaits,45.7529345,4.8319542,69002
Gentrification - Fleuriste,florist,Studio des Saisons,45.7680566,4.8446648,69006
Gentrification - Fleuriste,florist,Rhizomes,45.7794251,4.8327271,69004
Gentrification - Fleuriste,florist,Flora Moda,45.7568475,4.816043,69005
Gentrification - Fleuriste,florist,Un jardin à Lyon,45.7358459,4.8360793,69007
Gentrification - Fleuriste,florist,Atelier 3 Couleurs Vert,45.7667587,4.8450578,69006
Gentrification - Fleuriste,florist,Virginie P,45.7736373,4.8082358,69009
Gentrification - Fleuriste,florist,Sanfleurine,45.7318937,4.8533767,69008
Gentrification - Fleuriste,florist,Les fleurs de Co Ré Li,45.7413023,4.8545996,69007
Gentrification - Fleuriste,florist,Point du Jour Fleurs,45.7560561,4.7978237,69005
Gentrification - Fleuriste,florist,Chez_lisounette,45.7610692,4.8320482,69002
Gentrification - Fleuriste,florist,Brontie,45.7551896,4.8278528,69002
Gentrification - Fleuriste,florist,À Fleurs de Pots,45.7642644,4.7893959,69009
Gentrification - Fleuriste,florist,O'kiosque,45.768308,4.8422944,69006
Gentrification - Fleuriste,florist,La Garance voyageuse,45.768786,4.8421993,69006
Gentrification - Fleuriste,florist,Emilien & Coralie,45.7623434,4.8505814,69003
Gentrification - Fleuriste,florist,République Fleurs,45.7659266,4.8360485,69001
Gentrification - Fleuriste,florist,Plantes Pour Tous,45.7619244,4.8548889,69003
Gentrification - Fleuriste,florist,Jérôme B. Fleuriste,45.7608086,4.835451,69002
Nuisance - École,school,École maternelle Jean Charcot,45.7524686,4.8043258,69005
Nuisance - École,school,École maternelle Robert Doisneau,45.7687015,4.828733,69001
Nuisance - École,school,École maternelle Paul Painlevé,45.7577725,4.844753,69003
Nuisance - École,school,École maternelle Étienne Dolet,45.7575365,4.8507446,69003
Nuisance - École,school,Collège privé Aux Lazaristes,45.7607725,4.8262171,69005
Nuisance - École,school,École maternelle Jean Mermoz A,45.7349297,4.8866952,69008
Nuisance - École,school,École professionnelle privée Ifosupd,45.736367,4.8369052,69007
Nuisance - École,school,École maternelle,45.732377,4.8275489,69007
Nuisance - École,school,École privée mixte Saint-Nizier-Tour-Pitrat,45.7645721,4.8325029,69002
Nuisance - École,school,École maternelle Marcel Pagnol,45.7354687,4.8250231,69007
Nuisance - École,school,École maternelle Lumière,45.7448564,4.8698926,69008
Nuisance - École,school,École élémentaire Lumière,45.7447313,4.8705173,69008
Nuisance - École,school,École primaire privée Junior School International,45.7340495,4.8772571,69008
Nuisance - École,school,École privée Notre-Dame des Anges,45.7374966,4.832794,69007
Nuisance - École,school,École élémentaire Marcel Pagnol,45.7356289,4.8251532,69007
Nuisance - École,school,Section d'enseignement professionnel du Lycée polyvalent Hector Guimard,45.7460645,4.8576783,69007
Nuisance - École,school,École élémentaire Paul Painlevé,45.7573794,4.8448961,69003
Nuisance - École,school,Groupe scolaire Lamartine,45.7602348,4.8324795,69002
Nuisance - École,school,École maternelle Antoine Charial,45.7585177,4.8647657,69003
Nuisance - École,school,École élémentaire Antoine Charial,45.7584968,4.8650692,69003
Nuisance - École,school,École primaire privée Notre-Dame de Bellecombe,45.7660292,4.865635,69006
Nuisance - École,school,École Nouvelle de La Rize,45.7579037,4.8656296,69003
Nuisance - École,school,École primaire privée Saint-Nom de Jésus,45.7661863,4.8531562,69006
Nuisance - École,school,École de cirque de Lyon,45.7567064,4.7840938,69005
Nuisance - École,school,École élémentaire Alix,45.743805,4.8230425,69002
Nuisance - École,school,École primaire Robert Doisneau,45.7687043,4.8281389,69001
Nuisance - École,school,École maternelle Jean Gerson,45.7649286,4.8284172,69005
Nuisance - École,school,École primaire Jean Gerson,45.765136,4.8281098,69005
Nuisance - École,school,École maternelle André Philip,45.7611641,4.8500823,69003
Nuisance - École,school,École élémentaire publique André Philip,45.7611758,4.8502434,69003
Nuisance - École,school,Séminaire interdiocésain Saint-Irénée,45.7615841,4.8205882,69005
Nuisance - École,school,École maternelle Olympe de Gouges,45.7278137,4.8837744,69008
Nuisance - École,school,Lycée professionnel privé Saint-Marc,45.755064,4.8284174,69002
Nuisance - École,school,École primaire privée Chevreul Sainte-Croix,45.7511825,4.8305174,69002
Nuisance - École,school,École technologique privée de Condé,45.7518498,4.8244065,69002
Nuisance - École,school,École primaire publique Lucie Aubrac,45.7541027,4.8288314,69002
Nuisance - École,school,École technologique privée Supdemod,45.7567478,4.8345027,69002
Nuisance - École,school,École privée Silvya Terrade - International Silvya Terrade,45.7653549,4.8542693,69006
Nuisance - École,school,Lycée professionnel privé Japy,45.7680029,4.8375461,69001
Nuisance - École,school,École maternelle Michel Servet,45.7720076,4.8366397,69001
Nuisance - École,school,Lycée professionnel privé Jamet Buffereau,45.7725761,4.8231477,69001
Nuisance - École,school,École primaire Saint-Louis - Saint-Bruno,45.772307,4.8234743,69001
Nuisance - École,school,Lycée général et technologique privé Institution des Chartreux,45.7714107,4.822789,69001
Nuisance - École,school,École primaire privée Institution des Chartreux,45.7705084,4.8227152,69001
Nuisance - École,school,École maternelle Les Gémeaux,45.7505996,4.7906978,69005
Nuisance - École,school,École élémentaire Les Gémeaux,45.7509215,4.7901023,69005
Nuisance - École,school,Collège privé Deborde,45.7665989,4.855402,69006
Nuisance - École,school,Collège-Lycée privé Deborde,45.7666483,4.8554359,69006
Nuisance - École,school,École maternelle J. Couty,45.7677376,4.8531383,69006
Nuisance - École,school,École primaire privée Montessori de Lyon,45.7668947,4.8516064,69006
Nuisance - École,school,Lycée professionnel privé de Coiffure de Lyon,45.7764395,4.8272717,69004
Nuisance - École,school,Section d'enseignement professionnel du Lycée polyvalent privé Jehanne de France,45.7692448,4.8033918,69009
Nuisance - École,school,École maternelle Georges Lapierre,45.7806866,4.8393746,69004
Nuisance - École,school,École maternelle Jean Zay,45.7672461,4.8031091,69009
Nuisance - École,school,École maternelle Maurice Carême,45.7724061,4.7948048,69009
Nuisance - École,school,École maternelle Commandant Arnaud,45.7792754,4.8348844,69004
Nuisance - École,school,École élémentaire Georges Lapierre,45.7798861,4.8395933,69004
Nuisance - École,school,École élémentaire Jean Zay,45.7671511,4.8012472,69009
Nuisance - École,school,École élémentaire Commandant Arnaud,45.7793004,4.8352638,69004
Nuisance - École,school,École professionnelle privée Atelier d'Apprentissage de Gorge de Loup,45.7670826,4.797971,69009
Nuisance - École,school,École secondaire privée Bienheureux François de Fatima,45.7690903,4.7974231,69009
Nuisance - École,school,Collège privé Notre-Dame des Minimes,45.759244,4.7895956,69005
Nuisance - École,school,Lycée général et technologique privé Notre-Dame des Minimes,45.7589268,4.7891703,69005
Nuisance - École,school,École maternelle Hector Berlioz,45.764789,4.7930963,69009
Nuisance - École,school,École élémentaire Hector Berlioz,45.7642692,4.7931252,69009
Nuisance - École,school,École primaire privée Notre-Dame des Minimes,45.75774,4.7900215,69005
Nuisance - École,school,École maternelle Les Battières,45.7524611,4.7810866,69005
Nuisance - École,school,École élémentaire Diderot,45.756491,4.7854431,69005
Nuisance - École,school,École primaire privée Notre-Dame de l'Annonciation,45.7785592,4.8037168,69009
Nuisance - École,school,École maternelle privée bilingue Junior School,45.734142,4.8769844,69008
Nuisance - École,school,École primaire privée Arménienne Markarian Papazian,45.7544215,4.8523291,69003
Nuisance - École,school,École primaire privée Immaculée-Conception,45.7608774,4.8467101,69003
Nuisance - École,school,École primaire privée Saint-Sacrement,45.7580064,4.8519697,69003
Nuisance - École,school,École maternelle Anatole France,45.7527898,4.8883687,69003
Nuisance - École,school,École primaire Anatole France,45.7532145,4.8883894,69003
Nuisance - École,school,École maternelle Diderot,45.756619,4.7856092,69005
Nuisance - École,school,ÉbulliScience,45.7283704,4.883955,69008
Nuisance - École,school,Lycée professionnel privé Carrel,45.7661945,4.8497483,69006
Nuisance - École,school,Lycée Technologique privé Carrel,45.7662619,4.8497378,69006
Nuisance - École,school,Lycée technologique privé Don Bosco,45.7519102,4.8190037,69005
Nuisance - École,school,Lycée technologique privé ICOF,45.7497734,4.8135459,69005
Nuisance - École,school,École 2d Degré Professionnelle Privée Elea Presqu'Île,45.752119,4.8246922,69002
Nuisance - École,school,École primaire privée Providence des Trinitaires,45.7736417,4.8189786,69004
Nuisance - École,school,École des Enfants Intellectuels Précoces de Lyon,45.745851,4.8378751,69007
Nuisance - École,school,École maternelle Irène Joliot-Curie,45.7560656,4.7940383,69005
Nuisance - École,school,École maternelle Fulchiron,45.7571958,4.8251616,69005
Nuisance - École,school,École primaire privée Notre-Dame du Point du Jour,45.7555884,4.7969729,69005
Nuisance - École,school,École primaire privée Saint-Jean,45.7608015,4.826085,69005
Nuisance - École,school,École primaire privée Sainte-Ursule,45.7526045,4.8124408,69005
Nuisance - École,school,École primaire privée,45.7783791,4.8273463,69004
Nuisance - École,school,École élémentaire Joliot Curie,45.7558278,4.7942072,69005
Nuisance - École,school,École élémentaire Fulchiron,45.7573412,4.8252798,69005
Nuisance - École,school,Lycée professionnel Diderot,45.7696738,4.8224,69001
Nuisance - École,school,Collège Antoine de Saint-Exupéry,45.7802276,4.8220703,69004
Nuisance - École,school,Collège Jean Monnet - Annexe,45.7546888,4.8278497,69002
Nuisance - École,school,École Charles de Foucauld,45.7521976,4.8764288,69003
Nuisance - École,school,École primaire La Sauvagère,45.7956067,4.8240285,69009
Nuisance - École,school,École Lyonnaise des Plantes Médicinales,45.7711687,4.8373501,69001
Nuisance - École,school,Collège Lacassagne,45.757903,4.8703952,69003
Nuisance - École,school,Lycée général et technologique Lacassagne,45.7581336,4.8704728,69003
Nuisance - École,school,Froggy Art,45.7533832,4.8545758,69003
Nuisance - École,school,Inconnu,45.7848086,4.7972918,69009
Nuisance - École,school,Cité scolaire Antoine de Saint-Exupéry,45.7806136,4.8216774,69004
Nuisance - École,school,École Montessori de Lyon Confluence,45.7449527,4.8205603,69002
Nuisance - École,school,Collège privé Institution des Chartreux,45.7703379,4.823442,69001
Nuisance - École,school,École Atys,45.7778842,4.8298246,69004
Nuisance - École,school,Espace Lyon-Japon,45.7691719,4.8628928,69006
Nuisance - École,school,Grandir et Rire,45.7548724,4.877535,69003
Nuisance - École,school,Les Clochettes d'Espérance,45.7554205,4.873008,69003
Nuisance - École,school,Lycée Ampère-Bourse,45.7658474,4.8375034,69002
Nuisance - École,school,École Charles de Foucauld,45.7520429,4.8767914,69003
Nuisance - École,school,Collège Charles de Foucauld,45.7522416,4.8779588,69003
Nuisance - École,school,Ecole Nazareth,45.7287526,4.8315396,69007
Nuisance - École,school,La Fourmi,45.7359741,4.8776588,69008
Nuisance - École,school,centre de formation,45.7399135,4.8712035,69008
Nuisance - École,school,EDEIP,45.7322232,4.835572,69007
Nuisance - École,school,École primaire privée La Chrysalide,45.7405347,4.8491026,69007
Nuisance - École,school,Les Montessoriens de l'Ouest,45.7555437,4.8080218,69005
Nuisance - École,school,Inconnu,45.7587928,4.790112,69005
Nuisance - École,school,Institut G4,45.771506,4.7986495,69009
Nuisance - École,school,ecologica,45.7671603,4.8504338,69006
Nuisance - École,school,Institut Supérieur de l’Environnement,45.7672134,4.8504113,69006
Nuisance - École,school,Centre scolaire Ozanam,45.7651408,4.8470534,69006
Nuisance - École,school,ECOLE PRIMAIRE ANNE SYLVESTRE,45.7311954,4.8578612,69008
Nuisance - École,school,Institut National du Cycle et Motocycle (INCM),45.7515137,4.8407516,69007
Nuisance - École,school,Groupe scolaire Claudius Berthelier,45.7349985,4.8303577,69007
Nuisance - École,school,Groupe scolaire Joseph Cornier,45.7756667,4.8258317,69004
Nuisance - École,school,Groupe scolaire Les Fougères,45.7787879,4.7941539,69009
Nuisance - École,school,Lycée général et technologique La Martinière Monplaisir,45.7398295,4.8708193,69008
Nuisance - École,school,Lycée général et technologique Édouard Herriot,45.7653907,4.8451663,69006
Nuisance - École,school,Collège Vendôme (annexe),45.7718666,4.8470429,69006
Nuisance - École,school,Lycée du Parc (Internat-Annexe),45.7721931,4.8456195,69006
Nuisance - École,school,Collège Vendôme,45.7705587,4.8452112,69006
Nuisance - École,school,École maternelle privée Cours Diot,45.7677091,4.8429192,69006
Nuisance - École,school,École maternelle Viala,45.7479966,4.886045,69003
Nuisance - École,school,Annexe école primaire privée Charles de Foucauld,45.7523216,4.8759021,69003
Nuisance - École,school,École primaire Paul-Émile Victor,45.7472125,4.8644486,69008
Nuisance - École,school,École primaire Jean Macé,45.7271597,4.8770918,69008
Nuisance - École,school,École primaire privée Saint-Maurice,45.7437633,4.8687119,69008
Nuisance - École,school,École maternelle Jean Macé,45.7269639,4.8774674,69008
Nuisance - École,school,École maternelle Maryse Bastié,45.7392286,4.8736436,69008
Nuisance - École,school,École élémentaire Édouard Herriot,45.7361873,4.8822865,69008
Nuisance - École,school,École maternelle Édouard Herriot,45.7361024,4.8817707,69008
Nuisance - École,school,Lycée La Martinière Duchère,45.7849076,4.7974275,69009
Nuisance - École,school,Groupe scolaire Frida Kahlo,45.7421206,4.8500702,69007
Nuisance - École,school,École primaire Les Anémones,45.7817934,4.7939663,69009
Nuisance - École,school,École primaire Les Bleuets,45.7878939,4.7946917,69009
Nuisance - École,school,Collège Victor Schoelcher,45.7891188,4.7956648,69009
Nuisance - École,school,École primaire François Auguste Ravier,45.7389174,4.8389893,69007
Nuisance - École,school,Lycée professionnel privé Institut Technique des Carrières Carole,45.755861,4.8265857,69002
Nuisance - École,school,Collège privé Chevreul,45.7562527,4.8291399,69002
Nuisance - École,school,École générale privée Cours Pascal,45.7655021,4.8337145,69001
Nuisance - École,school,Lycée professionnel privé de Coiffure,45.7674799,4.8325745,69001
Nuisance - École,school,Lycée La Martinière Diderot - Site Terreaux - La Centrale,45.7683575,4.8314882,69001
Nuisance - École,school,Inconnu,45.7718058,4.8284091,69001
Nuisance - École,school,École maternelle Raoul Dufy,45.7729039,4.8332112,69001
Nuisance - École,school,Collège privé les Chartreux - Saint-Charles,45.776275,4.8125605,69004
Nuisance - École,school,École primaire publique des Entrepôts,45.7755885,4.8115045,69004
Nuisance - École,school,Collège La Tourette,45.7731575,4.8245606,69001
Nuisance - École,school,Collège Jean Charcot,45.7531423,4.8059235,69005
Nuisance - École,school,Collège Victor Grignard,45.725815,4.8837233,69008
Nuisance - École,school,Collège Henri Longchambon,45.7272492,4.8737234,69008
Nuisance - École,school,Lycée professionnel privé Don Bosco,45.7521145,4.8190475,69005
Nuisance - École,school,École primaire John Kennedy,45.7335792,4.871025,69008
Nuisance - École,school,École élémentaire Champvert Ouest,45.7635655,4.788753,69005
Nuisance - École,school,École maternelle Champvert Ouest A,45.7638865,4.787498,69005
Nuisance - École,school,Groupe scolaire Champvert Ouest,45.763896,4.7881955,69005
Nuisance - École,school,Lycée professionnel privé Saint-Joseph,45.7474632,4.8525486,69007
Nuisance - École,school,Collège Professeur Marcel Dargent,45.7464499,4.8708413,69003
Nuisance - École,school,Groupe scolaire Hector Berlioz,45.7646931,4.7932181,69009
Nuisance - École,school,Cité Scolaire Internationale de Lyon,45.7269902,4.8218886,69007
Nuisance - École,school,École primaire d'application Aveyron,45.7741273,4.8326838,69001
Nuisance - École,school,École primaire Louis Pergaud,45.7304236,4.8685394,69008
Nuisance - École,school,École primaire Les Gémeaux,45.7485684,4.7894759,69005
Nuisance - École,school,Groupe scolaire des Gémeaux,45.7507731,4.7903888,69005
Nuisance - École,school,Lycée Edouard Branly,45.7520458,4.7911925,69005
Nuisance - École,school,Lycée général et technologique privé Charles de Foucauld,45.7508109,4.871539,69003
Nuisance - École,school,École élémentaire Aristide Briand,45.7290067,4.8329369,69007
Nuisance - École,school,École primaire publique Montaigne,45.7656037,4.8562184,69006
Nuisance - École,school,Collège privé Saint-Louis de la Guillotière,45.748454,4.8487973,69007
Nuisance - École,school,École maternelle et primaire publique Aimé Césaire,45.7515347,4.8574116,69003
Nuisance - École,school,Lycée professionnel privé Société enseignement professionnel du Rhône,45.7462157,4.876149,69003
Nuisance - École,school,École élémentaire Jules Verne,45.749792,4.878153,69003
Nuisance - École,school,École primaire Julie-Victoire Daubié,45.7472746,4.8553008,69007
Nuisance - École,school,Institution Salésienne Notre-Dame des Minimes,45.7584367,4.7891123,69005
Nuisance - École,school,Groupe scolaire Diderot,45.7561114,4.7854455,69005
Nuisance - École,school,École Ferry Montaigne,45.7654187,4.8576656,69006
Nuisance - École,school,Collège Pierre Termier,45.7489489,4.8883646,69003
Nuisance - École,school,École maternelle Condorcet,45.7484687,4.8923703,69003
Nuisance - École,school,École primaire Condorcet,45.748345,4.891408,69003
Nuisance - École,school,École maternelle d'application Victor Hugo,45.7706476,4.8259809,69001
Nuisance - École,school,École élémentaire d'application Victor Hugo,45.7707202,4.8251785,69001
Nuisance - École,school,Lycée professionnel Jacques de Flesselles,45.7711973,4.8272716,69001
Nuisance - École,school,Groupe scolaire Robert Doisneau,45.768755,4.8284815,69001
Nuisance - École,school,Groupe scolaire Notre-Dame de Bellecombe,45.7655799,4.8663191,69006
Nuisance - École,school,Lycée Juliette Récamier,45.7495421,4.8305022,69002
Nuisance - École,school,Lycée général privé Saint-Marc,45.7546546,4.8288126,69002
Nuisance - École,school,École maternelle Condé,45.7510781,4.8313159,69002
Nuisance - École,school,École élémentaire Condé,45.7506446,4.8311781,69002
Nuisance - École,school,École primaire privée Sacré-Coeur Centre Saint-Marc,45.7564395,4.8297471,69002
Nuisance - École,school,Collège Jean Monnet,45.7455972,4.8220269,69002
Nuisance - École,school,École maternelle Alix,45.743766,4.8224027,69002
Nuisance - École,school,École maternelle Gilibert,45.7477223,4.8239753,69002
Nuisance - École,school,Ensemble scolaire privé Fénelon - La Trinité,45.7726082,4.8510692,69006
Nuisance - École,school,École primaire privée Externat de La Rédemption,45.7738349,4.846016,69006
Nuisance - École,school,École primaire privée École Bilingue La Nursery,45.7721199,4.8440711,69006
Nuisance - École,school,Groupe scolaire Jean Racine B,45.7701673,4.8462753,69006
Nuisance - École,school,École élémentaire A Jean Racine,45.7700653,4.8454594,69006
Nuisance - École,school,Centre Scolaire Deborde,45.7665654,4.8554023,69006
Nuisance - École,school,École élémentaire d'application Jean Rostand,45.7701215,4.8529168,69006
Nuisance - École,school,Lycée général privé Externat de La Trinité,45.7683534,4.8466164,69006
Nuisance - École,school,École primaire publique Créqui,45.7665907,4.8468758,69006
Nuisance - École,school,École primaire privée Cours Diot,45.7683432,4.843184,69006
Nuisance - École,school,École primaire privée Saint-Joseph des Brotteaux,45.7708626,4.8543952,69006
Nuisance - École,school,École primaire privée Saint-Pothin,45.7664066,4.8470622,69006
Nuisance - École,school,Collège Saint-Marc,45.7519338,4.8126809,69005
Nuisance - École,school,École primaire Jean-Pierre Veyet,45.7494706,4.8503457,69007
Nuisance - École,school,École primaire Chavant-Félix Faure,45.7525711,4.8478854,69007
Nuisance - École,school,École maternelle privée Notre-Dame,45.7502651,4.8470519,69007
Nuisance - École,school,École primaire privée Notre-Dame Saint-Joseph,45.751765,4.8481355,69007
Nuisance - École,school,École maternelle Jean Macé,45.7461994,4.8466274,69007
Nuisance - École,school,École primaire Jean Macé,45.7465858,4.8457941,69007
Nuisance - École,school,Collège Georges Clemenceau,45.7507282,4.8409753,69007
Nuisance - École,school,Lycée Polyvalent Hector Guimard,45.7461429,4.8580201,69007
Nuisance - École,school,École primaire Denise Domenach,45.7474651,4.836613,69007
Nuisance - École,school,École primaire privée Saint-André,45.751797,4.8387,69007
Nuisance - École,school,Lycée Belmont-Capdepon,45.7525911,4.8400128,69007
Nuisance - École,school,École primaire privée Saint-Michel,45.7465471,4.8392591,69007
Nuisance - École,school,Lycée général privé Chevreul,45.749167,4.8584047,69007
Nuisance - École,school,École maternelle Gilbert Dru,45.7532241,4.8432581,69007
Nuisance - École,school,École primaire Gilbert Dru,45.753399,4.843545,69007
Nuisance - École,school,École maternelle Pasteur,45.752921,4.8396342,69007
Nuisance - École,school,École primaire Cavenne,45.7529459,4.8392691,69007
Nuisance - École,school,Collège Chevreul-Lestonnac,45.7491948,4.8589571,69007
Nuisance - École,school,Lycée professionnel Chevreul-Lestonnac,45.7486595,4.8588448,69007
Nuisance - École,school,Lycée technologique Chevreul-Lestonnac,45.7489054,4.8589078,69007
Nuisance - École,school,École primaire privée Chevreul - Lestonnac,45.7492078,4.8591862,69007
Nuisance - École,school,École primaire Antonin Laborde,45.790374,4.8144868,69009
Nuisance - École,school,École maternelle Audrey Hepburn,45.7767736,4.8020288,69009
Nuisance - École,school,École élémentaire Audrey Hepburn,45.7770634,4.8026185,69009
Nuisance - École,school,Collège Jean-Baptiste de la Salle,45.7772836,4.8262699,69004
Nuisance - École,school,Collège Clément Marot,45.7809256,4.8244895,69004
Nuisance - École,school,École primaire Michel Servet,45.7723591,4.8366625,69001
Nuisance - École,school,Cité scolaire Antoine de Saint-Exupéry,45.7806052,4.8216059,69004
Nuisance - École,school,Inconnu,45.7350713,4.8727427,69008
Nuisance - École,school,Lycée du Parc,45.7717599,4.8575961,69006
Nuisance - École,school,École La Mache,45.7369274,4.8713787,69008
Nuisance - École,school,ORT Lyon,45.7380972,4.8682656,69008
Nuisance - École,school,Collège Gabriel Rosset,45.7292327,4.8405005,69007
Nuisance - École,school,École maternelle Aristide Briand,45.729157,4.8338286,69007
Nuisance - École,school,École primaire privée Internationale Le Petit Monde,45.7351052,4.8342408,69007
Nuisance - École,school,Groupe scolaire Lumière,45.7447341,4.8701882,69008
Nuisance - École,school,Lycée général et technologique Colbert,45.7450486,4.8599189,69008
Nuisance - École,school,École maternelle Harmonie,45.7477439,4.8729553,69003
Nuisance - École,school,École maternelle Paul-Emile Victor,45.7437569,4.8670084,69008
Nuisance - École,school,École primaire Rebatel-Harmonie,45.7471546,4.8726544,69003
Nuisance - École,school,Lycée et Collège La Favorite,45.7570729,4.8061731,69005
Nuisance - École,school,École La Petite Favorite,45.7555969,4.8050577,69005
Nuisance - École,school,École maternelle François Truffaut,45.7608145,4.8007538,69005
Nuisance - École,school,Collège Les Battières,45.7516018,4.78052,69005
Nuisance - École,school,École primaire privée bilingue West Point,45.7496381,4.7799943,69005
Nuisance - École,school,Lycée Sainte-Marie,45.765518,4.8259628,69005
Nuisance - École,school,Sainte-Marie - La Solitude,45.7643002,4.8186738,69005
Nuisance - École,school,Lycée général et technologique privé Aux Lazaristes,45.7645454,4.825795,69005
Nuisance - École,school,Groupe scolaire Jean Gerson,45.765077,4.8282755,69005
Nuisance - École,school,École maternelle La Sarra,45.7613653,4.8153723,69005
Nuisance - École,school,Collège Gilbert Dru,45.7533829,4.8645554,69003
Nuisance - École,school,École primaire publique Montbrillant,45.751503,4.8703044,69003
Nuisance - École,school,École maternelle Jean de la Fontaine,45.778182,4.8195154,69004
Nuisance - École,school,École maternelle Jean de la Fontaine,45.778304,4.8200496,69004
Nuisance - École,school,École primaire privée Charles Demia,45.7800247,4.8180213,69004
Nuisance - École,school,École élémentaire d'application La Fontaine,45.778818,4.8199355,69004
Nuisance - École,school,Collège privé Saint-Denis,45.7792025,4.8312606,69004
Nuisance - École,school,Groupe scolaire Commandant Arnaud,45.7792625,4.8353525,69004
Nuisance - École,school,Lycée professionnel Camille Claudel,45.7770361,4.8294738,69004
Nuisance - École,school,École maternelle Les Petits Canuts,45.7798129,4.8313021,69004
Nuisance - École,school,École primaire privée Saint-Denis,45.7802647,4.831486,69004
Nuisance - École,school,Collège Bellecombe,45.7668128,4.8626563,69006
Nuisance - École,school,Collège Louis Jouvet,45.76058,4.8732934,69003
Nuisance - École,school,Groupe scolaire Paul Painlevé,45.757617,4.8445478,69003
Nuisance - École,school,École Charial,45.7587381,4.8649723,69003
Nuisance - École,school,École maternelle Laurent Mourguet,45.7601662,4.8675538,69003
Nuisance - École,school,École élémentaire Pompidou,45.7596511,4.8674324,69003
Nuisance - École,school,Collège Jean Moulin,45.7576966,4.8201655,69005
Nuisance - École,school,Lycée de Saint-Just,45.7563037,4.8218588,69005
Nuisance - École,school,École maternelle Ferdinand Buisson,45.7572602,4.8111149,69005
Nuisance - École,school,École élémentaire Ferdinand Buisson,45.7571225,4.811767,69005
Nuisance - École,school,École primaire privée Saint-Just Saint-Irénée,45.7571767,4.8139034,69005
Nuisance - École,school,École primaire publique Albert Camus,45.757871,4.8166538,69005
Nuisance - École,school,Lycée La Martinière Diderot - Site Diderot,45.7697768,4.8231471,69001
Nuisance - École,school,Lycée général privé La Xavière,45.7276408,4.8516684,69008
Nuisance - École,school,École primaire Jean Giono,45.7275088,4.8748943,69008
Nuisance - École,school,École maternelle de La Gare d'Eau,45.7795057,4.8080365,69009
Nuisance - École,school,École élémentaire de La Gare d'Eau,45.7795141,4.8076935,69009
Nuisance - École,school,École primaire publique Michelet,45.7549006,4.8320953,69002
Nuisance - École,school,École primaire Marie Bordas,45.7309286,4.8507435,69008
Nuisance - École,school,École élémentaire Combe Blanche,45.7384788,4.8656002,69008
Nuisance - École,school,École maternelle Combe Blanche,45.7390135,4.8659469,69008
Nuisance - École,school,École maternelle Charles Péguy,45.7339296,4.8650753,69008
Nuisance - École,school,École élémentaire Charles Péguy,45.7345379,4.8645497,69008
Nuisance - École,school,Lycée Auguste et Louis Lumière,45.7355745,4.8617891,69008
Nuisance - École,school,Lycée professionnel Jean Lurçat,45.7323957,4.8623565,69008
Nuisance - École,school,École maternelle Jules Verne,45.7500475,4.8774618,69003
Nuisance - École,school,Lycée Jean Perrin,45.7930947,4.8162238,69009
Nuisance - École,school,Collège Jean Perrin,45.7942022,4.8171135,69009
Nuisance - École,school,Collège Jean de Verrazane,45.7737535,4.8041037,69009
Nuisance - École,school,École maternelle Jean Rostand,45.7700649,4.8524802,69006
Nuisance - École,school,École maternelle Antoine de Saint-Exupéry,45.7597408,4.8464414,69003
Nuisance - École,school,École élémentaire Mazenod,45.7585739,4.8472715,69003
Nuisance - École,school,Collège Raoul Dufy,45.7586043,4.8477004,69003
Nuisance - École,school,École élémentaire Jean Jaurès,45.764089,4.8504528,69006
Nuisance - École,school,École maternelle Jean Jaurès,45.7638299,4.8503294,69006
Nuisance - École,school,École maternelle publique Pierre Corneille,45.7664317,4.843602,69006
Nuisance - École,school,École élémentaire publique Pierre Corneille,45.7663187,4.8436201,69006
Nuisance - École,school,École élémentaire Meynis,45.755388,4.8702429,69003
Nuisance - École,school,École maternelle Meynis,45.7557633,4.870399,69003
Nuisance - École,school,Lycée La Martinière Diderot - Site Terreaux - Les Augustins,45.7677877,4.830008,69001
Nuisance - École,school,Collège Alice Guy,45.7361838,4.8655426,69008
Nuisance - École,school,École primaire Jean Mermoz,45.7332242,4.8870939,69008
Nuisance - École,school,École maternelle Jean Mermoz B,45.7329989,4.8879198,69008
Nuisance - École,school,Collège Jean Mermoz,45.7335518,4.888292,69008
Nuisance - École,school,Collège Ampère,45.765209,4.8375078,69002
Nuisance - École,school,Collège Molière,45.7494096,4.8853313,69003
Nuisance - École,school,Collège privé Saint-Louis - Saint-Bruno,45.7711219,4.8174751,69001
Nuisance - École,school,École primaire privée Pierre Termier,45.7409202,4.8728884,69008
Nuisance - École,school,Collège et Lycée privé Pierre Termier,45.742098,4.8731705,69008
Nuisance - École,school,École maternelle du Gros Caillou,45.7750498,4.8343608,69004
Nuisance - École,school,Lycée professionnel Louise Labé,45.7395044,4.8318664,69007
Nuisance - École,school,Lycée Ampère-Saxe,45.7554495,4.847144,69003
Nuisance - École,school,École primaire Louis Pradel,45.7683944,4.853636,69006
Nuisance - École,school,Internat Adolphe Favre,45.7810045,4.8182149,69004
Nuisance - École,school,Institution des Chartreux,45.7709248,4.8233783,69001
Nuisance - École,school,Etablissement scolaire provisoire,45.7464333,4.8529828,69007
Nuisance - École,school,École primaire Paul Bert,45.7568742,4.8704063,69003
Nuisance - École,school,Groupe scolaire Les Dalhias,45.7863057,4.8005718,69009
Nuisance - École,school,Groupe scolaire Germaine Tillion,45.7438245,4.8195879,69002
Nuisance - École,school,École primaire des Tables Claudiennes,45.7705924,4.831091,69001
Nuisance - École,school,École maternelle publique Frédéric Mistral,45.8006793,4.8243862,69009
Nuisance - École,school,École élémentaire Frédéric Mistral,45.8012683,4.823791,69009
Nuisance - École,school,École primaire d'application Les Grillons,45.800372,4.8269918,69009
Nuisance - École,school,École Primaire Marcel Pagnol,45.7357116,4.8247504,69007
Nuisance - École,school,École maternelle publique Crestin,45.74729,4.856759,69007
Nuisance - École,school,Groupe scolaire Françoise Héritier,45.7416411,4.8335248,69007
Nuisance - École,school,École maternelle publique Simone Veil,45.7402094,4.862112,69008
Nuisance - École,school,École primaire Joannes Masset,45.769948,4.8023111,69009
Nuisance - École,school,École élémentaire du Chapeau Rouge,45.7711261,4.8082999,69009
Nuisance - École,school,École maternelle Chapeau Rouge,45.7715686,4.8083919,69009
Nuisance - École,school,École primaire Alain Fournier,45.7272029,4.8642559,69008
Nuisance - École,school,Lycée privé Jean-Baptiste de La Salle,45.7718058,4.828743,69001
Nuisance - École,school,Lycée général et technologique privé Saint-Bruno-Saint-Louis,45.7714539,4.8236025,69001
Nuisance - École,school,Lycée professionnel du Premier Film,45.7450971,4.8687147,69008
Nuisance - École,school,Lycée Docteur Charles Mérieux,45.732447,4.8224289,69007
Nuisance - École,school,Collège Gisèle Halimi,45.7415204,4.8353054,69007
Nuisance - École,school,Groupe scolaire Anne Sylvestre,45.7312699,4.8578183,69008
Nuisance - École,school,Groupe scolaire Eugénie-Brazier,45.739655,4.8205754,69002
Nuisance - École,school,Inconnu,45.7346133,4.8723091,69008
Nuisance - École,school,Groupe scolaire Jean Mermoz,45.7334143,4.8877713,69008
Nuisance - École,school,Notre Dame de l'Assomption,45.7256578,4.8780888,69008
Nuisance - École,school,Cours élementaire de l'école Léon Jouhaux,45.7563364,4.853448,69003
Nuisance - École,school,École primaire Louise,45.7488611,4.8858191,69003
Nuisance - École,school,École maternelle Mathilde Siraud,45.7555429,4.8206253,69005
Nuisance - École,school,École primaire publique Simone Signoret,45.7415482,4.8695082,69008
Nuisance - École,school,Groupe Scolaire Wangari-Maathaï,45.7361638,4.8409115,69007
Nuisance - École,school,Groupe scolaire Jean-Pierre Veyet,45.7495217,4.8506192,69007
Nuisance - École,school,École élémentaire Philibert Delorme,45.7347757,4.8540749,69008
Nuisance - École,school,École maternelle Philibert Delorme,45.7352505,4.8549789,69008
Nuisance - École,school,Lycée Technologique ICOF,45.7500117,4.8132746,69005
Nuisance - École,school,Inconnu,45.751854,4.8186846,69005
Nuisance - École,school,Groupe Scolaire Chevalier Bayard,45.7677721,4.8124116,69009
Nuisance - École,school,École maternelle privée Saint-Maurice,45.7436547,4.867401,69008
Nuisance - École,school,École maternelle les Églantines,45.7906643,4.8012914,69009
Nuisance - École,school,Lycée Ampère,45.765776,4.837452,69002
Nuisance - École,school,École maternelle Audrey Hepburn,45.7766437,4.8031631,69009
Nuisance - École,school,École primaire Alphonse Daudet,45.804019,4.836116,69009
Nuisance - École,school,Lycée professionnel Jehanne de France,45.7690308,4.8033467,69009
Nuisance - École,school,École maternelle Gabriel Nové-Josserand,45.7510644,4.8668211,69003
Nuisance - École,school,École professionnelle privée Athéna,45.7670229,4.836468,69001
Nuisance - École,school,École élémentaire Meissonier,45.7658003,4.833887,69001
Nuisance - École,school,École maternelle Jean Giono,45.7274175,4.874597,69008
Nuisance - École,school,Lycée La Martinière Diderot,45.7689331,4.8262266,69001
Nuisance - École,school,Groupe Scolaire Gabriel Nové-Josserand,45.7506334,4.8675201,69003
Nuisance - École,school,École Léon Jouhaux,45.7558545,4.8536245,69003
Nuisance - Aire de jeux,playground,Inconnu,45.7662084,4.8449118,69006
Nuisance - Aire de jeux,playground,Inconnu,45.7528894,4.8555583,69003
Nuisance - Aire de jeux,playground,Inconnu,45.7526349,4.8556119,69003
Nuisance - Aire de jeux,playground,Inconnu,45.7525376,4.8550862,69003
Nuisance - Aire de jeux,playground,Inconnu,45.7526873,4.855054,69003
Nuisance - Aire de jeux,playground,Inconnu,45.7528445,4.8550218,69003
Nuisance - Aire de jeux,playground,Inconnu,45.7546449,4.850269,69003
Nuisance - Aire de jeux,playground,Inconnu,45.7521857,4.8572105,69003
Nuisance - Aire de jeux,playground,Inconnu,45.7690601,4.841474,69006
Nuisance - Aire de jeux,playground,Inconnu,45.76909,4.8424854,69006
Nuisance - Aire de jeux,playground,Inconnu,45.7742837,4.8271987,69004
Nuisance - Aire de jeux,playground,Inconnu,45.7774428,4.8313649,69004
Nuisance - Aire de jeux,playground,Circuit équilibre 2-8ans,45.7573419,4.830743,69002
Nuisance - Aire de jeux,playground,Inconnu,45.7531674,4.8497879,69003
Nuisance - Aire de jeux,playground,Inconnu,45.7532031,4.8498181,69003
Nuisance - Aire de jeux,playground,Inconnu,45.7532295,4.8497467,69003
Nuisance - Aire de jeux,playground,Inconnu,45.7641392,4.8660343,69006
Nuisance - Aire de jeux,playground,Inconnu,45.7573179,4.8515078,69003
Nuisance - Aire de jeux,playground,Inconnu,45.7650577,4.8674563,69006
Nuisance - Aire de jeux,playground,Inconnu,45.7478663,4.7900206,69005
Nuisance - Aire de jeux,playground,Inconnu,45.7777851,4.8232994,69004
Nuisance - Aire de jeux,playground,Inconnu,45.7795805,4.8358957,69004
Nuisance - Aire de jeux,playground,Inconnu,45.779888,4.8360163,69004
Nuisance - Aire de jeux,playground,Inconnu,45.7731121,4.8327407,69001
Nuisance - Aire de jeux,playground,Inconnu,45.7432243,4.8172203,69002
Nuisance - Aire de jeux,playground,Inconnu,45.7433779,4.8171943,69002
Nuisance - Aire de jeux,playground,Inconnu,45.7728928,4.8293442,69001
Nuisance - Aire de jeux,playground,Inconnu,45.7728886,4.8265532,69001
Nuisance - Aire de jeux,playground,Inconnu,45.7594042,4.8633276,69003
Nuisance - Aire de jeux,playground,Inconnu,45.7686733,4.8155113,69001
Nuisance - Aire de jeux,playground,ressort,45.7572482,4.8306731,69002
Nuisance - Aire de jeux,playground,Inconnu,45.7450789,4.8470798,69007
Nuisance - Aire de jeux,playground,Inconnu,45.7531428,4.844288,69007
Nuisance - Aire de jeux,playground,Inconnu,45.7650372,4.8672575,69006
Nuisance - Aire de jeux,playground,Inconnu,45.7690055,4.8419918,69006
Nuisance - Aire de jeux,playground,Inconnu,45.7363789,4.8534432,69008
Nuisance - Aire de jeux,playground,Inconnu,45.7998608,4.8217178,69009
Nuisance - Aire de jeux,playground,Inconnu,45.7613411,4.7995937,69005
Nuisance - Aire de jeux,playground,Inconnu,45.7713326,4.8363416,69001
Nuisance - Aire de jeux,playground,Inconnu,45.7455195,4.8199405,69002
Nuisance - Aire de jeux,playground,Inconnu,45.7720271,4.8217414,69001
Nuisance - Aire de jeux,playground,Inconnu,45.7227176,4.8819812,69008
Nuisance - Aire de jeux,playground,Inconnu,45.7520171,4.8571464,69003
Nuisance - Aire de jeux,playground,Inconnu,45.7522091,4.8573429,69003
Nuisance - Aire de jeux,playground,Inconnu,45.7794412,4.8400769,69004
Nuisance - Aire de jeux,playground,Inconnu,45.7795118,4.8400594,69004
Nuisance - Aire de jeux,playground,Inconnu,45.779494,4.8399823,69004
Nuisance - Aire de jeux,playground,Inconnu,45.7794739,4.8400112,69004
Nuisance - Aire de jeux,playground,Inconnu,45.7695747,4.8338271,69001
Nuisance - Aire de jeux,playground,Inconnu,45.7551445,4.8069894,69005
Nuisance - Aire de jeux,playground,Inconnu,45.7996582,4.822559,69009
Nuisance - Aire de jeux,playground,Inconnu,45.7490654,4.886946,69003
Nuisance - Aire de jeux,playground,Inconnu,45.7449144,4.83139,69007
Nuisance - Aire de jeux,playground,Inconnu,45.7732046,4.8265787,69001
Nuisance - Aire de jeux,playground,Inconnu,45.7749479,4.834194,69004
Nuisance - Aire de jeux,playground,Inconnu,45.7588499,4.8541575,69003
Nuisance - Aire de jeux,playground,Inconnu,45.7347906,4.8508734,69008
Nuisance - Aire de jeux,playground,Inconnu,45.7715446,4.836527,69001
Nuisance - Aire de jeux,playground,Inconnu,45.7336755,4.8628184,69008
Nuisance - Aire de jeux,playground,Inconnu,45.7690219,4.8417964,69006
Nuisance - Aire de jeux,playground,Inconnu,45.7715164,4.8365469,69001
Nuisance - Aire de jeux,playground,Inconnu,45.7714982,4.8365043,69001
Nuisance - Aire de jeux,playground,Inconnu,45.7661914,4.8447327,69006
Nuisance - Aire de jeux,playground,Inconnu,45.7662246,4.8450952,69006
Nuisance - Aire de jeux,playground,Inconnu,45.7570566,4.8449941,69003
Nuisance - Aire de jeux,playground,Inconnu,45.7570377,4.8450268,69003
Nuisance - Aire de jeux,playground,Inconnu,45.7570902,4.8451197,69003
Nuisance - Aire de jeux,playground,Inconnu,45.7663661,4.8410672,69006
Nuisance - Aire de jeux,playground,Inconnu,45.7504467,4.8578776,69003
Nuisance - Aire de jeux,playground,circuit équilibre 4-12ans,45.7573697,4.8305312,69002
Nuisance - Aire de jeux,playground,Structure de cordage 2-12ans,45.7573085,4.8304767,69002
Nuisance - Aire de jeux,playground,structure de grimpe 6-12ans,45.7574121,4.8304822,69002
Nuisance - Aire de jeux,playground,ressort 2ans,45.7572736,4.830782,69002
Nuisance - Aire de jeux,playground,balance duo,45.7572446,4.8307659,69002
Nuisance - Aire de jeux,playground,Inconnu,45.7573043,4.8307354,69002
Nuisance - Aire de jeux,playground,Inconnu,45.7639118,4.8660387,69006
Nuisance - Aire de jeux,playground,Inconnu,45.764027,4.8660385,69006
Nuisance - Aire de jeux,playground,Inconnu,45.7800779,4.825662,69004
Nuisance - Aire de jeux,playground,Inconnu,45.7303523,4.8848665,69008
Nuisance - Aire de jeux,playground,Inconnu,45.7379079,4.8795283,69008
Nuisance - Aire de jeux,playground,Inconnu,45.7377825,4.8793378,69008
Nuisance - Aire de jeux,playground,Inconnu,45.761607,4.8542529,69003
Nuisance - Aire de jeux,playground,Inconnu,45.7411862,4.8842362,69008
Nuisance - Aire de jeux,playground,Inconnu,45.746212,4.8854332,69003
Nuisance - Aire de jeux,playground,Inconnu,45.7523874,4.782453,69005
Nuisance - Aire de jeux,playground,Inconnu,45.7325726,4.8363394,69007
Nuisance - Aire de jeux,playground,Inconnu,45.7290388,4.8812048,69008
Nuisance - Aire de jeux,playground,Inconnu,45.7649921,4.8668421,69006
Nuisance - Aire de jeux,playground,Inconnu,45.7318416,4.8670985,69008
Nuisance - Aire de jeux,playground,Inconnu,45.80073,4.8293398,69009
Nuisance - Aire de jeux,playground,Inconnu,45.7392025,4.8342102,69007
Nuisance - Aire de jeux,playground,Inconnu,45.76401,4.831597,69002
Nuisance - Aire de jeux,playground,Parc de Gerland Nord,45.7244159,4.8215589,0
Nuisance - Aire de jeux,playground,Inconnu,45.7456911,4.8682676,69008
Nuisance - Aire de jeux,playground,Inconnu,45.7380141,4.8591682,69008
Nuisance - Aire de jeux,playground,Inconnu,45.7521299,4.8976886,69003
Nuisance - Aire de jeux,playground,Inconnu,45.7519883,4.8823327,69003
Nuisance - Aire de jeux,playground,Square Ninon Vallin,45.7840159,4.8235565,69004
Nuisance - Aire de jeux,playground,Square Docteur Jean Reverzy,45.7517114,4.8715544,69003
Nuisance - Aire de jeux,playground,Aire de Jeux Sainte-Anne,45.7573078,4.8654731,69003
Nuisance - Aire de jeux,playground,Jardin Jean Choux,45.7556266,4.8191579,69005
Nuisance - Aire de jeux,playground,Aires de Jeux Etoile de Mer,45.7795466,4.7926918,69009
Nuisance - Aire de jeux,playground,Inconnu,45.7570097,4.8450639,69003
Nuisance - Aire de jeux,playground,Inconnu,45.775935,4.8538965,69006
Nuisance - Aire de jeux,playground,Inconnu,45.7525737,4.8383449,69007
Nuisance - Aire de jeux,playground,Square Charles Marie Widor,45.755069,4.831588,69002
Nuisance - Aire de jeux,playground,Inconnu,45.7658404,4.8411467,69006
Nuisance - Aire de jeux,playground,Square Jules Verne,45.7505654,4.8775387,69003
Nuisance - Aire de jeux,playground,Marie-Madelaine Fourcade,45.7374419,4.8376667,69007
Nuisance - Aire de jeux,playground,Square Moncey-Dunoir,45.761437,4.8502053,69003
Nuisance - Aire de jeux,playground,Jardin des Abruzzes,45.736618,4.8345017,69007
Nuisance - Aire de jeux,playground,Square Lafont,45.7379382,4.8860496,69008
Nuisance - Aire de jeux,playground,Inconnu,45.7434659,4.8191388,69002
Nuisance - Aire de jeux,playground,Inconnu,45.7617177,4.8634636,69003
Nuisance - Aire de jeux,playground,Inconnu,45.7575684,4.8253146,69005
Nuisance - Aire de jeux,playground,Jardin Garibaldi Europe,45.7646503,4.8507738,69006
Nuisance - Aire de jeux,playground,Inconnu,45.7343824,4.8734488,69008
Nuisance - Aire de jeux,playground,Inconnu,45.7581983,4.8262051,69005
Nuisance - Aire de jeux,playground,"Jardin Charles, Léopold et Marcel Renard",45.7683959,4.8528738,69006
Nuisance - Aire de jeux,playground,Inconnu,45.7452471,4.8240004,69002
Nuisance - Aire de jeux,playground,Inconnu,45.7605291,4.7903548,69005
Nuisance - Aire de jeux,playground,Inconnu,45.7508363,4.8284265,69002
Nuisance - Aire de jeux,playground,Inconnu,45.7506544,4.8283143,69002
Nuisance - Aire de jeux,playground,Inconnu,45.724198,4.8216632,0
Nuisance - Aire de jeux,playground,Inconnu,45.7516062,4.8682027,69003
Nuisance - Aire de jeux,playground,Square Daisy Martin,45.753012,4.8630483,69003
Nuisance - Aire de jeux,playground,Inconnu,45.7533513,4.8667502,69003
Nuisance - Aire de jeux,playground,Inconnu,45.7486506,4.7911976,69005
Nuisance - Aire de jeux,playground,Inconnu,45.7558777,4.7887464,69005
Nuisance - Aire de jeux,playground,Inconnu,45.7555098,4.783102,69005
Nuisance - Aire de jeux,playground,Inconnu,45.7557228,4.7856596,69005
Nuisance - Aire de jeux,playground,Inconnu,45.78115,4.8330054,69004
Nuisance - Aire de jeux,playground,Aire de Jeux de la Place de la Reconnaissance,45.7538686,4.8858875,69003
Nuisance - Aire de jeux,playground,Inconnu,45.7661691,4.7903191,69009
Nuisance - Aire de jeux,playground,Inconnu,45.7632018,4.7958215,69005
Nuisance - Aire de jeux,playground,Inconnu,45.7578292,4.8254322,69005
Nuisance - Aire de jeux,playground,Square d'Aubigny,45.7614909,4.8634222,69003
Nuisance - Aire de jeux,playground,Square Janmot,45.7544152,4.825826,69002
Nuisance - Aire de jeux,playground,Aire de Jeux Revel,45.7780733,4.8207669,69004
Nuisance - Aire de jeux,playground,Inconnu,45.7774979,4.8184686,69004
Nuisance - Aire de jeux,playground,La Vague des remparts,45.7463872,4.8543141,69007
Nuisance - Aire de jeux,playground,Inconnu,45.7671817,4.8577815,69006
Nuisance - Aire de jeux,playground,Inconnu,45.7463434,4.8445082,69007
Nuisance - Aire de jeux,playground,Inconnu,45.7767208,4.8036027,69009
Nuisance - Aire de jeux,playground,Inconnu,45.74484,4.8572408,69007
Nuisance - Aire de jeux,playground,Inconnu,45.7733082,4.8009665,69009
Nuisance - Aire de jeux,playground,Inconnu,45.7781081,4.7931919,69130
Nuisance - Aire de jeux,playground,Inconnu,45.7766001,4.8055467,69009
Nuisance - Aire de jeux,playground,Inconnu,45.7720166,4.8062559,69009
Nuisance - Aire de jeux,playground,Inconnu,45.7973022,4.8322082,69009
Nuisance - Aire de jeux,playground,Inconnu,45.7739943,4.8048263,69009
Nuisance - Aire de jeux,playground,Inconnu,45.7720028,4.8065283,69009
Nuisance - Aire de jeux,playground,Inconnu,45.7255964,4.8524743,69200
Nuisance - Aire de jeux,playground,Inconnu,45.7688667,4.7960466,69009
Nuisance - Aire de jeux,playground,Inconnu,45.7677369,4.7923989,69009
Nuisance - Aire de jeux,playground,Inconnu,45.7677547,4.7929004,69009
Nuisance - Aire de jeux,playground,Inconnu,45.7760774,4.8168347,69004
Nuisance - Aire de jeux,playground,Inconnu,45.7764653,4.8111626,69004
Nuisance - Aire de jeux,playground,Inconnu,45.7484055,4.85022,69007
Nuisance - Aire de jeux,playground,Inconnu,45.7478032,4.838432,69007
Nuisance - Aire de jeux,playground,Inconnu,45.7526326,4.8496654,69007
Nuisance - Aire de jeux,playground,Inconnu,45.7531874,4.8497214,69003
Nuisance - Aire de jeux,playground,Inconnu,45.7549161,4.8399451,69007
Nuisance - Aire de jeux,playground,Inconnu,45.7495408,4.8531486,69007
Nuisance - Aire de jeux,playground,Inconnu,45.7688661,4.8270952,69001
Nuisance - Aire de jeux,playground,Jardin Valencio,45.7582304,4.8250438,69005
Nuisance - Aire de jeux,playground,Inconnu,45.7394231,4.839437,69007
Nuisance - Aire de jeux,playground,Inconnu,45.7339455,4.8388889,69007
Nuisance - Aire de jeux,playground,Inconnu,45.7619496,4.816202,69005
Nuisance - Aire de jeux,playground,Inconnu,45.7725372,4.7945532,69009
Nuisance - Aire de jeux,playground,Aire de Jeux Fraternité,45.7407299,4.8594939,69008
Nuisance - Aire de jeux,playground,Inconnu,45.7596149,4.8714815,69003
Nuisance - Aire de jeux,playground,Inconnu,45.7204127,4.8246488,69007
Nuisance - Aire de jeux,playground,Inconnu,45.7201346,4.824181,69007
Nuisance - Aire de jeux,playground,Inconnu,45.7205943,4.8249538,69007
Nuisance - Aire de jeux,playground,Inconnu,45.7714764,4.8442296,69006
Nuisance - Aire de jeux,playground,Inconnu,45.786165,4.8128839,69009
Nuisance - Aire de jeux,playground,Inconnu,45.7727305,4.8351727,69001
Nuisance - Aire de jeux,playground,Inconnu,45.7494705,4.8873081,69003
Nuisance - Aire de jeux,playground,Inconnu,45.7677211,4.8066726,69009
Nuisance - Aire de jeux,playground,Inconnu,45.7697603,4.8073707,69009
Nuisance - Aire de jeux,playground,Inconnu,45.7823526,4.7925765,69009
Nuisance - Aire de jeux,playground,Inconnu,45.7793655,4.8196386,69004
Nuisance - Aire de jeux,playground,Inconnu,45.7585829,4.7946058,69005
Nuisance - Aire de jeux,playground,Inconnu,45.7796778,4.7944844,69009
Nuisance - Aire de jeux,playground,Aire de jeux Paul Sedaillan,45.7941139,4.822476,69009
Nuisance - Aire de jeux,playground,Inconnu,45.7779237,4.8164528,69004
Nuisance - Aire de jeux,playground,Square Frédéric Dard,45.7750495,4.8350169,69004
Nuisance - Aire de jeux,playground,Aire de Jeux Masset,45.7686637,4.8005316,69009
Nuisance - Aire de jeux,playground,Inconnu,45.7370039,4.8328242,69007
Nuisance - Aire de jeux,playground,Inconnu,45.7858228,4.792127,69009
Nuisance - Aire de jeux,playground,Inconnu,45.7436426,4.8613469,69008
Nuisance - Aire de jeux,playground,Inconnu,45.7593561,4.7856754,69005
Nuisance - Aire de jeux,playground,Jardin de la Laïcité,45.7390063,4.8671819,69008
Nuisance - Aire de jeux,playground,Place Chazette,45.7732589,4.8378543,69001
Nuisance - Aire de jeux,playground,Inconnu,45.7736179,4.8007672,69009
Nuisance - Aire de jeux,playground,Square Professeur Morat,45.7348982,4.8794309,69008
Nuisance - Aire de jeux,playground,Square Professeur Morat,45.7346776,4.8790424,69008
Nuisance - Aire de jeux,playground,Inconnu,45.743199,4.8688844,69008
Nuisance - Aire de jeux,playground,Inconnu,45.7344355,4.8222941,69007
Nuisance - Aire de jeux,playground,Inconnu,45.8038282,4.8350953,69009
Nuisance - Aire de jeux,playground,Inconnu,45.798469,4.8297957,69009
Nuisance - Aire de jeux,playground,Inconnu,45.748823,4.8767474,69003
Nuisance - Aire de jeux,playground,Inconnu,45.7202082,4.8243522,69007
Nuisance - Aire de jeux,playground,Inconnu,45.720685,4.8251055,69007
Nuisance - Aire de jeux,playground,Inconnu,45.7207889,4.8252569,69007
Nuisance - Aire de jeux,playground,Inconnu,45.7210103,4.8255483,69007
Nuisance - Aire de jeux,playground,Inconnu,45.7210969,4.8256856,69007
Nuisance - Aire de jeux,playground,Inconnu,45.7212094,4.8258807,69007
Nuisance - Aire de jeux,playground,Inconnu,45.7212763,4.8260321,69007
Nuisance - Aire de jeux,playground,Inconnu,45.7302308,4.8211494,69007
Nuisance - Aire de jeux,playground,Aire de jeux,45.774548,4.8517272,69006
Nuisance - Aire de jeux,playground,Aire de jeux Philomène Rozan,45.7907444,4.8163279,69009
Nuisance - Aire de jeux,playground,Inconnu,45.7713985,4.8208157,69001
Nuisance - Aire de jeux,playground,Inconnu,45.7832591,4.8580246,69006
Nuisance - Aire de jeux,playground,Inconnu,45.7690964,4.8237068,69001
Nuisance - Aire de jeux,playground,Inconnu,45.7493256,4.8206686,69002
Nuisance - Aire de jeux,playground,Inconnu,45.7670873,4.8021532,69009
Nuisance - Aire de jeux,playground,Inconnu,45.7299032,4.8652698,69008
Nuisance - Aire de jeux,playground,Inconnu,45.7311472,4.8645919,69008
Nuisance - Aire de jeux,playground,Inconnu,45.7867199,4.8065121,69009
Nuisance - Aire de jeux,playground,Inconnu,45.7902182,4.7976136,69009
Nuisance - Aire de jeux,playground,Square Diday,45.7524048,4.8746574,69003
Nuisance - Aire de jeux,playground,Inconnu,45.773184,4.84171,69006
Nuisance - Aire de jeux,playground,Inconnu,45.7897041,4.8023571,69009
Nuisance - Aire de jeux,playground,Inconnu,45.7876245,4.791695,69009
Nuisance - Aire de jeux,playground,Inconnu,45.7484922,4.8766691,69003
Nuisance - Aire de jeux,playground,Inconnu,45.7570543,4.8018483,69005
Nuisance - Aire de jeux,playground,Inconnu,45.7593971,4.7977044,69005
Nuisance - Aire de jeux,playground,Inconnu,45.7476475,4.8715293,69003
Nuisance - Aire de jeux,playground,Inconnu,45.7475077,4.8714814,69003
Nuisance - Aire de jeux,playground,Inconnu,45.7477656,4.8715901,69003
Nuisance - Aire de jeux,playground,Aire de jeux Saint Vincent,45.7681412,4.8200676,69001
Nuisance - Aire de jeux,playground,Inconnu,45.743801,4.8195965,69002
Nuisance - Aire de jeux,playground,Jardin Grande Cote Haut,45.7720434,4.8323593,69001
Nuisance - Aire de jeux,playground,Jardin de la Grande Côte Bas,45.7716919,4.8322108,69001
Nuisance - Aire de jeux,playground,Cour de l'école Lamartine,45.7601841,4.8325661,69002
Nuisance - Aire de jeux,playground,Inconnu,45.7519791,4.8826323,69003
Nuisance - Aire de jeux,playground,Inconnu,45.7521262,4.882525,69003
Nuisance - Aire de jeux,playground,Inconnu,45.7582693,4.868697,69003
Nuisance - Aire de jeux,playground,Inconnu,45.7488225,4.894891,69003
Nuisance - Aire de jeux,playground,Inconnu,45.7485534,4.8948545,69003
Nuisance - Aire de jeux,playground,Inconnu,45.802842,4.8253847,69009
Nuisance - Aire de jeux,playground,Inconnu,45.7451843,4.8886028,69003
Nuisance - Aire de jeux,playground,Inconnu,45.746637,4.8632041,69008
Nuisance - Aire de jeux,playground,Inconnu,45.7584068,4.8687471,69003
Nuisance - Aire de jeux,playground,Inconnu,45.7263545,4.8218822,69007
Nuisance - Aire de jeux,playground,Inconnu,45.7366086,4.8260637,69007
Nuisance - Aire de jeux,playground,Espace Artaud,45.7808301,4.8373804,69004
Nuisance - Aire de jeux,playground,Aire de Jeux des Belvédères,45.7838465,4.7930837,69009
Nuisance - Aire de jeux,playground,Inconnu,45.7410086,4.8342637,69007
Nuisance - Aire de jeux,playground,Inconnu,45.733698,4.8807546,69008
Nuisance - Aire de jeux,playground,Inconnu,45.7361983,4.88921,69008
Nuisance - Aire de jeux,playground,Inconnu,45.7804776,4.839439,69004
Nuisance - Aire de jeux,playground,Inconnu,45.7799917,4.839323,69004
Nuisance - Aire de jeux,playground,Inconnu,45.7642914,4.7961769,69009
Nuisance - Aire de jeux,playground,Inconnu,45.7821714,4.827234,69004
Nuisance - Aire de jeux,playground,Place de l'Abbé Larue,45.7557259,4.8186446,69005
Nuisance - Aire de jeux,playground,Aire de jeux Mermoz,45.7286773,4.8846811,69008
Nuisance - Aire de jeux,playground,Inconnu,45.7285804,4.884354,69008
Nuisance - Aire de jeux,playground,Inconnu,45.7587562,4.8156472,69005
Nuisance - Aire de jeux,playground,Pressensé,45.7289468,4.8623987,69008
Nuisance - Aire de jeux,playground,Inconnu,45.7358303,4.8324429,69007
Nuisance - Aire de jeux,playground,Inconnu,45.7863365,4.799304,69009
Nuisance - Aire de jeux,playground,Place Croix Paquet,45.7715161,4.8364506,69001
Nuisance - Aire de jeux,playground,Inconnu,45.730978,4.8291458,69007
Nuisance - Aire de jeux,playground,Inconnu,45.7507301,4.8283602,69002
Nuisance - Aire de jeux,playground,Inconnu,45.7763642,4.8111933,69004
Nuisance - Aire de jeux,playground,Inconnu,45.7369101,4.8734437,69008
Nuisance - Aire de jeux,playground,Aire de jeux de 2 à 12 ans,45.7573577,4.8305,69002
Nuisance - Aire de jeux,playground,Aire de jeux de 2 à 8 ans,45.7573007,4.8307463,69002
Nuisance - Aire de jeux,playground,Parc Nelson Mandela,45.7293572,4.8749692,69008
Nuisance - Aire de jeux,playground,Inconnu,45.761313,4.8278862,69005
Nuisance - Aire de jeux,playground,Inconnu,45.7656599,4.8575336,69006
Nuisance - Aire de jeux,playground,Inconnu,45.7665215,4.8525872,69006
Nuisance - Aire de jeux,playground,Inconnu,45.7665858,4.8522298,69006
Nuisance - Aire de jeux,playground,Inconnu,45.7644436,4.8479322,69006
Nuisance - Aire de jeux,playground,Inconnu,45.7814207,4.8168816,69004
Nuisance - Aire de jeux,playground,Inconnu,45.7505924,4.8668323,69003
Nuisance - Aire de jeux,playground,Inconnu,45.7806468,4.8081772,69009
Nuisance - Aire de jeux,playground,Inconnu,45.7804638,4.80858,69009
Nuisance - Aire de jeux,playground,Inconnu,45.7308757,4.8844942,69008
Nuisance - Aire de jeux,playground,Inconnu,45.7301652,4.8864925,69008
Nuisance - Aire de jeux,playground,Inconnu,45.7275532,4.8850504,69008
Nuisance - Aire de jeux,playground,Inconnu,45.7282004,4.885631,69008
Nuisance - Aire de jeux,playground,Inconnu,45.7279201,4.8851722,69008
Nuisance - Aire de jeux,playground,Inconnu,45.7297914,4.8829092,69008
Nuisance - Aire de jeux,playground,Inconnu,45.7294339,4.882558,69008
Nuisance - Aire de jeux,playground,Inconnu,45.728808,4.8820698,69008
Nuisance - Aire de jeux,playground,Inconnu,45.7306241,4.8764914,69008
Nuisance - Aire de jeux,playground,Inconnu,45.7300365,4.8844905,69008
Nuisance - Aire de jeux,playground,Inconnu,45.7337913,4.8757035,69008
Nuisance - Aire de jeux,playground,Inconnu,45.756822,4.8015023,69005
Nuisance - Aire de jeux,playground,Inconnu,45.7565749,4.8008888,69005
Nuisance - Aire de jeux,playground,Inconnu,45.7409092,4.8204638,69002
Nuisance - Aire de jeux,playground,Inconnu,45.7316282,4.8514983,69008
Nuisance - Aire de jeux,playground,Inconnu,45.7365867,4.8625701,69008
Nuisance - Aire de jeux,playground,Inconnu,45.8068568,4.8369536,69009
Nuisance - Aire de jeux,playground,Place des Chartreux,45.7706268,4.8213441,69001
Nuisance - Aire de jeux,playground,Inconnu,45.7742317,4.8231646,69004
Nuisance - Aire de jeux,playground,Caterpilou,45.7372998,4.8181961,69002
Nuisance - Aire de jeux,playground,Inconnu,45.7492813,4.8271954,69002
Nuisance - Aire de jeux,playground,Inconnu,45.7631691,4.8139322,69005
Nuisance - Aire de jeux,playground,Berges du Rhône - Port de l'université,45.7498875,4.835043,69007
Nuisance - Aire de jeux,playground,Inconnu,45.7503398,4.8926866,69003
Nuisance - Aire de jeux,playground,Inconnu,45.7287706,4.8506914,69008
Nuisance - Aire de jeux,playground,Inconnu,45.7402212,4.8824355,69008
Nuisance - Aire de jeux,playground,Inconnu,45.7382108,4.8508713,69008
Nuisance - Aire de jeux,playground,Inconnu,45.7892932,4.792416,69009
Nuisance - Aire de jeux,playground,Inconnu,45.7377874,4.837207,69007
Nuisance - Aire de jeux,playground,Inconnu,45.7552218,4.8623826,69003
Nuisance - Aire de jeux,playground,Inconnu,45.7322358,4.8850195,69008
Nuisance - Aire de jeux,playground,Inconnu,45.7350462,4.8521735,69008
Nuisance - Aire de jeux,playground,Inconnu,45.7343021,4.8736414,69008
Nuisance - Aire de jeux,playground,Inconnu,45.7625773,4.8269756,69005
Nuisance - Aire de jeux,playground,Inconnu,45.7833836,4.800125,69009
Nuisance - Aire de jeux,playground,Génin/Pont,45.7541931,4.7961345,69005
Nuisance - Aire de jeux,playground,Berges du Rhône Renata Tebaldi,45.7661418,4.8411467,69006
Nuisance - Aire de jeux,playground,Berges du Rhône Passerelle du collège,45.7653998,4.8411289,69006
Nuisance - Aire de jeux,playground,Inconnu,45.7574899,4.8517846,69003
Nuisance - Aire de jeux,playground,Inconnu,45.749672,4.7840916,69005
Nuisance - Aire de jeux,playground,Inconnu,45.7337994,4.8549746,69008
Nuisance - Aire de jeux,playground,Aire de jeux des écuries,45.7462065,4.8538413,69007
Nuisance - Aire de jeux,playground,Inconnu,45.7325992,4.8247929,69007
Nuisance - Aire de jeux,playground,Inconnu,45.7325786,4.8255211,69007
Nuisance - Aire de jeux,playground,Aire de jeux Parvis de la Tour 106,45.7279552,4.8759109,69008
Nuisance - Aire de jeux,playground,Aire de Jeux Place Mazagran,45.752045,4.8427342,69007
Nuisance - Aire de jeux,playground,Inconnu,45.7524865,4.7824599,69005
Nuisance - Aire de jeux,playground,Inconnu,45.7606261,4.7999132,69005
Nuisance - Aire de jeux,playground,Inconnu,45.7294112,4.8316592,69007
Nuisance - Aire de jeux,playground,Inconnu,45.7324722,4.8659446,69008
Nuisance - Aire de jeux,playground,Cours intérieur de l'école maternelle Les Petits Canuts,45.7797531,4.8315274,69004
Nuisance - Aire de jeux,playground,Square de la Diversité,45.7881755,4.7888171,69009
Nuisance - Salle de Concert,music_venue,Kraspek MyziK,45.7712711,4.8357517,69001
Nuisance - Salle de Concert,music_venue,Collision,45.7708595,4.8330651,69001
Nuisance - Discothèque,nightclub,Fiesta Loca,45.7672861,4.826534,69005
Nuisance - Discothèque,nightclub,Loft Club,45.7485148,4.8419247,69007
Nuisance - Discothèque,nightclub,Les Salons du NH,45.7312449,4.8588609,69008
Nuisance - Discothèque,nightclub,Vertige X,45.7691081,4.8362133,69001
Nuisance - Discothèque,nightclub,La Cour des Grands,45.7537825,4.8193338,69005
Nuisance - Discothèque,nightclub,It Pub Bar,45.77116,4.835802,69001
Nuisance - Discothèque,nightclub,Le Fox Club Latino,45.7482591,4.8420109,69007
Nuisance - Discothèque,nightclub,Le Sucre,45.7366431,4.8150098,69002
Nuisance - Discothèque,nightclub,F&K Discoclub,45.7664423,4.8597585,69006
Nuisance - Discothèque,nightclub,Secret Dream,45.7481998,4.8288654,69002
Nuisance - Discothèque,nightclub,Raspoutine,45.7716236,4.8350589,69001
Nuisance - Discothèque,nightclub,Rock'n Eat Live,45.7709758,4.8114869,69009
Nuisance - Discothèque,nightclub,Dock Circus,45.7383581,4.8147971,69002
Nuisance - Discothèque,nightclub,Le Petit Salon,45.7408169,4.848825,69007
Nuisance - Discothèque,nightclub,Le Saône Night,45.7608438,4.8320784,69002
Nuisance - Discothèque,nightclub,La Salsa,45.7668293,4.8351224,69001
Nuisance - Discothèque,nightclub,Ambassade,45.7605798,4.8363705,69002
Nuisance - Discothèque,nightclub,La Grange au Bouc,45.7638728,4.828865,69005
Nuisance - Discothèque,nightclub,L'Étoile Tropicale,45.769964,4.8342774,69001
Nuisance - Discothèque,nightclub,Mamy Rose,45.7679536,4.8597242,69006
Nuisance - Discothèque,nightclub,Azar Club,45.7355344,4.8155505,69002
Nuisance - Discothèque,nightclub,La Maison (Club),45.7312896,4.8230026,69007
Nuisance - Discothèque,nightclub,Queen Club,45.7695306,4.8313604,69001
Nuisance - Station Service,fuel,Total Access,45.7262794,4.829065,69007
Nuisance - Station Service,fuel,Total Access,45.738463,4.8675169,69008
Nuisance - Station Service,fuel,Avia,45.7472501,4.8669996,69003
Nuisance - Station Service,fuel,Avia,45.7371867,4.8240222,69007
Nuisance - Station Service,fuel,Total Access,45.7263694,4.8394053,69007
Nuisance - Station Service,fuel,Total,45.7348657,4.8392987,69007
Nuisance - Station Service,fuel,Esso Express,45.7764017,4.8210749,69004
Nuisance - Station Service,fuel,Eni,45.754452,4.7803625,69005
Nuisance - Station Service,fuel,Eni,45.7788535,4.8283396,69004
Nuisance - Station Service,fuel,Eni,45.7805346,4.8121738,69004
Nuisance - Station Service,fuel,Total Access,45.7623454,4.8028535,69009
Nuisance - Station Service,fuel,Total,45.7746482,4.7941088,69009
Nuisance - Station Service,fuel,Quai des énergies,45.7257489,4.8389827,69007
Nuisance - Station Service,fuel,BP,45.7807288,4.8272324,69004
Nuisance - Station Service,fuel,Esso,45.7765487,4.8209277,69004
Nuisance - Station Service,fuel,Esso,45.7805705,4.8004162,69009
Nuisance - Station Service,fuel,Avia,45.7544646,4.8528314,69003
Nuisance - Station Service,fuel,Esso,45.7346426,4.8181559,69002
Nuisance - Station Service,fuel,Avia,45.7539526,4.7774658,69005
Superstition - Cimetière,cemetery,Nouveau Cimetière de la Guillotière,45.7380918,4.8557353,69008
Superstition - Cimetière,cemetery,Ancien Cimetière de la Guillotière,45.7424192,4.8549203,69007
Superstition - Cimetière,cemetery,Cimetière de Loyasse nouveau,45.7615986,4.8136997,69005
Superstition - Cimetière,cemetery,Cimetière de Loyasse ancien,45.7623863,4.8112883,69009
Superstition - Cimetière,cemetery,Ancien cimetière de la Croix-Rousse,45.7846735,4.8199766,69004
Superstition - Cimetière,cemetery,Cimetière juif de Lyon,45.7402051,4.8436375,69007
Superstition - Cimetière,cemetery,Cimetière de Saint-Rambert,45.803442,4.8349389,69009
Superstition - Cimetière,cemetery,Nouveau cimetière de la Croix-Rousse,45.7822958,4.8188609,69004
Superstition - Cimetière,cemetery,Cimetière de la Croix-Rousse,45.783387,4.8188999,69004
Superstition - Cimetière,cemetery,Cimetières de la Guillotière,45.7396499,4.8557353,69007
